{
"type": "FeatureCollection",
"name": "roads_provincial",
"crs": { "type": "name", "properties": { "name": "urn:ogc:def:crs:OGC:1.3:CRS84" } },
"features": [
{ "type": "Feature", "properties": { "source_object_id": 1000, "road_name": "Kandangan - Negara", "road_status": "Jalan Provinsi", "province": "Kalimantan Selatan", "regency": "Hulu Sungai Selatan", "source_length_km": 0.0, "geometry_length_m": 25321.65, "condition_data_included": false }, "geometry": { "type": "MultiLineString", "coordinates": [ [ [ 115.267484312339661, -2.766469883532092 ], [ 115.266466232339667, -2.765098733532084 ], [ 115.265659112339677, -2.763984713532085 ], [ 115.264496312339702, -2.762301533531996 ], [ 115.264223072339874, -2.761959983532078 ], [ 115.263873872339786, -2.761512683531998 ], [ 115.263484712339732, -2.761020833531991 ], [ 115.26310923233973, -2.760530063532053 ], [ 115.262931943238641, -2.760332450879872 ], [ 115.262746345280092, -2.760211098368613 ], [ 115.262432914164677, -2.759931416662456 ], [ 115.261882712339684, -2.759532683532044 ], [ 115.261522712339698, -2.759292923532003 ], [ 115.261302392339658, -2.759116613532087 ], [ 115.26117351233961, -2.758859663532033 ], [ 115.261033133355795, -2.758455056146227 ], [ 115.260954611142679, -2.757791186525616 ], [ 115.260918919227493, -2.757291499714396 ], [ 115.260997441440736, -2.756620491710768 ], [ 115.261064881904261, -2.756057482731634 ], [ 115.260997441440736, -2.755828131195782 ], [ 115.26089157307544, -2.755638695782316 ], [ 115.260564873780382, -2.75516653293922 ], [ 115.260269912339595, -2.75459798353196 ], [ 115.259933672339685, -2.753949353532013 ], [ 115.259576192339651, -2.753327273532047 ], [ 115.259336072339806, -2.752866653531974 ], [ 115.259287112339848, -2.75262275353204 ], [ 115.259283152339663, -2.752260593532102 ], [ 115.259325992339654, -2.751764693532004 ], [ 115.259389712339598, -2.751293363532077 ], [ 115.259277392339769, -2.750815733531988 ], [ 115.258921352339598, -2.750181773532034 ], [ 115.258722632339655, -2.749686773532035 ], [ 115.258529672339705, -2.749276103532082 ], [ 115.258406552339693, -2.748938333532094 ], [ 115.258266872339632, -2.748596963532089 ], [ 115.258069756488112, -2.74819463603773 ], [ 115.257526712339669, -2.748043373532045 ], [ 115.257203432339779, -2.748007373532082 ], [ 115.256566232339665, -2.748025373532034 ], [ 115.256278592339626, -2.748030908532061 ], [ 115.255295432339622, -2.747596523531997 ], [ 115.255055132339649, -2.747522768532039 ], [ 115.254347192339665, -2.747561873532073 ], [ 115.253716832339606, -2.747622803532039 ], [ 115.253470684509935, -2.747715316347351 ], [ 115.253043632339669, -2.74827647353205 ], [ 115.252852112339625, -2.748518123532077 ], [ 115.252717472339654, -2.748669683532087 ], [ 115.252476632339608, -2.748861608532052 ], [ 115.252231112339715, -2.748939503531939 ], [ 115.251572672339663, -2.749064243532048 ], [ 115.250347952339908, -2.749268813532094 ], [ 115.249816952339643, -2.74937015353205 ], [ 115.249450112339673, -2.749431218532002 ], [ 115.249026752339674, -2.749461413532031 ], [ 115.248779072339644, -2.749449263531993 ], [ 115.248538232339669, -2.749422713532015 ], [ 115.248231692339559, -2.74938792853199 ], [ 115.247906252339703, -2.749375598532047 ], [ 115.247559392339795, -2.749421273532072 ], [ 115.247028392339644, -2.749415783532091 ], [ 115.24660395233991, -2.749377173531995 ], [ 115.245967112339599, -2.74932407353204 ], [ 115.245410178268912, -2.749328414275165 ], [ 115.245235952339712, -2.748983693532034 ], [ 115.24508079233965, -2.74861343353203 ], [ 115.244904752339608, -2.748179003531988 ], [ 115.244695592339781, -2.747571413532086 ], [ 115.244566532339604, -2.74713707353199 ], [ 115.244491472339746, -2.746762133532088 ], [ 115.244444672339796, -2.74644893353209 ], [ 115.244405072339873, -2.746090643532023 ], [ 115.24434243233965, -2.745369383532045 ], [ 115.244303192339672, -2.744802293532103 ], [ 115.244289512339719, -2.744439323532069 ], [ 115.244273672339645, -2.744128553531954 ], [ 115.244247752339689, -2.743922093531998 ], [ 115.244204372339581, -2.743719278532095 ], [ 115.244109512339591, -2.743437893532106 ], [ 115.243902512339673, -2.742977453532008 ], [ 115.243718912339773, -2.742588113532038 ], [ 115.243556912339741, -2.742220103532038 ], [ 115.243382672339635, -2.741842643532002 ], [ 115.24320411233964, -2.741507843531984 ], [ 115.242987392339629, -2.741215793532006 ], [ 115.242704792339737, -2.740923653532053 ], [ 115.242240392339667, -2.74052432353207 ], [ 115.242010352339676, -2.740350263532058 ], [ 115.241302592339707, -2.739830243532055 ], [ 115.240515272339735, -2.739247943532083 ], [ 115.24000407233973, -2.738846183532047 ], [ 115.239212432339642, -2.738244803532007 ], [ 115.23876207233981, -2.737881203532045 ], [ 115.238273775124384, -2.737505263614056 ], [ 115.237848032339699, -2.73710648353207 ], [ 115.237577312339681, -2.736819023532082 ], [ 115.237358072339603, -2.73651266353207 ], [ 115.23692967233967, -2.735899943532061 ], [ 115.236404792339613, -2.735158973531976 ], [ 115.235693432339772, -2.734299203532045 ], [ 115.235328392339753, -2.733890603532099 ], [ 115.234944272339717, -2.733519983532092 ], [ 115.234569872339648, -2.733154133531995 ], [ 115.23429663233982, -2.732904653532064 ], [ 115.234020872339897, -2.732681183532034 ], [ 115.233686072339765, -2.732483723532053 ], [ 115.232849432339663, -2.731986743531961 ], [ 115.2322295123397, -2.731625213532046 ], [ 115.23163767233973, -2.731268543532015 ], [ 115.231013072339579, -2.730916463532044 ], [ 115.230395312339624, -2.73065699353205 ], [ 115.229511152339796, -2.730278453531995 ], [ 115.228615472339598, -2.729824043532086 ], [ 115.227811592339663, -2.729417243532076 ], [ 115.227113912339732, -2.729036543532089 ], [ 115.226868752339669, -2.728829813531971 ], [ 115.2266405123396, -2.728544873531989 ], [ 115.226532152339701, -2.728274153531989 ], [ 115.226459432339766, -2.728022693531984 ], [ 115.226227232339753, -2.727116033532095 ], [ 115.22605839233961, -2.726494313532067 ], [ 115.225922312339677, -2.725998233532069 ], [ 115.225746272339734, -2.72529587353195 ], [ 115.225570592339764, -2.724562463532002 ], [ 115.225418312339912, -2.72383166353201 ], [ 115.225249472339669, -2.723041373532026 ], [ 115.225153712339647, -2.722455293532014 ], [ 115.225020152339653, -2.721712613532037 ], [ 115.224819272339687, -2.720492933532082 ], [ 115.224749072339819, -2.720023043532046 ], [ 115.224655832339749, -2.719351553531989 ], [ 115.224569072339818, -2.718888863532101 ], [ 115.224375185981799, -2.718182974537417 ], [ 115.224195392339638, -2.717782763532023 ], [ 115.223697512339641, -2.716728683532068 ], [ 115.223329232339893, -2.715950723532076 ], [ 115.223021432339692, -2.715268793532027 ], [ 115.22268915233974, -2.71456175353207 ], [ 115.222392512339653, -2.713891703532077 ], [ 115.220862872339595, -2.710575203532096 ], [ 115.220128472339752, -2.708815703531992 ], [ 115.219855232339697, -2.708205773532055 ], [ 115.219574792339586, -2.707522223532085 ], [ 115.219322432339723, -2.706840743532009 ], [ 115.219025432339791, -2.706158813532076 ], [ 115.218776312339628, -2.705548703532047 ], [ 115.218551312339628, -2.704949753532071 ], [ 115.218279512339677, -2.704159733532055 ], [ 115.218089432339653, -2.703441713532035 ], [ 115.217983232339748, -2.702879753532007 ], [ 115.21781727233963, -2.702232743532044 ], [ 115.217652392339701, -2.701682753532074 ], [ 115.217415512339826, -2.701143743532066 ], [ 115.217059472339656, -2.700377753532018 ], [ 115.216454312339692, -2.699288753532104 ], [ 115.216122392339813, -2.69866577353204 ], [ 115.214876432339665, -2.696307773532071 ], [ 115.214045192339668, -2.694906743532067 ], [ 115.213511312339733, -2.693960753532023 ], [ 115.212503312339663, -2.692152743532081 ], [ 115.212088232339738, -2.691362723532011 ], [ 115.211684312339685, -2.690548763532006 ], [ 115.211257352339786, -2.689793753531962 ], [ 115.210778912339592, -2.689094003532054 ], [ 115.210466196831703, -2.688839398952513 ], [ 115.209961751098376, -2.688444408425555 ], [ 115.209305019860722, -2.687920927004229 ], [ 115.208272333784166, -2.687064321042177 ], [ 115.20668285383249, -2.685717546112894 ], [ 115.205731069430058, -2.684937082902835 ], [ 115.20484115101398, -2.684218485679162 ], [ 115.204084482414046, -2.683633138271795 ], [ 115.203480099318426, -2.683085862240446 ], [ 115.203108903401585, -2.682814603685721 ], [ 115.202628252278387, -2.682533827287061 ], [ 115.202223743907439, -2.682276845498412 ], [ 115.201790682004471, -2.682072211851991 ], [ 115.201219611363058, -2.681853301439414 ], [ 115.200715165629845, -2.681710533779056 ], [ 115.200053675470144, -2.681505900132578 ], [ 115.199515917282838, -2.681301266486077 ], [ 115.198492749050402, -2.681010972243341 ], [ 115.1978074642808, -2.680730195844687 ], [ 115.196887232339691, -2.680413143532093 ], [ 115.195994314994095, -2.680140089515164 ], [ 115.195437521118961, -2.679973527244801 ], [ 115.194840632339606, -2.679739673532045 ], [ 115.194143094331594, -2.679588054561885 ], [ 115.193300765135518, -2.679392938759318 ], [ 115.192734453416264, -2.679293001397037 ], [ 115.192220489838974, -2.679278724631119 ], [ 115.191892124220217, -2.679364385227323 ], [ 115.191673213807576, -2.679497635043586 ], [ 115.191497133693147, -2.679778411442347 ], [ 115.191373401721066, -2.679940214790661 ], [ 115.190535831446823, -2.680416106991872 ], [ 115.189650671952677, -2.680953865179185 ], [ 115.189012976403077, -2.681353614628188 ], [ 115.188146852596901, -2.681877096049408 ], [ 115.187125587933238, -2.682522405874195 ], [ 115.181046065063455, -2.68630574887353 ], [ 115.176691651422743, -2.688994539810125 ], [ 115.175513818224999, -2.689755967331928 ], [ 115.175145001768897, -2.689898734992274 ], [ 115.174538239212438, -2.689613199671637 ], [ 115.171623399480382, -2.68830449611831 ], [ 115.169273072339593, -2.687233073532086 ], [ 115.16635289335251, -2.686032110857883 ], [ 115.165769925406053, -2.68571088362207 ], [ 115.165460595475125, -2.68540155369131 ], [ 115.165139552339738, -2.685128783532052 ], [ 115.164401735327488, -2.684473563899041 ], [ 115.16355702667046, -2.683747828292286 ], [ 115.161416432339706, -2.681860703531951 ], [ 115.160595272339592, -2.681213693532044 ], [ 115.159277312339654, -2.680145753532057 ], [ 115.157909312339598, -2.678954783532022 ], [ 115.156779272339705, -2.678010773532054 ], [ 115.155454961945566, -2.67699015903567 ], [ 115.153182576685026, -2.675074692925957 ], [ 115.151472512339765, -2.673570713532073 ], [ 115.149808232339765, -2.672163743532078 ], [ 115.149074192339754, -2.67155381353208 ], [ 115.148181392339794, -2.670703673532062 ], [ 115.146923192339727, -2.669472743531991 ], [ 115.145497232339721, -2.668082783532005 ], [ 115.14493923233978, -2.66749571353201 ], [ 115.144321472339598, -2.666872733532074 ], [ 115.143359552339788, -2.665914773532079 ], [ 115.142328512339759, -2.664916763532079 ], [ 115.141536512339599, -2.664139703532073 ], [ 115.140550472339669, -2.663100743531997 ], [ 115.139701232339803, -2.662244753532063 ], [ 115.138837232339725, -2.661227753532019 ], [ 115.137564272339645, -2.659732763532044 ], [ 115.135224272339656, -2.657252723532027 ], [ 115.133825661402625, -2.655803438239802 ], [ 115.133273363119557, -2.655187899220117 ], [ 115.13262104311957, -2.654482389220127 ], [ 115.131316832339735, -2.653030823532021 ], [ 115.13062671233979, -2.652313433532087 ], [ 115.128801512339805, -2.650448453532039 ], [ 115.127515330815299, -2.649217090175594 ], [ 115.126953778017764, -2.648665055222323 ], [ 115.126477885816598, -2.648132055956947 ], [ 115.12532622668995, -2.646942325454029 ], [ 115.124286752339799, -2.645739923532087 ], [ 115.123973552339635, -2.645412143532064 ], [ 115.123429232339731, -2.644839563532028 ], [ 115.122623912339691, -2.644024703532035 ], [ 115.122039632339707, -2.643416483532091 ], [ 115.121712392339759, -2.643083933532092 ], [ 115.121005125503174, -2.642402313854932 ], [ 115.120262733669492, -2.641564743580914 ], [ 115.119063485322485, -2.640317906013844 ], [ 115.117564472339623, -2.638684733532074 ], [ 115.11626952564319, -2.637424129354245 ], [ 115.11626952564319, -2.63742412935416 ] ] ] } },
{ "type": "Feature", "properties": { "source_object_id": 374, "road_name": "Jl. Lingkar Selatan Kandangan - Negara", "road_status": "Jalan Provinsi", "province": "Kalimantan Selatan", "regency": "Hulu Sungai Selatan", "source_length_km": 1.31, "geometry_length_m": 1858.47, "condition_data_included": false }, "geometry": { "type": "MultiLineString", "coordinates": [ [ [ 115.107955451866289, -2.629466955161508 ], [ 115.108089635441559, -2.629553925997325 ], [ 115.108136848181005, -2.629583744569611 ], [ 115.108236243421928, -2.629655806119293 ], [ 115.108268546875252, -2.62969556421567 ], [ 115.108294745644898, -2.629713030062105 ], [ 115.108336879683179, -2.629745867116065 ], [ 115.108376173284583, -2.629790300304689 ], [ 115.108399080781552, -2.629817168080756 ], [ 115.108399080781552, -2.629817168080756 ], [ 115.108427367501832, -2.629852274895302 ], [ 115.108397501559921, -2.629954135389876 ], [ 115.108375901559725, -2.630027395389895 ], [ 115.10835502155976, -2.630098855389861 ], [ 115.108354661559929, -2.630100745389939 ], [ 115.108333061559733, -2.630174005389961 ], [ 115.108302461559802, -2.630239975389948 ], [ 115.108297421559769, -2.630250235389888 ], [ 115.108261781559804, -2.630326555389901 ], [ 115.108243781559722, -2.630365525389953 ], [ 115.108226501559784, -2.630402785389887 ], [ 115.108190861559834, -2.630479015389875 ], [ 115.108155221559755, -2.630555245389875 ], [ 115.108123271121627, -2.630609546650323 ], [ 115.108076381559741, -2.630688805389929 ], [ 115.108037141559763, -2.630755585389855 ], [ 115.107997901559884, -2.630822365389858 ], [ 115.107958661559778, -2.630889055389895 ], [ 115.10791906155977, -2.630955835389896 ], [ 115.107879821559891, -2.631022615389952 ], [ 115.107834821559891, -2.631099655389896 ], [ 115.107789821559891, -2.631176695389973 ], [ 115.107744461559832, -2.631253645389968 ], [ 115.107699461559832, -2.631330685389914 ], [ 115.107654461559733, -2.631407725389924 ], [ 115.107609461559733, -2.631484765389866 ], [ 115.107564461559733, -2.63156171538987 ], [ 115.107519461559733, -2.631638755389926 ], [ 115.107474461559733, -2.631715795389929 ], [ 115.10744134155982, -2.631792025389932 ], [ 115.107408581559767, -2.631868255389909 ], [ 115.107375821559913, -2.631944395389897 ], [ 115.10734306155986, -2.632020625389881 ], [ 115.107310301559778, -2.632096855389933 ], [ 115.107277541559725, -2.632173085389922 ], [ 115.107244421559713, -2.632249225389894 ], [ 115.107211661559859, -2.632325455389895 ], [ 115.107182501559933, -2.632403755389874 ], [ 115.107152981559906, -2.632481965389952 ], [ 115.107123821559853, -2.63256026538988 ], [ 115.107094301559869, -2.632638475389964 ], [ 115.107065141559943, -2.632716685389935 ], [ 115.107035981559875, -2.63279498538992 ], [ 115.107006461559891, -2.632873195389939 ], [ 115.106977301559837, -2.632951495389924 ], [ 115.106947781559825, -2.633029705389899 ], [ 115.106918621559885, -2.633108005389884 ], [ 115.106889101559773, -2.633186215389963 ], [ 115.106857781559825, -2.633263975389931 ], [ 115.106826461559763, -2.633341645389859 ], [ 115.106795141559815, -2.63341931538992 ], [ 115.106763821559852, -2.633497075389917 ], [ 115.106732501559804, -2.633574745389865 ], [ 115.106701181559856, -2.633652505389932 ], [ 115.106669861559894, -2.633730175389868 ], [ 115.106638541559846, -2.633807845389919 ], [ 115.106619821559903, -2.633886415389891 ], [ 115.106601101559932, -2.63396498538993 ], [ 115.106582381559761, -2.634043465389934 ], [ 115.10656366155979, -2.63412203538997 ], [ 115.106544941559719, -2.634200515389857 ], [ 115.106541341581959, -2.634215871545271 ], [ 115.106539181559825, -2.634225085389851 ], [ 115.10653605336789, -2.634238715385104 ], [ 115.106518661559917, -2.634310135389967 ], [ 115.106522261559817, -2.634390415389872 ], [ 115.106525501559872, -2.634470785389972 ], [ 115.106528741559842, -2.634551065389923 ], [ 115.106531981559897, -2.634631435389902 ], [ 115.106535221559866, -2.634711715389934 ], [ 115.106537741559791, -2.634775885389963 ], [ 115.106538461559921, -2.634791995389896 ], [ 115.106541701559763, -2.634872365389867 ], [ 115.106549621559907, -2.634956065389867 ], [ 115.106557541559695, -2.635039855389956 ], [ 115.106565101559781, -2.635123555389954 ], [ 115.106573021559711, -2.635207345389862 ], [ 115.106580941559855, -2.635291135389882 ], [ 115.106588501559713, -2.635374835389881 ], [ 115.106632061559822, -2.635434685389958 ], [ 115.106675621559816, -2.635494625389932 ], [ 115.106719181559924, -2.635554475389939 ], [ 115.106790461559754, -2.635584445389902 ], [ 115.106861741559783, -2.635614505389924 ], [ 115.106933021559712, -2.635644475389888 ], [ 115.107095970477772, -2.635740535266222 ], [ 115.107150440200925, -2.635741447184052 ], [ 115.107218774429072, -2.635762568672753 ], [ 115.107218774429072, -2.635762568672753 ], [ 115.1073492306828, -2.635780584060166 ], [ 115.107413837589419, -2.635787417482992 ], [ 115.107413837589419, -2.635787417482992 ], [ 115.107559203129341, -2.635806054090656 ], [ 115.107622781559712, -2.635759225389955 ], [ 115.107701261559797, -2.635780825389865 ], [ 115.107779741559739, -2.635802515389905 ], [ 115.107858221559795, -2.635824115389943 ], [ 115.10793670155978, -2.635845805389865 ], [ 115.108015181559722, -2.635867495389965 ], [ 115.108099781559773, -2.635887115389884 ], [ 115.10818402155985, -2.635906735389935 ], [ 115.108268621559887, -2.635926445389936 ], [ 115.108353221559923, -2.63594606538987 ], [ 115.108437461559802, -2.635965685389913 ], [ 115.108522061559711, -2.635985305389962 ], [ 115.108606661559747, -2.636005015389973 ], [ 115.108691261559898, -2.636024635389901 ], [ 115.108775501559862, -2.636044255389952 ], [ 115.108860101559799, -2.636063965389956 ], [ 115.108944701559849, -2.636083585389878 ], [ 115.109028941559686, -2.636103205389935 ], [ 115.109113541559736, -2.63612282538987 ], [ 115.109198141559901, -2.636142535389915 ], [ 115.109282381559751, -2.63616215538991 ], [ 115.109366981559788, -2.636181775389956 ], [ 115.109451581559725, -2.636201485389957 ], [ 115.10953582155993, -2.636221105389888 ], [ 115.109620421559839, -2.636240725389944 ], [ 115.109707181559884, -2.63626223538995 ], [ 115.109793581559757, -2.636283745389961 ], [ 115.109880341559787, -2.636305255389852 ], [ 115.109967101559732, -2.636326675389958 ], [ 115.110053501559733, -2.63634818538986 ], [ 115.110140261559863, -2.636369695389933 ], [ 115.110227021559709, -2.636391205389939 ], [ 115.110313421559809, -2.636412715389953 ], [ 115.110400181559839, -2.636434135389951 ], [ 115.110486581559726, -2.636455645389952 ], [ 115.110573341559757, -2.636477155389972 ], [ 115.110660101559802, -2.636498665389871 ], [ 115.110746501559902, -2.636520175389883 ], [ 115.110833261559833, -2.636541685389882 ], [ 115.110918581559744, -2.636560675389941 ], [ 115.111003541559853, -2.636579755389896 ], [ 115.111088861559793, -2.636598835389922 ], [ 115.111174181559932, -2.636617915389873 ], [ 115.111259501559744, -2.636636995389948 ], [ 115.111344461559838, -2.636656075389907 ], [ 115.11142978155975, -2.636675155389919 ], [ 115.111515101559917, -2.636694235389889 ], [ 115.111600061559798, -2.636713315389954 ], [ 115.111685381559838, -2.636732305389952 ], [ 115.111770701559749, -2.63675138538991 ], [ 115.111856021559916, -2.636770465389876 ], [ 115.111938461559703, -2.636789725389859 ], [ 115.112020901559845, -2.636808985389958 ], [ 115.112103341559745, -2.636828245389955 ], [ 115.112185781559788, -2.636847505389881 ], [ 115.11224014155971, -2.636860285389957 ], [ 115.112268221559802, -2.636866765389872 ], [ 115.112350661559745, -2.636886115389869 ], [ 115.112433101559887, -2.63690537538986 ], [ 115.112515541559901, -2.636924635389965 ], [ 115.112597981559816, -2.63694389538995 ], [ 115.112680421559858, -2.636963155389932 ], [ 115.112762861559773, -2.636982415389928 ], [ 115.112845301559787, -2.637001675389903 ], [ 115.112927741559929, -2.637020935389893 ], [ 115.113010181559829, -2.637040195389946 ], [ 115.113092621559872, -2.637059455389927 ], [ 115.113174341559883, -2.637083485389955 ], [ 115.113256421559768, -2.637107515389914 ], [ 115.11333814155978, -2.637131635389948 ], [ 115.11342022155975, -2.637155665389972 ], [ 115.113501941559775, -2.637179695389932 ], [ 115.113584021559845, -2.637203725389949 ], [ 115.113665741559885, -2.637227755389923 ], [ 115.113747821559741, -2.637251875389947 ], [ 115.113829541559781, -2.637275905389853 ], [ 115.113912701559926, -2.637293995389938 ], [ 115.113996221559901, -2.637311995389947 ], [ 115.114079381559804, -2.637330085389916 ], [ 115.114162541559722, -2.63734817538989 ], [ 115.114245701559867, -2.637366265389921 ], [ 115.114329221559842, -2.637384355389885 ], [ 115.114412381559745, -2.637402355389957 ], [ 115.114495541559791, -2.637420445389925 ], [ 115.114578701559935, -2.637438535389947 ], [ 115.114661861559838, -2.637456625389908 ], [ 115.11474790155988, -2.63748200538987 ], [ 115.114833581559878, -2.637507385389941 ], [ 115.114919621559793, -2.63753276538989 ], [ 115.115005301559805, -2.637558145389953 ], [ 115.115091341559705, -2.637583525389921 ], [ 115.115177381559874, -2.637608905389922 ], [ 115.115263061559844, -2.637634285389943 ], [ 115.115349101559886, -2.637659665389946 ], [ 115.115434781559884, -2.637685045389908 ], [ 115.115508581559752, -2.637699535389855 ], [ 115.115582381559776, -2.637714025389873 ], [ 115.115655821559798, -2.637728425389916 ], [ 115.115729621559694, -2.637742915389885 ], [ 115.115803421559804, -2.637757405389942 ], [ 115.115880821559827, -2.637721585389903 ], [ 115.115958221559822, -2.637685855389864 ], [ 115.116017621559763, -2.63763572538989 ], [ 115.116077381559776, -2.637585595389914 ], [ 115.116136781559817, -2.637535375389853 ], [ 115.11619654155983, -2.637485245389884 ], [ 115.116255941559771, -2.637435115389906 ], [ 115.11626952564319, -2.637424129354245 ] ] ] } },
{ "type": "Feature", "properties": { "source_object_id": 375, "road_name": "Negara - Muara Tapus", "road_status": "Jalan Provinsi", "province": "Kalimantan Selatan", "regency": "Hulu Sungai Selatan", "source_length_km": 29.76, "geometry_length_m": 12605.33, "condition_data_included": false }, "geometry": { "type": "MultiLineString", "coordinates": [ [ [ 115.107955451866289, -2.629466955161508 ], [ 115.107981612632841, -2.62933512208667 ], [ 115.108018404254878, -2.629274708084862 ], [ 115.108027764254899, -2.629191638084846 ], [ 115.108037124254821, -2.629108478084876 ], [ 115.108046484254871, -2.629025408084862 ], [ 115.108055844254793, -2.628942248084877 ], [ 115.108064844254756, -2.628859178084866 ], [ 115.108072434816791, -2.628791738861048 ], [ 115.108080324254757, -2.62872246808493 ], [ 115.108086444254837, -2.628668918084864 ], [ 115.108070604254905, -2.628590798084907 ], [ 115.108054764254831, -2.62851258808488 ], [ 115.108038924254785, -2.6284343780849 ], [ 115.108023444254869, -2.628356258084837 ], [ 115.108007604254823, -2.628278048084923 ], [ 115.107991764254763, -2.628199838084837 ], [ 115.107967644254728, -2.628124688084851 ], [ 115.107943164254863, -2.628049448084852 ], [ 115.10791868425477, -2.627974208084901 ], [ 115.107894564254735, -2.627898968084899 ], [ 115.10787008425487, -2.627823728084904 ], [ 115.107845604254777, -2.627748488084907 ], [ 115.107821484254742, -2.6276732480849 ], [ 115.107795564254872, -2.627599448084907 ], [ 115.107770004254718, -2.627525558084846 ], [ 115.107744084254719, -2.62745166808483 ], [ 115.107718524254693, -2.627377868084885 ], [ 115.107692964254767, -2.627303978084885 ], [ 115.107667044254669, -2.627230088084937 ], [ 115.107641484254742, -2.627156288084931 ], [ 115.107629877702891, -2.627127112711471 ], [ 115.107615204254714, -2.627090228084882 ], [ 115.107583884254765, -2.627010758084877 ], [ 115.107552204254873, -2.626931288084883 ], [ 115.107520884254683, -2.626851728084865 ], [ 115.107489204254804, -2.626772258084862 ], [ 115.107457884254842, -2.626692788084845 ], [ 115.107426204254722, -2.62661331808485 ], [ 115.107394884254774, -2.626533848084843 ], [ 115.107351684254738, -2.626464638084915 ], [ 115.107308484254673, -2.626395518084883 ], [ 115.107265284254737, -2.626326308084832 ], [ 115.107221724254856, -2.626257098084894 ], [ 115.107178524254806, -2.626187978084917 ], [ 115.107135324254756, -2.626118768084862 ], [ 115.107092124254692, -2.626049558084925 ], [ 115.107048924254755, -2.625980438084902 ], [ 115.107005724254719, -2.625911228084842 ], [ 115.106960364254888, -2.625840938084907 ], [ 115.10691500425483, -2.625770738084869 ], [ 115.106869644254786, -2.625700448084924 ], [ 115.106824284254827, -2.62563024808489 ], [ 115.106778924254755, -2.625559958084837 ], [ 115.106733564254725, -2.625489758084908 ], [ 115.106688204254766, -2.625419468084915 ], [ 115.106642844254694, -2.625349268084873 ], [ 115.106597484254891, -2.625278978084941 ], [ 115.106548524254706, -2.62520796808493 ], [ 115.106499564254733, -2.625136868084927 ], [ 115.106450604254775, -2.62506576808491 ], [ 115.106401644254817, -2.624994668084897 ], [ 115.106352684254858, -2.624923658084834 ], [ 115.106311479546306, -2.624862105691311 ], [ 115.106254764254714, -2.624781458084918 ], [ 115.106208324254837, -2.624713778084899 ], [ 115.106159004254806, -2.624638808084931 ], [ 115.106110044254848, -2.624563748084918 ], [ 115.10606108425489, -2.624488688084938 ], [ 115.106012124254704, -2.624413628084859 ], [ 115.105962804254801, -2.62433865808484 ], [ 115.105913844254843, -2.624263598084864 ], [ 115.10586200425476, -2.624191238084937 ], [ 115.105810524254736, -2.624118788084869 ], [ 115.105758684254781, -2.624046428084939 ], [ 115.105707204254756, -2.623974068084889 ], [ 115.105655364254886, -2.623901708084853 ], [ 115.105603524254704, -2.623829258084901 ], [ 115.105552044254651, -2.623756898084847 ], [ 115.105500204254696, -2.623684538084923 ], [ 115.105448724254899, -2.623612178084864 ], [ 115.105415604254787, -2.623552148084888 ], [ 115.105391730698173, -2.623508942137239 ], [ 115.105382484254875, -2.623492208084915 ], [ 115.105349364254749, -2.623432178084924 ], [ 115.105316604254796, -2.623372238084842 ], [ 115.105281324254889, -2.623308518084877 ], [ 115.1052464042548, -2.623244888084935 ], [ 115.105211484254752, -2.623181168084933 ], [ 115.105167564254685, -2.623112858084851 ], [ 115.105123644254746, -2.623044638084907 ], [ 115.105079724254693, -2.622976418084844 ], [ 115.105035804254754, -2.622908108084878 ], [ 115.104991884254716, -2.622839888084946 ], [ 115.104947964254748, -2.622771668084876 ], [ 115.10490404425471, -2.622703358084912 ], [ 115.10486012425477, -2.622635138084855 ], [ 115.104819804254845, -2.62256331808485 ], [ 115.104779484254692, -2.622491498084879 ], [ 115.104739164254767, -2.622419678084875 ], [ 115.104698844254855, -2.622347768084889 ], [ 115.104658524254688, -2.622275948084871 ], [ 115.104618204254876, -2.622204128084922 ], [ 115.104577884254738, -2.622132308084906 ], [ 115.104537564254798, -2.622060488084824 ], [ 115.104503364254839, -2.621981108084837 ], [ 115.104469524254824, -2.621901818084926 ], [ 115.10443568425471, -2.621822438084935 ], [ 115.104401844254795, -2.621743058084838 ], [ 115.104368004254781, -2.621663768084854 ], [ 115.104334164254894, -2.621584388084863 ], [ 115.104300324254879, -2.621505098084897 ], [ 115.104270444254695, -2.621425718084911 ], [ 115.104240924254697, -2.621346428084869 ], [ 115.104211044254754, -2.621267048084897 ], [ 115.104181164254825, -2.621187758084917 ], [ 115.104151284254769, -2.62110837808493 ], [ 115.10412176425487, -2.621029088084834 ], [ 115.104091884254686, -2.620949708084843 ], [ 115.104068124254852, -2.620876358084933 ], [ 115.104044364254861, -2.620802918084876 ], [ 115.104020964254829, -2.620729478084945 ], [ 115.103997204254853, -2.620656128084895 ], [ 115.103973444254862, -2.620582688084854 ], [ 115.1039496842548, -2.620509338084935 ], [ 115.103924844254735, -2.620426718084932 ], [ 115.103899644254767, -2.620344098084923 ], [ 115.103874804254843, -2.620261478084929 ], [ 115.103849604254876, -2.620178948084821 ], [ 115.103813455473372, -2.620103402710181 ], [ 115.103812111213358, -2.620061043497657 ], [ 115.103807844254817, -2.620040168084903 ], [ 115.103780844254885, -2.619963578084907 ], [ 115.103754204254784, -2.619886988084853 ], [ 115.103727204254739, -2.619810398084915 ], [ 115.103700204254807, -2.619733808084867 ], [ 115.103673564254706, -2.619657218084941 ], [ 115.103646564254788, -2.619580538084869 ], [ 115.103622804254783, -2.619503948084946 ], [ 115.103599404254751, -2.619427358084829 ], [ 115.103575644254789, -2.619350768084906 ], [ 115.103551884254827, -2.619274178084855 ], [ 115.103528124254723, -2.619197588084909 ], [ 115.10350472425479, -2.619120998084867 ], [ 115.103480964254729, -2.619044408084938 ], [ 115.103457204254738, -2.618967818084948 ], [ 115.103438484254795, -2.618885378084855 ], [ 115.103419404254751, -2.61880284808493 ], [ 115.10340068425468, -2.618720408084892 ], [ 115.103381604254906, -2.618637968084863 ], [ 115.103362884254736, -2.618555438084891 ], [ 115.103343804254834, -2.618472998084906 ], [ 115.103325084254863, -2.618390468084923 ], [ 115.103306004254847, -2.618308028084846 ], [ 115.103286924254718, -2.618225588084873 ], [ 115.103268204254746, -2.618143058084885 ], [ 115.103249124254745, -2.618060618084906 ], [ 115.103230404254802, -2.617978178084937 ], [ 115.103211324254772, -2.617895648084836 ], [ 115.103198004254779, -2.617806818084864 ], [ 115.103184684254799, -2.617717898084867 ], [ 115.103171004254861, -2.617628978084923 ], [ 115.103157684254839, -2.61754014808483 ], [ 115.103144004254801, -2.617451228084824 ], [ 115.103130684254694, -2.617362398084857 ], [ 115.1031173642547, -2.617273478084851 ], [ 115.103109084254726, -2.617188428084865 ], [ 115.103100444254693, -2.617103378084916 ], [ 115.103092164254718, -2.617018238084905 ], [ 115.103083884254758, -2.616933188084855 ], [ 115.103075604254769, -2.616848138084856 ], [ 115.103067324254809, -2.616762998084902 ], [ 115.10305904425482, -2.616677948084907 ], [ 115.103050764254832, -2.616592898084861 ], [ 115.103042124254713, -2.61650784808486 ], [ 115.103028155964836, -2.616415493282425 ], [ 115.103028084254802, -2.616353678084896 ], [ 115.103020884254676, -2.616276548084917 ], [ 115.103012604254701, -2.61618870808493 ], [ 115.10300468425477, -2.616100778084929 ], [ 115.10299640425481, -2.616012848084915 ], [ 115.102988124254836, -2.615925008084876 ], [ 115.102980204254706, -2.615837078084859 ], [ 115.102971924254717, -2.61574914808486 ], [ 115.102963644254729, -2.61566130808487 ], [ 115.102955724254841, -2.615573378084923 ], [ 115.102947444254852, -2.615485448084908 ], [ 115.102939164254863, -2.615397608084916 ], [ 115.10292368425489, -2.615312468084907 ], [ 115.102907844254815, -2.615227418084851 ], [ 115.102892004254869, -2.615142278084841 ], [ 115.102876524254867, -2.615057228084916 ], [ 115.102860684254821, -2.614972178084915 ], [ 115.102844844254875, -2.614887038084843 ], [ 115.102829004254801, -2.614801988084847 ], [ 115.102813524254785, -2.614716848084889 ], [ 115.102797684254739, -2.614631798084902 ], [ 115.102776084254884, -2.614546568084937 ], [ 115.102754124254872, -2.614461428084917 ], [ 115.102732524254776, -2.614376198084906 ], [ 115.10271056425475, -2.614290968084922 ], [ 115.102688964254781, -2.6142057380849 ], [ 115.102667004254769, -2.614120598084901 ], [ 115.102645404254673, -2.614035368084919 ], [ 115.102623804254705, -2.61395013808491 ], [ 115.102601844254679, -2.613864998084837 ], [ 115.102580244254838, -2.613779768084918 ], [ 115.102552524254875, -2.613699308084939 ], [ 115.102525164254914, -2.613618938084844 ], [ 115.102497804254796, -2.613538478084856 ], [ 115.102470084254733, -2.613458018084848 ], [ 115.102442724254871, -2.61337764808493 ], [ 115.102415364254881, -2.613297188084887 ], [ 115.102387644254719, -2.613216818084843 ], [ 115.102360284254729, -2.613136358084856 ], [ 115.102332924254867, -2.61305589808486 ], [ 115.102305204254804, -2.612975528084887 ], [ 115.102272804254795, -2.612897498084838 ], [ 115.102240404254772, -2.612819558084857 ], [ 115.102208004254791, -2.612741618084923 ], [ 115.10217524425471, -2.612663588084922 ], [ 115.102142844254686, -2.612585648084887 ], [ 115.10212606295083, -2.612545233111462 ], [ 115.102110444254706, -2.612507618084887 ], [ 115.102077684254851, -2.612429678084854 ], [ 115.102045284254828, -2.612351738084866 ], [ 115.102012884254847, -2.612273708084935 ], [ 115.101980124254766, -2.612195768084835 ], [ 115.101947724254742, -2.612117828084913 ], [ 115.101915324254762, -2.612039798084899 ], [ 115.101882924254838, -2.611961858084871 ], [ 115.101850164254785, -2.611883828084862 ], [ 115.101814524254706, -2.611807238084941 ], [ 115.1017792442548, -2.611730648084829 ], [ 115.101743604254722, -2.611654058084889 ], [ 115.101707964254771, -2.611577378084831 ], [ 115.101672324254693, -2.611500788084895 ], [ 115.101636684254714, -2.611424198084902 ], [ 115.101601404254694, -2.611347608084857 ], [ 115.101565764254744, -2.611271018084913 ], [ 115.101528684254873, -2.611196498084864 ], [ 115.101491964254848, -2.611121978084925 ], [ 115.101454884254778, -2.61104754808489 ], [ 115.101418164254738, -2.610973028084826 ], [ 115.101381084254783, -2.610898508084881 ], [ 115.101344364254743, -2.61082407808485 ], [ 115.101307284254887, -2.610749558084906 ], [ 115.101270564254847, -2.610675128084913 ], [ 115.101233844254836, -2.610600608084858 ], [ 115.101197124254824, -2.610519878084836 ], [ 115.101160404254784, -2.610439148084908 ], [ 115.101124044254831, -2.610358418084875 ], [ 115.101087324254792, -2.610277778084906 ], [ 115.10105060425478, -2.610197048084864 ], [ 115.101014244254799, -2.610116318084834 ], [ 115.100977524254787, -2.610035588084907 ], [ 115.100943684254773, -2.609961698084843 ], [ 115.100909844254858, -2.609887898084854 ], [ 115.100876004254729, -2.609814008084895 ], [ 115.100842164254715, -2.609740118084891 ], [ 115.1008083242548, -2.609666228084941 ], [ 115.100774484254785, -2.609592338084928 ], [ 115.100740644254898, -2.60951844808485 ], [ 115.100710044254853, -2.609445728084863 ], [ 115.100703530840732, -2.609430045489542 ], [ 115.100679804254824, -2.609372918084865 ], [ 115.100649564254837, -2.609300198084921 ], [ 115.100618964254778, -2.609227388084918 ], [ 115.100588724254891, -2.609154578084864 ], [ 115.100556684254713, -2.609073218084884 ], [ 115.100524644254762, -2.608991858084858 ], [ 115.100492964254769, -2.608910408084889 ], [ 115.100460924254818, -2.608829048084917 ], [ 115.100428884254868, -2.608747688084831 ], [ 115.100396844254689, -2.608666238084855 ], [ 115.100364804254838, -2.608584878084881 ], [ 115.100332764254873, -2.608503518084912 ], [ 115.10030432425485, -2.608430978084832 ], [ 115.100275884254799, -2.608358528084899 ], [ 115.100247444254734, -2.608285988084931 ], [ 115.100219004254683, -2.608213448084848 ], [ 115.100190564254859, -2.608140998084909 ], [ 115.100162124254794, -2.608068458084887 ], [ 115.100133684254772, -2.607996008084938 ], [ 115.100116044254861, -2.607918248084867 ], [ 115.100098404254851, -2.607840398084897 ], [ 115.100080764254855, -2.607762638084901 ], [ 115.100062764254886, -2.607684878084947 ], [ 115.100045124254876, -2.607607118084867 ], [ 115.100027484254866, -2.607529358084917 ], [ 115.100009844254757, -2.6074515080849 ], [ 115.099991844254689, -2.607373748084931 ], [ 115.099986084254766, -2.607290048084937 ], [ 115.099980324254872, -2.607206258084864 ], [ 115.099974564254708, -2.607122558084847 ], [ 115.099968804254814, -2.607038768084834 ], [ 115.099963044254793, -2.606955068084825 ], [ 115.099956924254712, -2.606871278084923 ], [ 115.099951164254676, -2.606787578084923 ], [ 115.099945404254782, -2.606703788084844 ], [ 115.099955124254876, -2.606621258084862 ], [ 115.099964844254757, -2.606538728084872 ], [ 115.099974204254906, -2.606456198084882 ], [ 115.099983924254758, -2.606373758084906 ], [ 115.099993644254852, -2.606291228084927 ], [ 115.100003364254832, -2.606208698084822 ], [ 115.100012724254853, -2.606126168084848 ], [ 115.100022444254734, -2.606043638084914 ], [ 115.100044764254804, -2.605957508084914 ], [ 115.100067084254903, -2.605871468084871 ], [ 115.100089404254774, -2.605785338084876 ], [ 115.100119284254831, -2.605701368084943 ], [ 115.100148804254687, -2.605617398084835 ], [ 115.100178684254772, -2.605533518084907 ], [ 115.1002085642547, -2.605449548084921 ], [ 115.100238084254684, -2.605365578084873 ], [ 115.100267964254869, -2.605281608084939 ], [ 115.100297484254767, -2.605197638084825 ], [ 115.100327364254824, -2.605113668084893 ], [ 115.100357244254738, -2.605029788084869 ], [ 115.100389284254703, -2.604949688084926 ], [ 115.100421684254712, -2.604869588084936 ], [ 115.100453724254763, -2.604789488084883 ], [ 115.100486124254786, -2.604709388084849 ], [ 115.100518164254737, -2.604629288084905 ], [ 115.100550564254746, -2.604549188084912 ], [ 115.100582604254711, -2.604469088084876 ], [ 115.10061500425482, -2.604388988084874 ], [ 115.10065028425484, -2.604309698084903 ], [ 115.100685924254819, -2.604230498084841 ], [ 115.100721204254711, -2.604151298084926 ], [ 115.100756844254789, -2.604072008084836 ], [ 115.100792124254696, -2.603992808084881 ], [ 115.100827764254774, -2.603913518084911 ], [ 115.100863044254695, -2.60383431808483 ], [ 115.100904804254725, -2.603756648084899 ], [ 115.100946564254897, -2.603678978084844 ], [ 115.100988324254701, -2.603601218084886 ], [ 115.101030084254873, -2.603523548084886 ], [ 115.101071844254676, -2.603445878084848 ], [ 115.101113604254849, -2.603368208084908 ], [ 115.101155364254879, -2.603290448084836 ], [ 115.101197124254824, -2.603212778084834 ], [ 115.101237084254905, -2.603145908084878 ], [ 115.101276684254842, -2.603078948084857 ], [ 115.101316284254878, -2.603011988084823 ], [ 115.101356244254859, -2.602945118084884 ], [ 115.101395844254895, -2.60287815808485 ], [ 115.101435804254862, -2.602811198084942 ], [ 115.101481884254696, -2.602736318084942 ], [ 115.101527964254771, -2.602661438084939 ], [ 115.101574044254704, -2.602586558084885 ], [ 115.101620124254765, -2.60251167808488 ], [ 115.101666204254727, -2.602436798084942 ], [ 115.101712284254759, -2.602361918084936 ], [ 115.101765564254748, -2.602294958084918 ], [ 115.101819204254767, -2.602228088084901 ], [ 115.101872484254756, -2.602161128084922 ], [ 115.101925764254844, -2.602094258084925 ], [ 115.101979044254833, -2.602027388084914 ], [ 115.102032684254851, -2.601954668084919 ], [ 115.10208596425484, -2.601882038084929 ], [ 115.102139244254801, -2.601809408084898 ], [ 115.10219288425472, -2.601736778084926 ], [ 115.102246164254694, -2.601664148084831 ], [ 115.102299444254655, -2.601610598084878 ], [ 115.102353084254702, -2.601557048084852 ], [ 115.102406364254662, -2.601503588084917 ], [ 115.102459644254779, -2.601450038084886 ], [ 115.102512924254739, -2.601396578084827 ], [ 115.102564404254764, -2.601332048084912 ], [ 115.102615524254716, -2.601267518084881 ], [ 115.102666644254711, -2.601202988084911 ], [ 115.102718124254736, -2.601138458084875 ], [ 115.102769244254688, -2.601073928084896 ], [ 115.102820364254782, -2.601009488084939 ], [ 115.102871844254807, -2.600944958084857 ], [ 115.102922964254759, -2.600880428084932 ], [ 115.102980204254706, -2.600814548084912 ], [ 115.103037444254852, -2.600748758084911 ], [ 115.103094684254771, -2.600682878084946 ], [ 115.103151564254887, -2.600617088084924 ], [ 115.103208804254834, -2.600551208084843 ], [ 115.103266044254752, -2.600485418084843 ], [ 115.103323284254699, -2.600419538084936 ], [ 115.103380524254845, -2.600353748084866 ], [ 115.103437764254892, -2.600287868084849 ], [ 115.103496444254844, -2.600230538084894 ], [ 115.103555124254882, -2.600173208084834 ], [ 115.103613804254707, -2.600115878084832 ], [ 115.103672844254817, -2.600058548084894 ], [ 115.103731524254854, -2.600001218084818 ], [ 115.103790204254807, -2.599943888084871 ], [ 115.103844564254857, -2.599885208084819 ], [ 115.103899284254709, -2.599826528084884 ], [ 115.103953644254759, -2.599767758084887 ], [ 115.10400800425468, -2.599709078084821 ], [ 115.10406272425476, -2.59965039808489 ], [ 115.104117084254781, -2.599591718084887 ], [ 115.104171444254703, -2.599532948084827 ], [ 115.104235164254774, -2.599478858084886 ], [ 115.104298524254688, -2.599424678084829 ], [ 115.104361884254814, -2.59937058808489 ], [ 115.104425604254757, -2.599316498084844 ], [ 115.104488964254671, -2.599262318084897 ], [ 115.104552684254742, -2.599208228084849 ], [ 115.104612444254741, -2.599156298084915 ], [ 115.104672564254798, -2.599104458084896 ], [ 115.10473232425467, -2.599052618084873 ], [ 115.104792084254683, -2.599000778084843 ], [ 115.104852204254755, -2.598948938084927 ], [ 115.104911964254867, -2.598897008084899 ], [ 115.104971724254852, -2.598845168084919 ], [ 115.105040844254873, -2.598803408084937 ], [ 115.105109964254709, -2.598761648084885 ], [ 115.105179084254743, -2.598719888084899 ], [ 115.105248204254764, -2.59867812808491 ], [ 115.10531696425474, -2.598636368084862 ], [ 115.105386084254761, -2.59859460808488 ], [ 115.105455204254696, -2.598552848084896 ], [ 115.105524324254731, -2.598511088084912 ], [ 115.105600284254749, -2.598465278084894 ], [ 115.105676604254697, -2.598419468084868 ], [ 115.105752924254745, -2.59837365808491 ], [ 115.105828884254862, -2.598327758084936 ], [ 115.105905204254825, -2.59828194808486 ], [ 115.105981164254715, -2.598267728084833 ], [ 115.106057484254762, -2.598253508084931 ], [ 115.106133804254711, -2.598239288084902 ], [ 115.106209764254714, -2.598224978084855 ], [ 115.10628608425489, -2.598207878084884 ], [ 115.10636204425478, -2.598190778084901 ], [ 115.106438364254828, -2.598173678084916 ], [ 115.106514324254718, -2.598156578084886 ], [ 115.10659064425468, -2.598139478084903 ], [ 115.106668764254692, -2.598112748084899 ], [ 115.106746524254774, -2.598086108084912 ], [ 115.106824644254885, -2.598059468084931 ], [ 115.106902764254897, -2.598032738084864 ], [ 115.106980884254796, -2.59800609808488 ], [ 115.107057204254744, -2.597973698084874 ], [ 115.107133164254762, -2.597941208084839 ], [ 115.107209484254682, -2.597908808084892 ], [ 115.107285444254813, -2.59787640808488 ], [ 115.10736176425489, -2.597844008084879 ], [ 115.107439524254715, -2.597810618084877 ], [ 115.107517284254797, -2.597777228084936 ], [ 115.10759504425485, -2.597743838084935 ], [ 115.10767280425469, -2.597710448084944 ], [ 115.107750564254872, -2.597677058084946 ], [ 115.107828324254697, -2.597643668084823 ], [ 115.107906444254851, -2.597599838084854 ], [ 115.107984564254735, -2.597555918084858 ], [ 115.108062684254747, -2.597511998084861 ], [ 115.108140804254873, -2.597468078084865 ], [ 115.108218564254713, -2.59742415808487 ], [ 115.108286964254845, -2.597381228084856 ], [ 115.108355364254777, -2.59733829808485 ], [ 115.108423404254751, -2.597295278084881 ], [ 115.108491804254783, -2.597252348084933 ], [ 115.108560204254715, -2.597209418084875 ], [ 115.108628244254902, -2.597166398084847 ], [ 115.108687284254785, -2.597120588084888 ], [ 115.108746324254895, -2.597074778084924 ], [ 115.108805364254778, -2.597028878084843 ], [ 115.108864404254888, -2.596983068084883 ], [ 115.108923444254771, -2.5969371680849 ], [ 115.108984644254875, -2.596874168084843 ], [ 115.109045484254722, -2.596811078084873 ], [ 115.109106684254826, -2.596747988084896 ], [ 115.109167524254673, -2.596684898084869 ], [ 115.109228724254777, -2.596621898084924 ], [ 115.109291364254688, -2.596570238084923 ], [ 115.109354364254855, -2.596518668084935 ], [ 115.109417364254838, -2.5964670980849 ], [ 115.109480004254834, -2.596415528084917 ], [ 115.109543004254675, -2.596363958084881 ], [ 115.109606004254758, -2.596300868084918 ], [ 115.109668644254754, -2.596237778084933 ], [ 115.109731644254836, -2.596174778084869 ], [ 115.109794644254904, -2.596111688084904 ], [ 115.109857284254787, -2.596048598084928 ], [ 115.109890764254857, -2.595981728084922 ], [ 115.109924244254813, -2.595914768084841 ], [ 115.109957724254897, -2.595847808084919 ], [ 115.10999120425484, -2.595780848084904 ], [ 115.110047004254767, -2.59572117808492 ], [ 115.11010316425488, -2.595661418084864 ], [ 115.110158964254666, -2.595601658084915 ], [ 115.11021512425468, -2.595541988084929 ], [ 115.110270924254706, -2.595482228084874 ], [ 115.110327084254692, -2.595422558084883 ], [ 115.110382884254733, -2.595362798084841 ], [ 115.110439044254719, -2.5953030380849 ], [ 115.11048188425471, -2.595228158084894 ], [ 115.110524724254688, -2.59515327808483 ], [ 115.110567924254752, -2.595078398084843 ], [ 115.110610764254758, -2.595003428084935 ], [ 115.110653604254736, -2.594928548084872 ], [ 115.110696444254728, -2.594853668084887 ], [ 115.110739644254764, -2.594795708084888 ], [ 115.110782844254828, -2.594737748084897 ], [ 115.110834684254797, -2.594668268084908 ], [ 115.110886164254822, -2.594598788084942 ], [ 115.110938004254677, -2.594529308084899 ], [ 115.11098948425483, -2.594459828084922 ], [ 115.111041324254913, -2.594390438084837 ], [ 115.111093164254868, -2.594320958084863 ], [ 115.111144644254892, -2.594251478084822 ], [ 115.111190364254796, -2.594183438084857 ], [ 115.111235724254726, -2.594115488084838 ], [ 115.111281444254857, -2.594047538084933 ], [ 115.111326804254787, -2.593979498084848 ], [ 115.111372524254691, -2.59391154808483 ], [ 115.111418244254793, -2.593843598084938 ], [ 115.111463604254723, -2.593775558084906 ], [ 115.111509324254854, -2.593707608084937 ], [ 115.111554684254685, -2.593639658084918 ], [ 115.11158780425481, -2.593558838084869 ], [ 115.111620564254764, -2.593478108084895 ], [ 115.111653324254718, -2.593397288084836 ], [ 115.11168644425473, -2.593316558084919 ], [ 115.111719204254811, -2.593235828084883 ], [ 115.111752324254695, -2.593155008084892 ], [ 115.111785084254777, -2.593074278084849 ], [ 115.11181784425483, -2.592993548084934 ], [ 115.111850964254714, -2.59291272808488 ], [ 115.111888044254698, -2.592837308084856 ], [ 115.111925124254768, -2.592761888084943 ], [ 115.11196220425488, -2.592686468084909 ], [ 115.111999284254722, -2.592611048084868 ], [ 115.112036364254806, -2.592535538084892 ], [ 115.112073444254776, -2.592460118084908 ], [ 115.112110524254859, -2.592384698084886 ], [ 115.112147604254716, -2.592309278084859 ], [ 115.112185044254744, -2.592233858084934 ], [ 115.112213484254681, -2.592158528084916 ], [ 115.112242284254904, -2.592083198084913 ], [ 115.112270724254728, -2.592007868084898 ], [ 115.112299524254851, -2.591932538084884 ], [ 115.112328324254705, -2.591857208084861 ], [ 115.11235676425477, -2.591781878084849 ], [ 115.112385564254879, -2.591706548084833 ], [ 115.112414004254717, -2.591631308084827 ], [ 115.11244676425477, -2.591549948084922 ], [ 115.112479164254779, -2.591468678084843 ], [ 115.112511564254675, -2.591387408084892 ], [ 115.112543964254684, -2.591306138084832 ], [ 115.112576364254707, -2.591224778084873 ], [ 115.112609124254888, -2.59114350808486 ], [ 115.112641524254769, -2.591062238084904 ], [ 115.112673924254793, -2.59098087808494 ], [ 115.112706324254773, -2.590899608084867 ], [ 115.112738724254797, -2.590818338084923 ], [ 115.112770044254745, -2.590741838084936 ], [ 115.112801004254734, -2.590665338084851 ], [ 115.112831964254852, -2.59058883808493 ], [ 115.112862924254742, -2.590512248084875 ], [ 115.112894244254704, -2.590435748084842 ], [ 115.112925204254722, -2.590359248084929 ], [ 115.11295616425484, -2.590282748084893 ], [ 115.11298712425473, -2.590206248084852 ], [ 115.113019884254783, -2.590126958084876 ], [ 115.113052644254864, -2.590047758084924 ], [ 115.11308540425469, -2.589968558084898 ], [ 115.113118164254757, -2.589889268084938 ], [ 115.113150924254811, -2.589810068084856 ], [ 115.113183684254764, -2.589730778084891 ], [ 115.113216444254718, -2.589651578084875 ], [ 115.113245244254742, -2.589568688084883 ], [ 115.113273684254764, -2.589485798084835 ], [ 115.113302484254888, -2.58940290808491 ], [ 115.113330924254711, -2.589319928084908 ], [ 115.113359724254835, -2.58923703808486 ], [ 115.113388524254702, -2.589154148084925 ], [ 115.113411204254859, -2.589072878084856 ], [ 115.113433884254761, -2.588991608084903 ], [ 115.113456564254662, -2.588910248084824 ], [ 115.113479244254819, -2.588828978084873 ], [ 115.113501924254862, -2.58874761808491 ], [ 115.113524604254764, -2.588666348084908 ], [ 115.113547284254921, -2.588584988084926 ], [ 115.113570324254894, -2.588503718084871 ], [ 115.113594084254856, -2.588425958084906 ], [ 115.113617844254719, -2.588348288084856 ], [ 115.113641964254754, -2.588270528084851 ], [ 115.113665724254716, -2.588192858084911 ], [ 115.113689844254779, -2.58811509808485 ], [ 115.113713604254741, -2.588037428084905 ], [ 115.113737364254845, -2.587959668084885 ], [ 115.113761484254866, -2.587881998084837 ], [ 115.113783444254906, -2.587800008084876 ], [ 115.113805044254747, -2.587718018084869 ], [ 115.113827004254773, -2.587636028084912 ], [ 115.113848964254814, -2.587554038084911 ], [ 115.11387092425484, -2.587472048084834 ], [ 115.11389252425468, -2.587389968084919 ], [ 115.113914484254707, -2.587307978084845 ], [ 115.113933564254722, -2.587220858084866 ], [ 115.113952644254852, -2.587133648084913 ], [ 115.113972084254698, -2.587046528084926 ], [ 115.113991164254827, -2.586959408084875 ], [ 115.114010244254843, -2.586872198084882 ], [ 115.114029324254872, -2.58678507808489 ], [ 115.114048764254818, -2.586697868084943 ], [ 115.114067844254848, -2.586610748084833 ], [ 115.114086924254721, -2.586523538084893 ], [ 115.114102404254865, -2.586438668084866 ], [ 115.114118244254684, -2.58635370808489 ], [ 115.114133724254685, -2.586268838084866 ], [ 115.114149204254801, -2.586183968084839 ], [ 115.114165044254875, -2.586099008084861 ], [ 115.114180524254849, -2.586014138084837 ], [ 115.114196004254765, -2.585929178084911 ], [ 115.114211484254767, -2.585844308084828 ], [ 115.114233804254837, -2.585759258084888 ], [ 115.114256124254709, -2.58567420808489 ], [ 115.114278444254779, -2.585589248084858 ], [ 115.114301124254709, -2.585504198084922 ], [ 115.114323444254779, -2.585419148084915 ], [ 115.114345764254864, -2.585334098084868 ], [ 115.114368084254735, -2.585249048084881 ], [ 115.114372044254793, -2.585233838084862 ], [ 115.114390404254706, -2.585164088084833 ], [ 115.114412724254905, -2.585079038084834 ], [ 115.114435044254748, -2.584993988084896 ], [ 115.114457364254704, -2.584908938084903 ], [ 115.114479684254803, -2.584823888084851 ], [ 115.114502004254902, -2.58473892808493 ], [ 115.114524324254745, -2.584653878084935 ], [ 115.11454664425483, -2.584568828084883 ], [ 115.114568964254673, -2.584483778084892 ], [ 115.114591284254772, -2.584398818084852 ], [ 115.11461360425487, -2.58431376808485 ], [ 115.114634124254778, -2.584234478084932 ], [ 115.114654644254685, -2.584155188084857 ], [ 115.114675164254805, -2.584075988084888 ], [ 115.114695684254713, -2.583996698084918 ], [ 115.114716204254847, -2.583917408084825 ], [ 115.114736724254755, -2.583838208084926 ], [ 115.11475724425479, -2.583758918084838 ], [ 115.114783164254888, -2.583676928084881 ], [ 115.114809084254844, -2.583594938084863 ], [ 115.114835004254843, -2.58351294808492 ], [ 115.114860924254714, -2.583430958084899 ], [ 115.114865964254733, -2.583414488084853 ], [ 115.114886844254698, -2.583348968084884 ], [ 115.114912764254697, -2.583266978084927 ], [ 115.114938684254781, -2.583184988084859 ], [ 115.114968924254782, -2.583102098084935 ], [ 115.114999164254797, -2.583019208084839 ], [ 115.115029404254784, -2.582936318084908 ], [ 115.115059644254785, -2.582853428084923 ], [ 115.1150898842548, -2.582770538084867 ], [ 115.115120124254688, -2.582687648084892 ], [ 115.115155764254766, -2.582612498084845 ], [ 115.115191044254786, -2.582537348084856 ], [ 115.115226684254736, -2.582462198084932 ], [ 115.11526196425487, -2.582387138084841 ], [ 115.115297604254721, -2.582311988084854 ], [ 115.115332884254869, -2.582236838084861 ], [ 115.115368524254819, -2.58216168808493 ], [ 115.115399124254765, -2.582085188084841 ], [ 115.115430084254882, -2.582008688084928 ], [ 115.115460684254714, -2.581932188084899 ], [ 115.115491644254831, -2.581855598084838 ], [ 115.11552224425489, -2.581779098084917 ], [ 115.11555320425478, -2.581702598084887 ], [ 115.115583804254825, -2.581626098084859 ], [ 115.115614764254715, -2.581549598084941 ], [ 115.115645364254803, -2.581473098084905 ], [ 115.115692164254739, -2.581396598084873 ], [ 115.115738964254703, -2.58132009808488 ], [ 115.115785764254866, -2.581243598084909 ], [ 115.115832564254831, -2.581167098084876 ], [ 115.115879364254766, -2.581090598084899 ], [ 115.115926524254789, -2.581014188084937 ], [ 115.115973324254725, -2.580937688084845 ], [ 115.116020124254675, -2.580861188084928 ], [ 115.116066924254852, -2.580784688084883 ], [ 115.116113724254802, -2.580708188084861 ], [ 115.116160524254738, -2.58063168808493 ], [ 115.116210204254827, -2.580564818084921 ], [ 115.11625952425473, -2.580497858084839 ], [ 115.116309204254819, -2.580430988084828 ], [ 115.11635888425478, -2.580364028084917 ], [ 115.116408204254668, -2.580297158084845 ], [ 115.116448524254807, -2.580230198084925 ], [ 115.116488484254688, -2.580163328084924 ], [ 115.116528444254783, -2.580096368084837 ], [ 115.116568764254836, -2.580029408084919 ], [ 115.116608724254704, -2.579962538084918 ], [ 115.116662004254891, -2.57990511808483 ], [ 115.11671528425488, -2.579847788084895 ], [ 115.116768924254799, -2.579790458084883 ], [ 115.11682220425476, -2.57973312808494 ], [ 115.116875484254734, -2.579675798084881 ], [ 115.116924444254707, -2.579602538084852 ], [ 115.116973044254834, -2.57952918808494 ], [ 115.11702164425472, -2.579455928084913 ], [ 115.117070604254678, -2.579382668084895 ], [ 115.117119204254678, -2.579309318084855 ], [ 115.117168164254778, -2.579236058084824 ], [ 115.117216764254778, -2.579162708084909 ], [ 115.117265364254891, -2.579089448084893 ], [ 115.117314324254863, -2.579016188084926 ], [ 115.117365444254844, -2.578949228084896 ], [ 115.117416564254796, -2.578882358084936 ], [ 115.117468044254693, -2.578815398084905 ], [ 115.117519164254688, -2.578748528084896 ], [ 115.117570284254867, -2.578681568084937 ], [ 115.117621764254892, -2.578614698084918 ], [ 115.117672884254858, -2.578547738084888 ], [ 115.117724004254811, -2.578480868084946 ], [ 115.117777284254799, -2.578415348084857 ], [ 115.117830564254888, -2.578349738084931 ], [ 115.117883484254676, -2.578284218084911 ], [ 115.117936764254665, -2.578218698084846 ], [ 115.117989684254695, -2.578153178084934 ], [ 115.118042964254897, -2.578087568084845 ], [ 115.118095884254828, -2.578022048084939 ], [ 115.118139804254767, -2.577957068084882 ], [ 115.118183724254806, -2.577892088084894 ], [ 115.118227644254731, -2.577827018084836 ], [ 115.118271564254798, -2.577762038084896 ], [ 115.118315124254678, -2.577697058084847 ], [ 115.118366244254887, -2.577631718084856 ], [ 115.118417004254781, -2.577566378084872 ], [ 115.118467764254675, -2.577501038084872 ], [ 115.118518524254824, -2.577435788084906 ], [ 115.118569644254791, -2.577370448084912 ], [ 115.118620404254713, -2.577305108084921 ], [ 115.118675484254865, -2.577238238084898 ], [ 115.118730924254848, -2.577171278084871 ], [ 115.118786364254831, -2.577104408084917 ], [ 115.118841444254755, -2.577037448084901 ], [ 115.118896884254838, -2.576970578084937 ], [ 115.118948364254862, -2.576911898084889 ], [ 115.119000204254718, -2.576853128084933 ], [ 115.119052044254673, -2.576794448084938 ], [ 115.11910388425477, -2.576735768084881 ], [ 115.11915536425478, -2.576676998084936 ], [ 115.119207204254778, -2.576618318084933 ], [ 115.119259044254861, -2.576559638084885 ], [ 115.119314124254785, -2.576490788084892 ], [ 115.119369564254868, -2.576421938084847 ], [ 115.11942500425485, -2.576353178084921 ], [ 115.119480084254775, -2.576284328084932 ], [ 115.119535524254758, -2.576215478084834 ], [ 115.119604644254792, -2.576163008084928 ], [ 115.119673404254783, -2.576110448084843 ], [ 115.119742524254676, -2.576057888084933 ], [ 115.119811644254739, -2.576005418084866 ], [ 115.119872124254726, -2.575938458084828 ], [ 115.11993224425467, -2.575871588084875 ], [ 115.119992724254772, -2.57580471808486 ], [ 115.120048164254882, -2.575756928084925 ], [ 115.120103244254707, -2.575709138084927 ], [ 115.12015868425479, -2.575661438084889 ], [ 115.120213764254714, -2.575613648084841 ], [ 115.120269204254697, -2.5755658580849 ], [ 115.120325004254738, -2.57552229808485 ], [ 115.120381164254724, -2.575478828084928 ], [ 115.120437324254709, -2.575435268084937 ], [ 115.12050068425485, -2.575385948084857 ], [ 115.120564404254793, -2.575336628084844 ], [ 115.120637484254786, -2.575295228084918 ], [ 115.120710564254779, -2.575253918084934 ], [ 115.120783284254827, -2.575212518084895 ], [ 115.12085636425482, -2.575171208084924 ], [ 115.120929444254813, -2.575129808084877 ], [ 115.121002524254806, -2.575088498084855 ], [ 115.121070564254779, -2.575045478084823 ], [ 115.121138964254698, -2.575002548084935 ], [ 115.12120736425473, -2.574959618084926 ], [ 115.121275404254831, -2.574916598084913 ], [ 115.121343804254863, -2.574873668084903 ], [ 115.121411844254695, -2.57483073808484 ], [ 115.121484204254699, -2.574782948084904 ], [ 115.121556924254875, -2.574735248084926 ], [ 115.121629284254837, -2.57468745808487 ], [ 115.121701644254728, -2.574639758084826 ], [ 115.121774004254718, -2.574591968084883 ], [ 115.121842404254863, -2.574548048084899 ], [ 115.121911164254854, -2.574504128084894 ], [ 115.121979564254886, -2.574460208084905 ], [ 115.122048324254848, -2.574416288084903 ], [ 115.122116724254781, -2.57437236808491 ], [ 115.122185484254842, -2.574328448084914 ], [ 115.122253884254775, -2.574284528084917 ], [ 115.122322644254737, -2.574240608084862 ], [ 115.122391044254769, -2.574196688084861 ], [ 115.122459804254774, -2.574152768084863 ], [ 115.12252244425477, -2.574106418084944 ], [ 115.12258472425485, -2.574059978084939 ], [ 115.12264736425486, -2.574013628084889 ], [ 115.122710004254856, -2.573967278084895 ], [ 115.122772644254738, -2.573920838084886 ], [ 115.122835284254776, -2.573874488084835 ], [ 115.122897924254787, -2.573828048084831 ], [ 115.122960564254797, -2.573778908084841 ], [ 115.123023204254665, -2.573729858084876 ], [ 115.123085484254872, -2.573680718084891 ], [ 115.123148124254882, -2.573631578084899 ], [ 115.12321076425475, -2.573582438084913 ], [ 115.123273404254761, -2.573533298084866 ], [ 115.123336044254799, -2.573484248084894 ], [ 115.123401564254706, -2.573435108084913 ], [ 115.123466724254769, -2.573385968084915 ], [ 115.123531884254845, -2.573336828084932 ], [ 115.123597404254753, -2.573287688084882 ], [ 115.123662564254843, -2.573238638084918 ], [ 115.123728084254751, -2.573189498084932 ], [ 115.123793244254813, -2.573140358084889 ], [ 115.123869564254875, -2.573094188084859 ], [ 115.123945524254765, -2.573048108084862 ], [ 115.124021844254713, -2.573001938084843 ], [ 115.124098164254775, -2.572955768084946 ], [ 115.124174124254893, -2.572909688084885 ], [ 115.124250444254741, -2.572863518084864 ], [ 115.124313444254682, -2.572811948084934 ], [ 115.124376084254692, -2.572760378084836 ], [ 115.12443908425476, -2.572708808084854 ], [ 115.124502084254829, -2.57265714808492 ], [ 115.124564724254839, -2.572605578084932 ], [ 115.124636364254698, -2.572555448084837 ], [ 115.124707644254755, -2.572505318084914 ], [ 115.124779284254856, -2.572455188084832 ], [ 115.124850564254913, -2.57240505808485 ], [ 115.124922204254773, -2.572354928084882 ], [ 115.124993484254802, -2.572304798084905 ], [ 115.125064764254859, -2.572254668084924 ], [ 115.125136404254732, -2.572204538084884 ], [ 115.125211284254675, -2.572161608084876 ], [ 115.125286524254903, -2.57211858808487 ], [ 115.125361404254846, -2.572075658084862 ], [ 115.125436284254675, -2.572032728084853 ], [ 115.125511164254831, -2.571989798084896 ], [ 115.125586404254847, -2.571946778084941 ], [ 115.125661284254775, -2.571903848084867 ], [ 115.125736164254732, -2.571860918084862 ], [ 115.125818244254816, -2.571831308084906 ], [ 115.125899964254856, -2.571801788084851 ], [ 115.125982044254698, -2.57177226808491 ], [ 115.12606376425471, -2.571742748084853 ], [ 115.126145844254822, -2.571713138084902 ], [ 115.126227564254734, -2.571683618084839 ], [ 115.126309284254745, -2.571654098084899 ], [ 115.126391364254829, -2.571624578084857 ], [ 115.126473084254869, -2.571594968084901 ], [ 115.126555164254711, -2.571565448084844 ], [ 115.126636884254722, -2.571552128084901 ], [ 115.126718964254707, -2.571538898084865 ], [ 115.126800684254746, -2.571525578084931 ], [ 115.126882404254758, -2.571512348084897 ], [ 115.126964484254842, -2.571499028084837 ], [ 115.12705016425484, -2.571495968084862 ], [ 115.127135484254751, -2.571492908084882 ], [ 115.127221164254721, -2.571489848084888 ], [ 115.127306844254733, -2.571486788084913 ], [ 115.127392524254702, -2.571483728084926 ], [ 115.127478204254672, -2.571480668084838 ], [ 115.12756208425472, -2.571488498084848 ], [ 115.127645604254695, -2.571496238084901 ], [ 115.127729484254729, -2.571503978084912 ], [ 115.127813004254705, -2.571511808084925 ], [ 115.127896884254852, -2.571519548084857 ], [ 115.127982564254822, -2.571541238084908 ], [ 115.128067884254762, -2.57156292808488 ], [ 115.128153564254745, -2.571584528084913 ], [ 115.128239244254743, -2.571606218084835 ], [ 115.128309804254769, -2.571621608084877 ], [ 115.128380004254865, -2.571636998084919 ], [ 115.128450564254791, -2.571652478084932 ], [ 115.128520764254787, -2.571667868084867 ], [ 115.128591324254813, -2.571683258084911 ], [ 115.128663324254873, -2.571706388084887 ], [ 115.128735684254835, -2.571729428084919 ], [ 115.128808044254725, -2.571752468084838 ], [ 115.128880404254716, -2.571775598084935 ], [ 115.128952764254819, -2.571798638084854 ], [ 115.129024764254737, -2.571812138084931 ], [ 115.129097124254869, -2.571825638084894 ], [ 115.129169484254859, -2.571839138084922 ], [ 115.129241844254722, -2.571852638084895 ], [ 115.129314204254712, -2.571866138084864 ], [ 115.129390164254829, -2.57189655808489 ], [ 115.129466124254847, -2.571926978084925 ], [ 115.129542444254767, -2.571957398084829 ], [ 115.129618404254657, -2.571987818084871 ], [ 115.129694364254675, -2.572018238084839 ], [ 115.129770684254865, -2.572048658084864 ], [ 115.129846644254755, -2.572087088084831 ], [ 115.129922604254745, -2.572125428084884 ], [ 115.129998924254693, -2.5721638580849 ], [ 115.13007488425481, -2.572202198084858 ], [ 115.1301508442547, -2.572240628084931 ], [ 115.130227164254748, -2.572279058084823 ], [ 115.130294484254847, -2.572305158084849 ], [ 115.130362164254748, -2.572331348084876 ], [ 115.130429844254678, -2.572357538084836 ], [ 115.130497524254721, -2.572383638084861 ], [ 115.13056520425485, -2.572409828084882 ], [ 115.1306195642549, -2.572430888084939 ], [ 115.130673924254822, -2.572451948084924 ], [ 115.130746284254684, -2.57248263808489 ], [ 115.130818644254902, -2.572513418084931 ], [ 115.130890644254734, -2.572544108084829 ], [ 115.130963004254724, -2.572574888084857 ], [ 115.131035364254714, -2.572605578084936 ], [ 115.131107364254746, -2.572639868084901 ], [ 115.131179364254677, -2.572674158084938 ], [ 115.131251364254723, -2.572708448084916 ], [ 115.131323364254882, -2.572742738084833 ], [ 115.131395364254814, -2.572777028084906 ], [ 115.131467364254874, -2.572811318084886 ], [ 115.131539364254792, -2.572845608084922 ], [ 115.131625044254776, -2.572866038084918 ], [ 115.131710364254715, -2.572886468084878 ], [ 115.131796044254685, -2.572906988084898 ], [ 115.131881724254896, -2.572927418084909 ], [ 115.131967404254894, -2.572947848084904 ], [ 115.132053084254864, -2.57296836808493 ], [ 115.132138404254775, -2.572988798084929 ], [ 115.132224084254787, -2.573009228084835 ], [ 115.13230184425484, -2.573031728084824 ], [ 115.13237960425468, -2.573054138084928 ], [ 115.132457364254734, -2.573076638084935 ], [ 115.132534764254757, -2.573099048084915 ], [ 115.132612524254839, -2.573121458084898 ], [ 115.132690284254792, -2.573143958084893 ], [ 115.132772724254693, -2.573148818084833 ], [ 115.132855164254707, -2.573153768084885 ], [ 115.132937604254849, -2.573158628084947 ], [ 115.133020044254764, -2.573163578084825 ], [ 115.133102484254806, -2.57316843808487 ], [ 115.133184924254721, -2.573173388084944 ], [ 115.133273844254788, -2.573163938084838 ], [ 115.133362764254727, -2.573154488084888 ], [ 115.133451324254722, -2.57314503808491 ], [ 115.133539524254758, -2.573138018084841 ], [ 115.133627364254764, -2.573130998084899 ], [ 115.1337155642547, -2.573123888084835 ], [ 115.133803764254736, -2.573116868084888 ], [ 115.133886204254779, -2.573102648084932 ], [ 115.133968644254921, -2.573088428084906 ], [ 115.134051084254835, -2.573074118084862 ], [ 115.13413352425485, -2.573059898084842 ], [ 115.13421596425475, -2.573045678084919 ], [ 115.134298404254665, -2.573031458084892 ], [ 115.134372924254791, -2.573000948084857 ], [ 115.134447084254845, -2.572970438084921 ], [ 115.134521244254799, -2.572939928084871 ], [ 115.134595404254725, -2.572909418084841 ], [ 115.134669924254837, -2.572878908084904 ], [ 115.134743364254902, -2.572852988084862 ], [ 115.134816804254726, -2.572827158084887 ], [ 115.134890244254748, -2.572801328084864 ], [ 115.134963684254814, -2.572775408084935 ], [ 115.135037124254865, -2.572749578084849 ], [ 115.135110564254688, -2.572723658084933 ], [ 115.135184004254739, -2.572697828084834 ], [ 115.135253844254777, -2.572661198084825 ], [ 115.135323684254701, -2.572624658084897 ], [ 115.135393524254866, -2.572588118084894 ], [ 115.135463364254761, -2.572551488084883 ], [ 115.135533204254699, -2.57251494808488 ], [ 115.135603044254722, -2.572478318084876 ], [ 115.135677204254904, -2.572432508084908 ], [ 115.13575136425473, -2.57238669808485 ], [ 115.135825884254729, -2.572340888084889 ], [ 115.135900044254683, -2.572294988084898 ], [ 115.135974204254737, -2.57224917808484 ], [ 115.136044404254704, -2.572199858084933 ], [ 115.136114244254728, -2.572150538084855 ], [ 115.136184084254666, -2.572101218084835 ], [ 115.136253924254817, -2.572051808084914 ], [ 115.136323764254755, -2.572002488084855 ], [ 115.136393604254778, -2.571953168084887 ], [ 115.136450844254696, -2.571894578084905 ], [ 115.136507724254813, -2.571836078084834 ], [ 115.13656496425476, -2.571777578084921 ], [ 115.136622204254905, -2.571718988084932 ], [ 115.136679444254852, -2.571660488084922 ], [ 115.136736684254771, -2.571601988084832 ], [ 115.136793564254887, -2.571543398084907 ], [ 115.136850804254806, -2.571484898084833 ], [ 115.136910564254805, -2.571425138084896 ], [ 115.13696996425476, -2.571365468084911 ], [ 115.137029724254859, -2.571305708084846 ], [ 115.137089124254814, -2.571246038084867 ], [ 115.137148524254755, -2.571186278084916 ], [ 115.13720828425474, -2.571126518084929 ], [ 115.137267684254681, -2.571066848084888 ], [ 115.137327444254794, -2.571007088084945 ], [ 115.137379284254877, -2.570936078084881 ], [ 115.137430764254802, -2.570865068084886 ], [ 115.137482604254856, -2.570794058084889 ], [ 115.137534444254726, -2.570723048084878 ], [ 115.137586284254709, -2.570652038084836 ], [ 115.137637764254734, -2.570581028084828 ], [ 115.137689604254689, -2.570510018084838 ], [ 115.137735684254849, -2.570435138084831 ], [ 115.137781764254683, -2.570360258084889 ], [ 115.137827844254744, -2.570285288084881 ], [ 115.137873924254706, -2.570210408084927 ], [ 115.137920364254839, -2.570135528084935 ], [ 115.137966444254772, -2.570060648084927 ], [ 115.13801540425473, -2.569985498084837 ], [ 115.138064364254703, -2.569910348084838 ], [ 115.138113324254761, -2.569835288084874 ], [ 115.138162644254777, -2.569760138084884 ], [ 115.138211604254749, -2.56968498808485 ], [ 115.138260564254708, -2.569609928084875 ], [ 115.138309524254893, -2.569534778084878 ], [ 115.13833976425488, -2.569462418084834 ], [ 115.138369644254709, -2.569389968084897 ], [ 115.138399524254893, -2.569317518084838 ], [ 115.13842976425488, -2.56924515808489 ], [ 115.138459644254709, -2.569172708084827 ], [ 115.138489524254894, -2.569100348084905 ], [ 115.13851976425488, -2.56902789808484 ], [ 115.13856404425475, -2.568949778084885 ], [ 115.13860868425472, -2.568871748084889 ], [ 115.138653324254761, -2.568793628084931 ], [ 115.138697604254887, -2.568715508084914 ], [ 115.138742244254814, -2.568637478084862 ], [ 115.138786884254756, -2.568559358084908 ], [ 115.138825044254673, -2.568486458084891 ], [ 115.138863204254704, -2.568413558084934 ], [ 115.138901364254849, -2.568340658084904 ], [ 115.138939524254766, -2.568267758084832 ], [ 115.138977684254669, -2.56819476808485 ], [ 115.139015844254715, -2.56812186808483 ], [ 115.139054004254859, -2.56804896808487 ], [ 115.139092164254777, -2.567976068084852 ], [ 115.139134284254766, -2.567905058084853 ], [ 115.139176764254714, -2.567833958084833 ], [ 115.139218884254817, -2.567762948084884 ], [ 115.139261004254678, -2.567691938084899 ], [ 115.139303484254725, -2.567620928084896 ], [ 115.139345604254828, -2.567549918084897 ], [ 115.139387724254703, -2.567478818084937 ], [ 115.139425884254734, -2.567400428084934 ], [ 115.139464044254879, -2.567322038084945 ], [ 115.139502204254796, -2.567243648084936 ], [ 115.1395403642547, -2.567165168084925 ], [ 115.139578884254675, -2.567086778084925 ], [ 115.13961704425472, -2.567008388084929 ], [ 115.139655204254865, -2.566929908084909 ], [ 115.139693364254782, -2.566851518084923 ], [ 115.139731524254813, -2.566773128084918 ], [ 115.13976968425473, -2.5666946480849 ], [ 115.13980640425477, -2.566626428084853 ], [ 115.139843124254782, -2.566558118084892 ], [ 115.139879844254793, -2.566489808084926 ], [ 115.139916924254777, -2.566421498084843 ], [ 115.139953644254689, -2.566353188084896 ], [ 115.139990364254729, -2.566284878084929 ], [ 115.140011964254697, -2.566244648084843 ], [ 115.14002708425474, -2.566216568084856 ], [ 115.140067044254849, -2.566144838084853 ], [ 115.140106644254857, -2.566073108084915 ], [ 115.140146604254866, -2.566001468084925 ], [ 115.140186204254903, -2.565929738084918 ], [ 115.140225804254811, -2.565858008084857 ], [ 115.14026144425489, -2.565793928084903 ], [ 115.14026576425492, -2.565786278084853 ], [ 115.140308604254656, -2.565707348084826 ], [ 115.14035144425489, -2.565628508084874 ], [ 115.140394644254698, -2.565549578084905 ], [ 115.140437484254704, -2.565470738084876 ], [ 115.140480324254696, -2.565391808084918 ], [ 115.140523164254674, -2.565312968084892 ], [ 115.140566364254738, -2.565234038084931 ], [ 115.140609204254744, -2.565155198084846 ], [ 115.140654204254744, -2.565078698084927 ], [ 115.140699204254744, -2.565002198084844 ], [ 115.140744564254774, -2.564925698084919 ], [ 115.140789564254675, -2.564849198084883 ], [ 115.140834564254675, -2.564772698084852 ], [ 115.140879564254675, -2.564696198084926 ], [ 115.140924924254747, -2.564619698084894 ], [ 115.140969924254748, -2.564543198084865 ], [ 115.141014924254748, -2.564466698084825 ], [ 115.141059924254733, -2.564390288084921 ], [ 115.141105284254905, -2.564313788084887 ], [ 115.141152804254745, -2.564249528084896 ], [ 115.141200684254869, -2.564185358084934 ], [ 115.141248204254822, -2.564121188084845 ], [ 115.141295724254888, -2.564057018084862 ], [ 115.141343604254786, -2.563992848084899 ], [ 115.141391124254753, -2.563928678084921 ], [ 115.141439004254877, -2.563864418084927 ], [ 115.141487964254836, -2.563796198084866 ], [ 115.141536924254794, -2.563727888084918 ], [ 115.141585884254724, -2.563659578084844 ], [ 115.141634844254696, -2.563591358084893 ], [ 115.141684164254713, -2.563523048084932 ], [ 115.141733124254671, -2.563454738084849 ], [ 115.141782084254743, -2.563386428084894 ], [ 115.141831044254701, -2.56332090808487 ], [ 115.141880004254887, -2.563255388084916 ], [ 115.141929324254917, -2.563189778084873 ], [ 115.141978284254876, -2.563124258084862 ], [ 115.142027244254834, -2.563058738084889 ], [ 115.142076204254792, -2.562993128084851 ], [ 115.142125164254722, -2.562927608084899 ], [ 115.142171244254683, -2.562862268084904 ], [ 115.142217684254817, -2.562796928084906 ], [ 115.142263764254849, -2.562731588084913 ], [ 115.142309844254683, -2.562666338084938 ], [ 115.142355924254872, -2.56260099808484 ], [ 115.142402004254706, -2.562535658084834 ], [ 115.14245348425473, -2.562464648084848 ], [ 115.142505324254827, -2.562393638084903 ], [ 115.142557164254782, -2.562322628084895 ], [ 115.142609004254865, -2.562251618084908 ], [ 115.14266048425479, -2.562180608084899 ], [ 115.142712324254845, -2.562109598084848 ], [ 115.142764164254714, -2.562038588084853 ], [ 115.142816004254698, -2.561971628084868 ], [ 115.142867844254752, -2.561904758084857 ], [ 115.142919684254736, -2.56183779808484 ], [ 115.142971884254763, -2.561770928084874 ], [ 115.143023724254846, -2.561703968084862 ], [ 115.143075564254715, -2.561637098084851 ], [ 115.143127404254898, -2.561570138084873 ], [ 115.143179244254753, -2.56150326808487 ], [ 115.143231444254781, -2.561436308084843 ], [ 115.143288324254897, -2.561368088084892 ], [ 115.143345564254815, -2.561299778084927 ], [ 115.143402804254762, -2.561231468084856 ], [ 115.143460044254681, -2.561163248084907 ], [ 115.143517284254855, -2.561094938084834 ], [ 115.143574524254774, -2.561026718084889 ], [ 115.143631764254721, -2.560958408084931 ], [ 115.143683964254734, -2.560897478084851 ], [ 115.143736524254692, -2.560836548084901 ], [ 115.143788724254748, -2.560775618084878 ], [ 115.143841284254833, -2.560714688084917 ], [ 115.14389384425489, -2.560653758084841 ], [ 115.143946044254818, -2.560592828084928 ], [ 115.143998604254676, -2.560531898084859 ], [ 115.144051164254762, -2.560470968084897 ], [ 115.144104444254751, -2.56040400808487 ], [ 115.144157724254711, -2.560337138084912 ], [ 115.144211004254686, -2.560270268084903 ], [ 115.144264644254832, -2.560203308084874 ], [ 115.144317924254793, -2.560136438084916 ], [ 115.144358604254805, -2.560057508084895 ], [ 115.144398924254716, -2.55997857808492 ], [ 115.144439604254714, -2.559899738084914 ], [ 115.144480284254797, -2.559820808084928 ], [ 115.144513404254809, -2.559747548084905 ], [ 115.144546884254751, -2.55967419808488 ], [ 115.144580364254836, -2.559600848084837 ], [ 115.144613844254792, -2.559527588084925 ], [ 115.144647324254748, -2.559454238084898 ], [ 115.14468044425476, -2.559380888084858 ], [ 115.144706724254689, -2.559294848084928 ], [ 115.144733004254746, -2.559208718084935 ], [ 115.144759284254775, -2.559122678084884 ], [ 115.144785564254832, -2.559036548084883 ], [ 115.144816164254891, -2.558952038084919 ], [ 115.144846404254878, -2.55886761808491 ], [ 115.144876644254893, -2.558783108084898 ], [ 115.14490688425488, -2.558698598084876 ], [ 115.144937124254881, -2.558614088084911 ], [ 115.144967364254896, -2.558529578084836 ], [ 115.144976724254818, -2.558446688084844 ], [ 115.144986444254897, -2.558363798084906 ], [ 115.144996164254763, -2.558280818084858 ], [ 115.145005884254743, -2.558197928084875 ], [ 115.145015604254823, -2.558114948084915 ], [ 115.145024964254873, -2.558032058084876 ], [ 115.145024244254742, -2.557948088084888 ], [ 115.145023164254681, -2.55786402808494 ], [ 115.145022084254876, -2.557780058084832 ], [ 115.145021364254745, -2.557696088084887 ], [ 115.145020284254684, -2.55761202808488 ], [ 115.145019564254781, -2.557528058084842 ], [ 115.145018484254848, -2.557443998084843 ], [ 115.145017404254787, -2.557360028084903 ], [ 115.145016684254657, -2.557276058084857 ], [ 115.145013084254771, -2.557191098084876 ], [ 115.145009844254702, -2.557106138084838 ], [ 115.145006244254674, -2.557021178084908 ], [ 115.145003004254846, -2.556936308084827 ], [ 115.144999404254719, -2.556851348084914 ], [ 115.144995804254819, -2.556766388084917 ], [ 115.144992564254864, -2.556681428084881 ], [ 115.144988964254736, -2.556596558084856 ], [ 115.144983204254842, -2.556511598084941 ], [ 115.144977444254693, -2.556426638084848 ], [ 115.144971684254656, -2.556341678084914 ], [ 115.144965924254763, -2.556256808084839 ], [ 115.14495980425481, -2.556171848084916 ], [ 115.144954044254888, -2.556086888084882 ], [ 115.144948284254752, -2.55600192808489 ], [ 115.14494252425483, -2.555916968084854 ], [ 115.14493424425487, -2.555830838084864 ], [ 115.144925964254895, -2.55574470808492 ], [ 115.144917324254862, -2.555658578084909 ], [ 115.144909044254888, -2.555572448084867 ], [ 115.1449007642547, -2.555486318084853 ], [ 115.144892484254711, -2.555400188084918 ], [ 115.144884204254751, -2.55531405808491 ], [ 115.144875924254762, -2.555227838084843 ], [ 115.144867284254843, -2.555141708084854 ], [ 115.144857924254694, -2.555057738084905 ], [ 115.144848564254872, -2.554973678084905 ], [ 115.144839204254751, -2.554889708084855 ], [ 115.144829844254701, -2.554805648084855 ], [ 115.14482048425478, -2.554721678084923 ], [ 115.14481112425473, -2.554637618084906 ], [ 115.144801764254709, -2.554553648084856 ], [ 115.144792404254787, -2.554469588084907 ], [ 115.144783044254737, -2.554385618084924 ], [ 115.144771524254722, -2.554301558084863 ], [ 115.144760004254778, -2.554217588084869 ], [ 115.14474848425472, -2.554133528084914 ], [ 115.144736964254705, -2.554049558084923 ], [ 115.14472544425476, -2.553965498084855 ], [ 115.144713924254717, -2.553881438084857 ], [ 115.144702404254787, -2.553797468084923 ], [ 115.144690884254743, -2.553713408084913 ], [ 115.144679364254699, -2.553629438084864 ], [ 115.144666404254878, -2.553545648084855 ], [ 115.144653444254729, -2.553461948084846 ], [ 115.144640484254879, -2.553378158084936 ], [ 115.144627524254844, -2.553294368084866 ], [ 115.144614564254681, -2.553210668084862 ], [ 115.144601604254873, -2.553126878084841 ], [ 115.144588644254824, -2.553043178084833 ], [ 115.144575684254875, -2.552959388084929 ], [ 115.144556604254873, -2.55288279808494 ], [ 115.144537884254902, -2.552806208084883 ], [ 115.144518804254773, -2.552729618084836 ], [ 115.14450008425483, -2.552653028084904 ], [ 115.144481004254786, -2.552576438084849 ], [ 115.144461924254784, -2.552499848084923 ], [ 115.144438164254808, -2.552416328084896 ], [ 115.144414044254788, -2.552332718084902 ], [ 115.144389924254753, -2.552249198084869 ], [ 115.14436580425469, -2.552165678084884 ], [ 115.14434168425467, -2.552082068084901 ], [ 115.144317564254763, -2.551998548084928 ], [ 115.1442934442547, -2.551915028084833 ], [ 115.14426932425468, -2.551831418084845 ], [ 115.144245204254872, -2.551747898084864 ], [ 115.144221084254838, -2.551664288084873 ], [ 115.144196964254803, -2.551580768084902 ], [ 115.144169604254813, -2.551497428084845 ], [ 115.144141884254765, -2.551414178084906 ], [ 115.144114524254888, -2.551330838084858 ], [ 115.144087164254671, -2.551247588084859 ], [ 115.144059444254751, -2.551164248084917 ], [ 115.144032084254746, -2.551080998084874 ], [ 115.144004724254856, -2.550997658084917 ], [ 115.143977004254708, -2.550914408084937 ], [ 115.143949644254718, -2.55083106808487 ], [ 115.143922284254728, -2.550747818084829 ], [ 115.143887364254866, -2.550673298084896 ], [ 115.143852804254863, -2.550598868084852 ], [ 115.143817884254773, -2.550524348084911 ], [ 115.143782964254825, -2.550449828084852 ], [ 115.143748404254808, -2.550375398084931 ], [ 115.143713484254732, -2.550300878084865 ], [ 115.143678924254715, -2.55022644808489 ], [ 115.143644004254867, -2.550151928084834 ], [ 115.143609084254791, -2.550077408084896 ], [ 115.143571284254705, -2.549999648084927 ], [ 115.143533124254674, -2.549921798084855 ], [ 115.143495324254815, -2.549844038084845 ], [ 115.143457524254842, -2.549766188084877 ], [ 115.143419364254697, -2.549688428084917 ], [ 115.143381564254852, -2.549610578084896 ], [ 115.143343404254807, -2.549532818084823 ], [ 115.143305604254735, -2.549454968084867 ], [ 115.143263484254732, -2.549385218084902 ], [ 115.143221364254856, -2.549315378084852 ], [ 115.143179604254826, -2.549245628084888 ], [ 115.143137484254822, -2.549175788084859 ], [ 115.143095364254719, -2.549106038084895 ], [ 115.143053244254844, -2.549036288084855 ], [ 115.143011484254671, -2.548966448084883 ], [ 115.142956764254819, -2.548898228084942 ], [ 115.14290204425474, -2.548829918084867 ], [ 115.142847324254845, -2.548761698084915 ], [ 115.142792964254696, -2.548693388084847 ], [ 115.142738244254843, -2.548625168084888 ], [ 115.142683524254764, -2.548556858084941 ], [ 115.142629164254714, -2.548488638084872 ], [ 115.142574444254848, -2.548420328084924 ], [ 115.142526204254892, -2.548351568084877 ], [ 115.142477604254765, -2.548282808084907 ], [ 115.14242936425471, -2.548213958084861 ], [ 115.14238112425474, -2.548145198084881 ], [ 115.14233252425484, -2.548076348084829 ], [ 115.142284284254785, -2.548007588084855 ], [ 115.142236044254702, -2.547938738084916 ], [ 115.14218780425476, -2.547869978084831 ], [ 115.142139204254832, -2.547801128084907 ], [ 115.142090964254777, -2.547732368084914 ], [ 115.142042724254708, -2.547663608084882 ], [ 115.141985484254761, -2.547599708084839 ], [ 115.141928604254687, -2.547535808084919 ], [ 115.141871724254699, -2.547471908084923 ], [ 115.141814484254752, -2.547408008084893 ], [ 115.141757604254877, -2.547344198084863 ], [ 115.14170072425479, -2.547280298084869 ], [ 115.141643484254843, -2.547216398084834 ], [ 115.141586604254755, -2.547152498084906 ], [ 115.141529724254866, -2.547088598084853 ], [ 115.141468884254806, -2.547023438084898 ], [ 115.141405398507061, -2.54694731112997 ], [ 115.141347204254686, -2.54689311808491 ], [ 115.141286364254867, -2.546827958084892 ], [ 115.141225524254793, -2.546762798084875 ], [ 115.141164684254846, -2.54669763808491 ], [ 115.141103844254772, -2.546632478084829 ], [ 115.141043004254726, -2.546567318084868 ], [ 115.140982524254724, -2.546502158084899 ], [ 115.140921684254778, -2.546436998084828 ], [ 115.140864444254731, -2.546376878084825 ], [ 115.140807564254743, -2.546316758084826 ], [ 115.140750684254868, -2.546256638084939 ], [ 115.140693444254822, -2.546196518084934 ], [ 115.140672204254784, -2.546174018084942 ], [ 115.140636564254734, -2.546136488084842 ], [ 115.140579684254732, -2.546076368084844 ], [ 115.140522444254685, -2.546016248084835 ], [ 115.140465564254697, -2.545956128084838 ], [ 115.140408684254808, -2.545896008084835 ], [ 115.14035144425489, -2.545835888084844 ], [ 115.140294564254788, -2.545775768084842 ], [ 115.140241644254886, -2.545715108084865 ], [ 115.1401890842548, -2.545654448084839 ], [ 115.140136164254884, -2.545593698084898 ], [ 115.140083244254726, -2.545533038084926 ], [ 115.140030684254867, -2.545472378084897 ], [ 115.139977764254724, -2.545411628084902 ], [ 115.139925204254766, -2.545350968084874 ], [ 115.139872284254707, -2.545290308084907 ], [ 115.139819364254691, -2.54522964808487 ], [ 115.139762484254803, -2.545163858084916 ], [ 115.139705604254715, -2.545098158084931 ], [ 115.139648364254782, -2.545032458084874 ], [ 115.139591484254694, -2.544966758084874 ], [ 115.139534604254806, -2.544901058084835 ], [ 115.139477364254859, -2.544835358084836 ], [ 115.139420484254771, -2.544769658084901 ], [ 115.139353884254817, -2.544712148084877 ], [ 115.139287644254679, -2.544654638084894 ], [ 115.139221044254811, -2.544597128084916 ], [ 115.139154444254842, -2.544539618084875 ], [ 115.139087844254774, -2.544482108084904 ], [ 115.139013324254876, -2.544435758084909 ], [ 115.138938804254892, -2.544389408084863 ], [ 115.138864644254838, -2.544342968084865 ], [ 115.138790124254712, -2.544296618084934 ], [ 115.138715604254728, -2.544250268084937 ], [ 115.138641084254843, -2.54420391808489 ], [ 115.138580964254757, -2.544155948084915 ], [ 115.138520844254813, -2.544108068084906 ], [ 115.138460364254712, -2.544060098084824 ], [ 115.138439124254802, -2.544043088084924 ] ] ] } },
{ "type": "Feature", "properties": { "source_object_id": 376, "road_name": "Lumpangi - Loksado", "road_status": "Jalan Provinsi", "province": "Kalimantan Selatan", "regency": "Hulu Sungai Selatan", "source_length_km": 12.53, "geometry_length_m": 12703.7, "condition_data_included": false }, "geometry": { "type": "MultiLineString", "coordinates": [ [ [ 115.417056180171613, -2.812137792133416 ], [ 115.416924566921097, -2.811895827574531 ], [ 115.416768686921102, -2.811464007574524 ], [ 115.416369446921095, -2.810765157574532 ], [ 115.415664926921082, -2.809880997574532 ], [ 115.415443886921068, -2.80946816757452 ], [ 115.415378006921074, -2.809186377574526 ], [ 115.415283686921086, -2.808836457574533 ], [ 115.415331566921083, -2.808374667574534 ], [ 115.415356046921104, -2.807814327574527 ], [ 115.415448566921086, -2.807110347574531 ], [ 115.41567464692109, -2.806592127574522 ], [ 115.415811086921096, -2.806428057574524 ], [ 115.416082886921075, -2.806225917574523 ], [ 115.416305726921109, -2.806081737574521 ], [ 115.416596246921088, -2.806015587574521 ], [ 115.416938246921092, -2.805932067574522 ], [ 115.417276286921108, -2.805904887574527 ], [ 115.417575446921091, -2.805935847574522 ], [ 115.417958486921108, -2.806086507574529 ], [ 115.418245406921088, -2.806197747574524 ], [ 115.418686046921081, -2.80632329757453 ], [ 115.419269966921092, -2.806420047574524 ], [ 115.419854246921091, -2.806439847574524 ], [ 115.420735166921077, -2.806411947574529 ], [ 115.42147712692109, -2.806489077574528 ], [ 115.421773766921106, -2.806518237574527 ], [ 115.422032606921093, -2.806412667574523 ], [ 115.422310526921095, -2.806211067574523 ], [ 115.423297646921085, -2.805481257574527 ], [ 115.423348046921092, -2.80525130757453 ], [ 115.423404926921108, -2.804915787574521 ], [ 115.423744406921102, -2.804414667574527 ], [ 115.423941686921097, -2.804093367574528 ], [ 115.424282966921098, -2.80387358757452 ], [ 115.425081806921085, -2.803555977574522 ], [ 115.4253406469211, -2.80337354757453 ], [ 115.425398246921077, -2.803171677574524 ], [ 115.425437486921084, -2.802267807574528 ], [ 115.425583646921098, -2.801876397574527 ], [ 115.425756086921083, -2.801713137574524 ], [ 115.425899726921074, -2.801655537574534 ], [ 115.426139486921087, -2.801578857574524 ], [ 115.426331006921089, -2.80148291757453 ], [ 115.42649372692108, -2.801358087574524 ], [ 115.426580126921081, -2.801261967574533 ], [ 115.42670468692107, -2.801204457574518 ], [ 115.426829246921088, -2.801175747574533 ], [ 115.42709744692111, -2.801166387574523 ], [ 115.427547446921096, -2.801118777574524 ], [ 115.427997806921084, -2.801003847574527 ], [ 115.428400286921104, -2.800792707574519 ], [ 115.428888806921094, -2.800562397574519 ], [ 115.429138286921088, -2.800370337574522 ], [ 115.429329806921089, -2.800187817574524 ], [ 115.429531046921099, -2.799909177574534 ], [ 115.429617806921087, -2.799601557574523 ], [ 115.42965776692111, -2.799116457574526 ], [ 115.429648406921089, -2.798924127574522 ], [ 115.42959080692107, -2.798770227574531 ], [ 115.429552646921081, -2.798722167574525 ], [ 115.429466606921096, -2.798548917574523 ], [ 115.429132166921107, -2.797923597574518 ], [ 115.428970166921104, -2.797486827574524 ], [ 115.428932366921103, -2.797217547574524 ], [ 115.428923006921096, -2.796919377574521 ], [ 115.429000766921106, -2.795775207574527 ], [ 115.429107686921085, -2.795549667574523 ], [ 115.429347446921099, -2.79537686757453 ], [ 115.42958720692107, -2.795079057574525 ], [ 115.429855766921108, -2.794675407574534 ], [ 115.429922726921077, -2.794463907574518 ], [ 115.429961606921097, -2.793896637574522 ], [ 115.430039726921081, -2.793555357574528 ], [ 115.430270126921101, -2.793113277574534 ], [ 115.430386406921073, -2.792859117574528 ], [ 115.430529326921103, -2.79257354757452 ], [ 115.430586206921078, -2.791831137574528 ], [ 115.430593406921076, -2.791395717574527 ], [ 115.43047316692109, -2.791051917574529 ], [ 115.430435006921101, -2.790830697574517 ], [ 115.430435366921088, -2.790590307574531 ], [ 115.430513486921072, -2.790576357574523 ], [ 115.430561006921096, -2.79051929757453 ], [ 115.43059691800643, -2.790400676541493 ], [ 115.430798966921088, -2.790262257574531 ], [ 115.431086246921083, -2.790296457574519 ], [ 115.431467126921092, -2.790458997574517 ], [ 115.431760526921096, -2.790585897574533 ], [ 115.431898406921107, -2.79061919757452 ], [ 115.431988766921094, -2.790719097574527 ], [ 115.432007846921096, -2.790904767574525 ], [ 115.432102886921101, -2.791142637574527 ], [ 115.43223140692109, -2.791432977574525 ], [ 115.432355246921091, -2.791623327574527 ], [ 115.432606526921091, -2.79180791757452 ], [ 115.432912166921085, -2.791965957574519 ], [ 115.433152646921101, -2.792122287574532 ], [ 115.43367932692108, -2.792181867574522 ], [ 115.434050126921107, -2.792201937574524 ], [ 115.434323366921092, -2.792241537574531 ], [ 115.434596246921089, -2.792398677574528 ], [ 115.43479136692109, -2.79257534757452 ], [ 115.434966686921101, -2.792791257574532 ], [ 115.435050926921107, -2.79294029757452 ], [ 115.435200326921091, -2.79320318757452 ], [ 115.435395446921092, -2.793183837574521 ], [ 115.435551686921102, -2.792948847574532 ], [ 115.435903406921085, -2.792733657574522 ], [ 115.43617196692108, -2.792522787574523 ], [ 115.4363908469211, -2.792389497574523 ], [ 115.436828606921068, -2.792284827574534 ], [ 115.437456806921091, -2.792246757574531 ], [ 115.438176446921091, -2.792186367574522 ], [ 115.438460846921089, -2.792092047574527 ], [ 115.439017766921097, -2.792006457574533 ], [ 115.439343566921096, -2.791991877574531 ], [ 115.440059966921083, -2.791713777574528 ], [ 115.440367046921097, -2.791656627574526 ], [ 115.440758366921088, -2.791681647574521 ], [ 115.441137806921091, -2.791692357574519 ], [ 115.441387646921086, -2.791549527574521 ], [ 115.441694726921085, -2.791392567574525 ], [ 115.442122766921088, -2.791313997574521 ], [ 115.442482046921086, -2.791095837574524 ], [ 115.442736926921086, -2.790914217574529 ], [ 115.443058046921095, -2.790778587574521 ], [ 115.443452246921098, -2.79060182757452 ], [ 115.443760046921099, -2.790445227574532 ], [ 115.443907646921076, -2.790364587574522 ], [ 115.444014566921084, -2.790350277574518 ], [ 115.444098086921088, -2.790419127574519 ], [ 115.444450886921089, -2.790681837574525 ], [ 115.444837526921077, -2.790863727574528 ], [ 115.445164046921107, -2.791078467574521 ], [ 115.44537104692111, -2.791256937574521 ], [ 115.445535206921079, -2.79142109757452 ], [ 115.445756246921093, -2.791471047574521 ], [ 115.445924366921091, -2.79143972757453 ], [ 115.4464704869211, -2.791488957574522 ], [ 115.446841286921085, -2.791699467574527 ], [ 115.447162766921082, -2.791956417574533 ], [ 115.447633646921076, -2.79239192757452 ], [ 115.447833806921068, -2.792534667574519 ], [ 115.448047646921083, -2.792570397574526 ], [ 115.448518526921077, -2.792538627574524 ], [ 115.448604566921091, -2.792634567574531 ], [ 115.448633006921099, -2.792777397574525 ], [ 115.448725886921096, -2.792891607574521 ], [ 115.448803646921107, -2.792942817574523 ], [ 115.448804366921095, -2.793048657574524 ], [ 115.448861606921099, -2.793162867574527 ], [ 115.449011366921084, -2.793248547574528 ], [ 115.449154286921072, -2.793319917574533 ], [ 115.449290006921103, -2.793412707574523 ], [ 115.449326006921098, -2.793541677574521 ], [ 115.44939260692108, -2.793743097574528 ], [ 115.449582686921076, -2.793848127574517 ], [ 115.449868166921092, -2.793990867574533 ], [ 115.449996686921097, -2.794090857574518 ], [ 115.450061846921088, -2.794352307574518 ], [ 115.449999566921093, -2.795000217574532 ], [ 115.450124486921098, -2.795379027574528 ], [ 115.450325006921091, -2.795696997574521 ], [ 115.450532006921108, -2.795889687574533 ], [ 115.450873551112863, -2.796271255120781 ], [ 115.450942597928361, -2.796337488177763 ], [ 115.450641446921097, -2.796579177574534 ], [ 115.450451006921085, -2.79673379757453 ], [ 115.450373246921089, -2.796937917574523 ], [ 115.450391966921075, -2.797358397574528 ], [ 115.450477286921085, -2.797578357574531 ], [ 115.450557926921093, -2.797768887574534 ], [ 115.450771766921079, -2.797798497574519 ], [ 115.451128886921083, -2.797899747574528 ], [ 115.451408606921092, -2.79795923757452 ], [ 115.451581046921106, -2.798054367574523 ], [ 115.451866526921094, -2.798292327574528 ], [ 115.451967686921094, -2.798411307574527 ], [ 115.452022480021341, -2.798510538626484 ], [ 115.452312206921093, -2.798498157574528 ], [ 115.45313984692109, -2.798375037574525 ], [ 115.453496606921107, -2.798250837574524 ], [ 115.453895126921083, -2.798030607574523 ], [ 115.45410320692109, -2.797840257574524 ], [ 115.454249006921088, -2.797697607574531 ], [ 115.454389046921094, -2.797649907574526 ], [ 115.454609006921089, -2.797638027574519 ], [ 115.455086006921093, -2.79788984757453 ], [ 115.455590006921071, -2.798138967574534 ], [ 115.455770726921102, -2.798196567574523 ], [ 115.456512686921073, -2.79813059757453 ], [ 115.45694072692109, -2.798292327574523 ], [ 115.45733960692111, -2.79850652757453 ], [ 115.45745264692107, -2.798690937574532 ], [ 115.457595206921084, -2.798827737574532 ], [ 115.457725526921095, -2.798906217574531 ], [ 115.457815166921094, -2.798910987574531 ], [ 115.457916326921094, -2.798940777574521 ], [ 115.458071126921084, -2.799077577574534 ], [ 115.458225926921088, -2.799446397574518 ], [ 115.458338966921104, -2.799761667574531 ], [ 115.458547046921097, -2.800023387574532 ], [ 115.458773126921074, -2.800285197574522 ], [ 115.459052486921095, -2.800600467574522 ], [ 115.459281806921069, -2.800798737574527 ], [ 115.459463246921104, -2.801094207574527 ], [ 115.459507526921101, -2.80141379757452 ], [ 115.459463246921104, -2.801623587574532 ], [ 115.459477331947426, -2.801893014076997 ], [ 115.459527686921092, -2.802022287574533 ], [ 115.459641806921098, -2.802137037574523 ], [ 115.459822526921101, -2.802127767574521 ], [ 115.460123486921091, -2.80208168757453 ], [ 115.460402846921085, -2.801897277574532 ], [ 115.460771846921091, -2.801706837574522 ], [ 115.461229766921093, -2.801558157574528 ], [ 115.461455846921069, -2.80148678757452 ], [ 115.461818726921095, -2.801486787574528 ], [ 115.462389686921085, -2.801504607574517 ], [ 115.462693166921085, -2.801623587574518 ], [ 115.462907366921087, -2.801694957574534 ], [ 115.463347646921108, -2.80168901757452 ], [ 115.463789006921104, -2.801702067574527 ], [ 115.464305246921086, -2.801689017574525 ], [ 115.464745526921092, -2.801552217574518 ], [ 115.465138286921103, -2.80142135757452 ], [ 115.465483166921103, -2.801260707574523 ], [ 115.465857926921089, -2.80082645757453 ], [ 115.466021006921096, -2.800335507574527 ], [ 115.466110646921081, -2.800008087574533 ], [ 115.466273006921085, -2.799454047574522 ], [ 115.466473526921092, -2.798880927574528 ], [ 115.466616446921108, -2.798680407574534 ], [ 115.466835686921087, -2.798489607574521 ], [ 115.467203246921088, -2.79829970757452 ], [ 115.467827126921108, -2.797977957574531 ], [ 115.468275326921088, -2.797771047574519 ], [ 115.468741526921093, -2.797637847574526 ], [ 115.469169566921082, -2.797590597574525 ], [ 115.469921246921103, -2.797543797574525 ], [ 115.470224366921087, -2.797548747574524 ], [ 115.47047996692109, -2.797507167574518 ], [ 115.47077732692108, -2.797370277574523 ], [ 115.471253606921096, -2.797230237574529 ], [ 115.471459886921096, -2.797132587574531 ], [ 115.471764806921101, -2.796965817574529 ], [ 115.47211580692111, -2.796799227574527 ], [ 115.472558246921096, -2.796714627574522 ], [ 115.472771726921096, -2.796656397574518 ], [ 115.47321632692109, -2.796686187574518 ], [ 115.473799526921098, -2.796692127574533 ], [ 115.474150166921092, -2.796710037574517 ], [ 115.474400366921088, -2.796626697574525 ], [ 115.474626086921091, -2.796460197574524 ], [ 115.474713566921096, -2.796028197574523 ], [ 115.474704206921075, -2.795837037574517 ], [ 115.474685486921089, -2.795617257574522 ], [ 115.474733366921086, -2.795426187574535 ], [ 115.474799966921083, -2.79534977757453 ], [ 115.475041526921103, -2.795270577574521 ], [ 115.475346446921094, -2.795032077574525 ], [ 115.475619326921091, -2.79495143757453 ], [ 115.475884646921088, -2.794924257574534 ], [ 115.476153566921099, -2.795014707574519 ], [ 115.476278486921103, -2.795071587574534 ], [ 115.476592406921085, -2.795071947574528 ], [ 115.476804086921106, -2.794957017574526 ], [ 115.476925766921084, -2.794890867574522 ], [ 115.477249406921089, -2.794671447574521 ], [ 115.47774440692109, -2.794471377574522 ], [ 115.478989646921093, -2.794220547574523 ], [ 115.479852926921083, -2.794063137574528 ], [ 115.480841126921092, -2.793921477574518 ], [ 115.481393006921095, -2.793855327574533 ], [ 115.481651486921095, -2.793878457574532 ], [ 115.482133526921103, -2.794080687574524 ], [ 115.482372566921086, -2.794085907574527 ], [ 115.482674246921093, -2.794248807574528 ], [ 115.48327112692111, -2.794580457574531 ], [ 115.483573166921076, -2.79479456757453 ], [ 115.483673966921103, -2.794895637574523 ], [ 115.483834886921088, -2.794907607574531 ], [ 115.484057366921107, -2.794816257574529 ], [ 115.484155286921109, -2.794787727574533 ], [ 115.484336006921083, -2.794787997574534 ], [ 115.484507006921092, -2.79487187757452 ], [ 115.484697446921103, -2.795032527574529 ], [ 115.484774486921083, -2.795133597574531 ], [ 115.484804366921082, -2.795216937574528 ], [ 115.484881766921106, -2.795270397574534 ], [ 115.484976806921068, -2.795258517574522 ], [ 115.485095966921108, -2.795175267574525 ], [ 115.485137366921109, -2.795014617574521 ], [ 115.485280286921096, -2.794883757574529 ], [ 115.485452726921082, -2.794741017574523 ], [ 115.485648926921101, -2.794705287574528 ], [ 115.485930086921073, -2.794710057574528 ], [ 115.486181726921089, -2.794752177574523 ], [ 115.486343006921103, -2.795000847574532 ], [ 115.486399886921077, -2.795239797574523 ], [ 115.486475846921095, -2.79539279757452 ], [ 115.486541366921088, -2.795609517574527 ], [ 115.486701926921086, -2.795734437574528 ], [ 115.486928006921104, -2.795835597574519 ], [ 115.487225366921095, -2.795811747574518 ], [ 115.487648006921091, -2.795645247574519 ], [ 115.487814326921068, -2.795591697574523 ], [ 115.48802852692107, -2.79551429757452 ], [ 115.48807712692107, -2.795309727574529 ], [ 115.488362966921088, -2.795138097574532 ], [ 115.488524606921089, -2.795100027574517 ], [ 115.488619646921109, -2.795128827574522 ], [ 115.488714686921085, -2.795253207574525 ], [ 115.488809726921076, -2.795463537574524 ], [ 115.48890476692111, -2.795606997574525 ], [ 115.489234166921094, -2.79578321757453 ], [ 115.489370606921099, -2.795856117574526 ], [ 115.489765526921104, -2.795888967574519 ], [ 115.490169446921087, -2.795876277574523 ], [ 115.490493086921106, -2.795761977574525 ], [ 115.490812406921108, -2.79557972757452 ], [ 115.490979086921101, -2.795496477574519 ], [ 115.491145766921079, -2.79550241757452 ], [ 115.491323966921101, -2.795787987574531 ], [ 115.491473006921083, -2.79598301757453 ], [ 115.491728606921086, -2.796049707574524 ], [ 115.492077831922614, -2.795975252201733 ], [ 115.49230064692108, -2.79591722757452 ], [ 115.492491086921092, -2.795850537574527 ], [ 115.492662446921088, -2.795697897574525 ], [ 115.492852886921085, -2.795545257574529 ], [ 115.493081486921071, -2.795430867574529 ], [ 115.493328086921096, -2.795445267574531 ], [ 115.493661806921082, -2.79546029757452 ], [ 115.493882126921108, -2.795395317574518 ], [ 115.494001646921092, -2.795339247574531 ], [ 115.494108926921086, -2.795241057574526 ], [ 115.494108926921086, -2.795235747574532 ] ], [ [ 115.494108926921086, -2.795241057574526 ], [ 115.494144845253672, -2.795154192398537 ], [ 115.494148166921093, -2.795083287574521 ], [ 115.494095606921107, -2.794926237574533 ], [ 115.494041606921087, -2.794831557574526 ] ] ] } }
]
}
