{
"type": "FeatureCollection",
"name": "roads_national",
"crs": { "type": "name", "properties": { "name": "urn:ogc:def:crs:OGC:1.3:CRS84" } },
"features": [
{ "type": "Feature", "properties": { "source_object_id": 383, "road_name": "Kandangan - Lumpangi", "road_status": "Jalan Nasional", "province": "Kalimantan Selatan", "regency": "Hulu Sungai Selatan", "source_length_km": 11.0, "geometry_length_m": 22405.83, "condition_data_included": false }, "geometry": { "type": "MultiLineString", "coordinates": [ [ [ 115.279962245006757, -2.788330645328118 ], [ 115.280288151261843, -2.788288166766011 ], [ 115.280759391261739, -2.788216796766068 ], [ 115.281249351261948, -2.788164506766027 ], [ 115.281739671261647, -2.788116896766053 ], [ 115.282224951261668, -2.788064516766003 ], [ 115.282656951261714, -2.787995936765996 ], [ 115.283123511261792, -2.787938876765967 ], [ 115.283450198337746, -2.787906237277831 ], [ 115.283637231261622, -2.787891266765943 ], [ 115.283827671261605, -2.787891266765943 ], [ 115.284071391261676, -2.78790746676595 ], [ 115.284659952687477, -2.787869975969269 ], [ 115.284685551261731, -2.787831326765974 ], [ 115.285002627876779, -2.787636006445695 ], [ 115.285289991261806, -2.787488696766059 ], [ 115.285513551261701, -2.787364946766 ], [ 115.285665831261639, -2.787326876765993 ], [ 115.285870311261831, -2.787293576766058 ], [ 115.286032311261792, -2.787303116765948 ], [ 115.286160831261768, -2.787384026766024 ], [ 115.286284311261596, -2.787560066766009 ], [ 115.287026991261627, -2.789301836765972 ], [ 115.287150471261697, -2.789596946766043 ], [ 115.287364671261656, -2.789972876765958 ], [ 115.287545751261618, -2.790248906765907 ], [ 115.28766923126166, -2.790501086765984 ], [ 115.287991009553139, -2.790866960811127 ], [ 115.288737351261901, -2.791641206765991 ], [ 115.28898755126167, -2.791919216765979 ], [ 115.28923019126168, -2.792214326766046 ], [ 115.289425311261624, -2.792457056765914 ], [ 115.289568231261768, -2.792647406766051 ], [ 115.28965859126194, -2.792847206765953 ], [ 115.289758311261693, -2.793132776766023 ], [ 115.28987459126175, -2.794065896766032 ], [ 115.289963151261716, -2.794469996766016 ], [ 115.290161584774239, -2.795141830459009 ], [ 115.290259323446904, -2.795469834818082 ], [ 115.290353391261732, -2.795745476766016 ], [ 115.290524751261714, -2.795954816766044 ], [ 115.290686391261673, -2.796149936765926 ], [ 115.290757671261602, -2.796321296765901 ], [ 115.290797428107595, -2.796434700959351 ], [ 115.290780083122712, -2.796682734243224 ], [ 115.290677031261652, -2.797106456766032 ], [ 115.290605391261792, -2.79754907676603 ], [ 115.290529431261675, -2.798001146765968 ], [ 115.290443751261677, -2.798481836766044 ], [ 115.290324951261681, -2.798986286766032 ], [ 115.290210471261815, -2.799324146766037 ], [ 115.29018563126165, -2.79942854676603 ], [ 115.290096351261781, -2.799571646765974 ], [ 115.290041271261629, -2.799687206766022 ], [ 115.290005991261722, -2.799923726765944 ], [ 115.290020391261663, -2.800985006766058 ], [ 115.290020391261663, -2.801280026766004 ], [ 115.289996271261629, -2.801460926765973 ], [ 115.289534751261812, -2.802055736765972 ], [ 115.289506311261661, -2.802227096766052 ], [ 115.289506311261661, -2.802493586766063 ], [ 115.289539431261645, -2.802812456766056 ], [ 115.289587311261911, -2.803140776766055 ], [ 115.289620431261795, -2.803507256766016 ], [ 115.289715471261715, -2.803911716766055 ], [ 115.289810871261778, -2.804420936766016 ], [ 115.289829951261908, -2.80466843676596 ], [ 115.28981555126164, -2.805001526765986 ], [ 115.289601351261652, -2.805586886766054 ], [ 115.289387151261707, -2.806338836765989 ], [ 115.289301471261737, -2.806638626766033 ], [ 115.289273031261672, -2.806914656766038 ], [ 115.28927771126186, -2.807242976766026 ], [ 115.289344311261701, -2.80791401676601 ], [ 115.289439711261792, -2.808494606765988 ], [ 115.289530071261623, -2.808842006766057 ], [ 115.289606031261854, -2.809027586766042 ], [ 115.289753631261632, -2.809241696766001 ], [ 115.290039111261635, -2.809551026766048 ], [ 115.290462831261706, -2.809979336766007 ], [ 115.29125771126175, -2.810602766766024 ], [ 115.291809591261739, -2.811073916765969 ], [ 115.292342391261613, -2.811516536766039 ], [ 115.292799591261627, -2.811882926766036 ], [ 115.293184791261822, -2.812235096765977 ], [ 115.293446511261635, -2.812316006765988 ], [ 115.293808311261699, -2.812425446765993 ], [ 115.294070031261739, -2.812544426765962 ], [ 115.294274511261833, -2.812682396766044 ], [ 115.294427151261843, -2.81288228676597 ], [ 115.294560351261651, -2.813105936765977 ], [ 115.294646031261621, -2.813372516765934 ], [ 115.294636311261669, -2.813586626766048 ], [ 115.294646031261621, -2.813786516765977 ], [ 115.294669791261612, -2.814138686766012 ], [ 115.294683831261722, -2.814457556766018 ], [ 115.294717311261678, -2.814571766766055 ], [ 115.2948170312619, -2.81472881676605 ], [ 115.295821431261714, -2.815504436766004 ], [ 115.296544671261671, -2.816137406765979 ], [ 115.297008598116975, -2.816581297516574 ], [ 115.297710711261729, -2.817336656765934 ], [ 115.298609991261728, -2.818269416766001 ], [ 115.299228831261729, -2.81885000676591 ], [ 115.299580911261714, -2.819187866765974 ], [ 115.300106494716701, -2.819739258361131 ], [ 115.300403871261622, -2.820034856766043 ], [ 115.300737231261664, -2.820344276765997 ], [ 115.301132151261612, -2.82076781676603 ], [ 115.301588991261823, -2.821334186766037 ], [ 115.301851071261765, -2.82161489676606 ], [ 115.302041151261719, -2.821757726765956 ], [ 115.302169671261694, -2.821905236765989 ], [ 115.302217191261761, -2.82205751676607 ], [ 115.302226911261613, -2.822224106766001 ], [ 115.302193431261657, -2.822428676766056 ], [ 115.302212511261672, -2.822595266765984 ], [ 115.302321951261632, -2.822752316766024 ], [ 115.302388551261714, -2.822880836766002 ], [ 115.302417351261724, -2.823104486766002 ], [ 115.302455151261682, -2.823313826766038 ], [ 115.302483951261792, -2.82342335676601 ], [ 115.302569631261775, -2.823575636766026 ], [ 115.302873111261619, -2.823962906766001 ], [ 115.303016751261765, -2.82416099676602 ], [ 115.303197831261826, -2.824208516765969 ], [ 115.30337855126173, -2.824289426765926 ], [ 115.30354523126185, -2.824403636766033 ], [ 115.303730631261672, -2.82461306676596 ], [ 115.304044911261798, -2.825131736765973 ], [ 115.304254071261624, -2.825512526766043 ], [ 115.304377911261639, -2.825688566766023 ], [ 115.304496711261635, -2.825850386766055 ], [ 115.304606151261837, -2.825912216765976 ], [ 115.304725311261762, -2.825921756766045 ], [ 115.304839431261797, -2.825940836766065 ], [ 115.304858511261926, -2.826035966766045 ], [ 115.30494419126191, -2.826126416766062 ], [ 115.305105831261798, -2.826121646766031 ], [ 115.305224991261724, -2.826150176766036 ], [ 115.305724671261686, -2.82633575676602 ], [ 115.305934191261798, -2.826392906766056 ], [ 115.30618151126167, -2.826411896766054 ], [ 115.306362231261659, -2.826421436766004 ], [ 115.306500471261728, -2.826464276766005 ], [ 115.306647711261675, -2.826568946766047 ], [ 115.306900071261765, -2.826730766766068 ], [ 115.308356631261603, -2.827353656766043 ], [ 115.308465711261633, -2.827449326766048 ], [ 115.308627711261664, -2.827511246766058 ], [ 115.308813111261742, -2.827587386766046 ], [ 115.308927231261777, -2.827582616766009 ], [ 115.309027311261701, -2.827601696765965 ], [ 115.309170231261618, -2.827658756765984 ], [ 115.309312791261704, -2.827720586766027 ], [ 115.309417551261717, -2.827815806766015 ], [ 115.309517631261642, -2.827920476765896 ], [ 115.309631751261662, -2.828025236766006 ], [ 115.309755591261776, -2.828048996766048 ], [ 115.309874391261673, -2.828001386766013 ], [ 115.309969791261764, -2.827901486766013 ], [ 115.310031351261699, -2.827811036766047 ], [ 115.310150511261753, -2.827792046765996 ], [ 115.310331231261657, -2.827787276765962 ], [ 115.310474151261673, -2.827796816765969 ], [ 115.310607351261723, -2.827839566766055 ], [ 115.310731191261624, -2.827925246766038 ], [ 115.310792751261801, -2.828025236766003 ], [ 115.310835591261807, -2.82811559676595 ], [ 115.310978511261695, -2.828201276766045 ], [ 115.311049791261752, -2.828344016766053 ], [ 115.311111711261631, -2.828482076765979 ], [ 115.311254631261789, -2.828648576766015 ], [ 115.311383151261765, -2.828772326766003 ], [ 115.311563871261654, -2.828777096766045 ], [ 115.311797151261743, -2.828915156766024 ], [ 115.312077951261671, -2.829172106765956 ], [ 115.312263351261649, -2.82935291676604 ], [ 115.312468191261686, -2.829552806766012 ], [ 115.312501311261926, -2.829676556765949 ], [ 115.312634511261734, -2.829771686766056 ], [ 115.312777431261651, -2.829881216766018 ], [ 115.312925031261642, -2.830042946765919 ], [ 115.313101071261798, -2.830142936765998 ], [ 115.31333903126162, -2.830176236766037 ], [ 115.313681751261669, -2.830238066765972 ], [ 115.313924391261679, -2.830266686766046 ], [ 115.314248031261698, -2.830328516765993 ], [ 115.314461871261614, -2.830376126766014 ], [ 115.314614151261793, -2.830347596766056 ], [ 115.314814311261657, -2.830233296766051 ], [ 115.315085391261718, -2.83005725676601 ], [ 115.31510915126168, -2.829995426765966 ], [ 115.315056951261667, -2.829943046766021 ], [ 115.315142631261637, -2.829909746765974 ], [ 115.315237671261656, -2.82985259676605 ], [ 115.315294911261816, -2.829767006765973 ], [ 115.315447191261782, -2.829633716765963 ], [ 115.315832751261709, -2.829400526766059 ], [ 115.316332431261671, -2.829105506766044 ], [ 115.316884311261646, -2.828691416766056 ], [ 115.317318111261642, -2.828438246765999 ], [ 115.317609711261611, -2.828188316765997 ], [ 115.318031991261805, -2.827908776765999 ], [ 115.318382991261714, -2.827629146766023 ], [ 115.318573071261639, -2.82746858676599 ], [ 115.318805245314209, -2.827198070836206 ], [ 115.318837660945576, -2.827062527717894 ], [ 115.318751631261634, -2.826766676766002 ], [ 115.318733991261595, -2.82654653676606 ], [ 115.318793391261678, -2.826397856766012 ], [ 115.318829031261629, -2.82613010676597 ], [ 115.318852791261619, -2.825832656765962 ], [ 115.318840911261731, -2.825618546766021 ], [ 115.318840911261731, -2.825475806766018 ], [ 115.318894551261764, -2.825332976766006 ], [ 115.319037111261622, -2.825124806766051 ], [ 115.31920955126165, -2.82489278676599 ], [ 115.319465511261868, -2.824654826766061 ], [ 115.320078231261832, -2.823976676766061 ], [ 115.320369831261786, -2.823673376766015 ], [ 115.321335351261695, -2.821767356766039 ], [ 115.322050671261735, -2.820304406765968 ], [ 115.322181690235155, -2.820165739092054 ], [ 115.322216631261625, -2.820137636766055 ], [ 115.3228099112617, -2.819736326766035 ], [ 115.323146445480674, -2.819448850776967 ], [ 115.323197991261821, -2.819411966766048 ], [ 115.323477711261674, -2.819197766765977 ], [ 115.323721791261818, -2.819031266766052 ], [ 115.323929871261797, -2.818930106765957 ], [ 115.324411551261719, -2.818870616766003 ], [ 115.324828071261635, -2.818876556766058 ], [ 115.325211382013933, -2.818897983607632 ], [ 115.325500191261867, -2.818912286765981 ], [ 115.325625111261715, -2.818888436766043 ], [ 115.325761911261651, -2.818900316765979 ], [ 115.325924271261641, -2.818944146765963 ], [ 115.326293631261791, -2.818925156766019 ], [ 115.326517551261617, -2.818894376766034 ], [ 115.326713751261735, -2.818852796765971 ], [ 115.32691607126182, -2.818858736766013 ], [ 115.32724403126177, -2.81896601676603 ], [ 115.327734711261641, -2.819046026766049 ], [ 115.327991751261791, -2.81909201676604 ], [ 115.328272191261675, -2.81912639676603 ], [ 115.328568111261674, -2.819194976766032 ], [ 115.328700591261835, -2.819281106766039 ], [ 115.328754231261627, -2.81938217676595 ], [ 115.328832711261711, -2.819878796766048 ], [ 115.328867271261728, -2.820137636766054 ], [ 115.329110991261672, -2.820280466765966 ], [ 115.32939071126188, -2.820316106766046 ], [ 115.329598791261873, -2.820375596765994 ], [ 115.32980111126173, -2.82050051676596 ], [ 115.329896511261822, -2.820643346766038 ], [ 115.330079031261661, -2.820880676766034 ], [ 115.330555671261649, -2.821435616765958 ], [ 115.330979031261649, -2.821928186765962 ], [ 115.331275311261678, -2.822329856766037 ], [ 115.331509311261669, -2.822575016766001 ], [ 115.331865351261825, -2.822975156765959 ], [ 115.332192591261744, -2.823349916766025 ], [ 115.332371151261754, -2.823492746765974 ], [ 115.332596871261643, -2.82361172676606 ], [ 115.332900351261728, -2.823683096765944 ], [ 115.33322147126178, -2.823730616765947 ], [ 115.333519191261743, -2.823712796765919 ], [ 115.33369739126168, -2.823677156765885 ], [ 115.333828431261708, -2.823558176765982 ], [ 115.334036511261701, -2.823343976766025 ], [ 115.334137671261686, -2.823183416765978 ], [ 115.334256831261641, -2.82304058676596 ], [ 115.334351871261632, -2.822927636765959 ], [ 115.33449479126179, -2.822891906766034 ], [ 115.334672991261627, -2.822867966765902 ], [ 115.334792151261681, -2.822933576766 ], [ 115.334928951261617, -2.823046526766012 ], [ 115.33503011126173, -2.823195296765966 ], [ 115.33513703126161, -2.823332096766029 ], [ 115.335256191261891, -2.823403466765984 ], [ 115.335446271261802, -2.82339752676604 ], [ 115.335821031261716, -2.823403466765981 ], [ 115.336112631261685, -2.823367826765958 ], [ 115.336427991261743, -2.82334991676602 ], [ 115.33674911126181, -2.823391586766038 ], [ 115.337219271261674, -2.823439196766022 ], [ 115.337647311261634, -2.823474836766043 ], [ 115.338081831261746, -2.823510566765959 ], [ 115.338617151261658, -2.823534326766052 ], [ 115.338962031261616, -2.823516506766009 ], [ 115.339051311261841, -2.823468896765978 ], [ 115.339134471261659, -2.823433256765964 ], [ 115.339250751261687, -2.823447386765974 ], [ 115.339351551261601, -2.823456296765994 ], [ 115.339435071261804, -2.823408686765976 ], [ 115.339518231261621, -2.823367016766048 ], [ 115.339637391261675, -2.823367016766044 ], [ 115.339765191261748, -2.823364046766033 ], [ 115.339937631261691, -2.823369986765974 ], [ 115.340137071261637, -2.823355136765895 ], [ 115.340440599556914, -2.823324800014362 ], [ 115.340574331566643, -2.823295365566758 ], [ 115.340916454365711, -2.823167631258974 ], [ 115.341443249245444, -2.822996174434914 ], [ 115.341863194220309, -2.822866960596496 ], [ 115.342249973646304, -2.822704261252874 ], [ 115.342825551261697, -2.822479526766032 ], [ 115.343387151261794, -2.822332016766055 ], [ 115.343615751261694, -2.822232026766028 ], [ 115.343825271261807, -2.822136896765989 ], [ 115.343934711261653, -2.822098826766041 ], [ 115.344134511261785, -2.822089286766026 ], [ 115.344520071261712, -2.822065526766043 ], [ 115.344881511261832, -2.822013146766055 ], [ 115.34506727126174, -2.822017916766023 ], [ 115.345495311261601, -2.822032136766049 ], [ 115.34576675126182, -2.821946546765962 ], [ 115.346099751261661, -2.821837016766045 ], [ 115.346309271261788, -2.821779956766033 ], [ 115.346447151261685, -2.821756196765999 ], [ 115.346604471261642, -2.821794266765968 ], [ 115.346761431261683, -2.821894166765974 ], [ 115.346946831261647, -2.821903706765982 ], [ 115.347180111261721, -2.82188462676591 ], [ 115.347660711261682, -2.821760876765963 ], [ 115.348189191261753, -2.821641896766053 ], [ 115.348512471261614, -2.821608596765901 ], [ 115.348836111261662, -2.821589606766007 ], [ 115.349088471261751, -2.821599146766014 ], [ 115.349292951261617, -2.821622906765985 ], [ 115.349459631261865, -2.821603826766029 ], [ 115.349564391261609, -2.821546766766015 ], [ 115.34965943126187, -2.821404026766017 ], [ 115.349711991261628, -2.821232666766045 ], [ 115.349836911261804, -2.820961046765955 ], [ 115.349904951261777, -2.82076547676606 ], [ 115.349982351261787, -2.820542006766019 ], [ 115.350083151261714, -2.820402146765967 ], [ 115.350138591261697, -2.820325376765942 ], [ 115.350249111261832, -2.82018218676598 ], [ 115.350420471261799, -2.820063206766015 ], [ 115.350714591261962, -2.819976986766057 ], [ 115.350887031261649, -2.819925236766053 ], [ 115.35100115126167, -2.819839556765895 ], [ 115.351076751261729, -2.819655686765958 ], [ 115.351138311261678, -2.819506826765984 ], [ 115.351272231261731, -2.819401706765977 ], [ 115.351472391261808, -2.819268506766042 ], [ 115.351614951261666, -2.819201816765947 ], [ 115.351776951261584, -2.819111456765957 ], [ 115.3518338312617, -2.81896394676603 ], [ 115.351996551261635, -2.818793486766036 ], [ 115.352210031261706, -2.818569386765951 ], [ 115.352390751261709, -2.81845472676606 ], [ 115.352614311261931, -2.81834528676604 ], [ 115.352809431261747, -2.818311896766039 ], [ 115.352957031261866, -2.818240526765933 ], [ 115.353106071261649, -2.818122446765987 ], [ 115.353252231261621, -2.818002566766044 ], [ 115.353428271261762, -2.817883676766049 ], [ 115.353537711261637, -2.817783686765963 ], [ 115.353542391261826, -2.817602876765999 ], [ 115.353632751261657, -2.817526736766016 ], [ 115.353746871261691, -2.817498116766048 ], [ 115.354018311261783, -2.817426746766003 ], [ 115.354256271261733, -2.817402986765912 ], [ 115.354503591261931, -2.817402986765905 ], [ 115.354736871261679, -2.817412526765979 ], [ 115.355022351261695, -2.817540956766057 ], [ 115.355270031261597, -2.817740846765961 ], [ 115.355498271261652, -2.817897896766012 ], [ 115.355779071261836, -2.818059716765978 ], [ 115.355959791261824, -2.818173926766023 ], [ 115.356140871261658, -2.818107326765991 ], [ 115.356483231261763, -2.817988346766029 ], [ 115.35688319126163, -2.817907436765905 ], [ 115.357187751261648, -2.817802766766041 ], [ 115.357444791261727, -2.817688556765982 ], [ 115.357573311261703, -2.817564806766036 ], [ 115.357606431261814, -2.817412526765974 ], [ 115.357644591261632, -2.817269696765955 ], [ 115.357706511261739, -2.817093656765966 ], [ 115.357825311261621, -2.816893766766048 ], [ 115.357915671261694, -2.816770016765946 ], [ 115.358067951261631, -2.816665346765954 ], [ 115.358272791261669, -2.816627276765936 ], [ 115.358453511261885, -2.816622506765964 ], [ 115.358597871261935, -2.81672708676604 ], [ 115.358796231261849, -2.816808086765962 ], [ 115.359096111261763, -2.816874776766054 ], [ 115.359334071261614, -2.816965136765995 ], [ 115.359576711261624, -2.817007976765983 ], [ 115.359786231261708, -2.817060356766052 ], [ 115.360061991261631, -2.817193556765978 ], [ 115.360223991261691, -2.817255476766042 ], [ 115.360452231261746, -2.817288776766031 ], [ 115.360709271261697, -2.817426746765998 ], [ 115.360966311261649, -2.817679016765914 ], [ 115.361199591261737, -2.817831296765992 ], [ 115.361446911261837, -2.817859826766053 ], [ 115.361675511261737, -2.817836066766019 ], [ 115.361851551261637, -2.817874136765982 ], [ 115.362103551261924, -2.817859826766043 ], [ 115.362336831261686, -2.817769376766039 ], [ 115.362503511261792, -2.817712316766015 ], [ 115.362841191261694, -2.817712316766018 ], [ 115.363283991261682, -2.817617096766021 ], [ 115.363498191261655, -2.817507656765943 ], [ 115.36363607126178, -2.817450596766049 ], [ 115.363854951261686, -2.817393446766019 ], [ 115.364073831261734, -2.817369686765978 ], [ 115.364283351261847, -2.817417296766004 ], [ 115.364587911261637, -2.81751719676601 ], [ 115.364864031261689, -2.817598106765972 ], [ 115.365111351261788, -2.817712316766011 ], [ 115.36528271126177, -2.817793226766018 ], [ 115.365425271261628, -2.817802766766034 ], [ 115.365634791261741, -2.817778916765936 ], [ 115.365915591261654, -2.817736076765945 ], [ 115.366191711261621, -2.817712316766011 ], [ 115.366419951261676, -2.817702776766003 ], [ 115.366595991261619, -2.817712316766015 ], [ 115.366819911261686, -2.817788456765999 ], [ 115.36701503126173, -2.817878906766004 ], [ 115.367100711261727, -2.818026416766044 ], [ 115.367086311261787, -2.818121546766025 ], [ 115.366953111261722, -2.818273826766037 ], [ 115.366929351261746, -2.818388036765957 ], [ 115.366918654141699, -2.818462114805943 ], [ 115.366945423078121, -2.818551344593752 ], [ 115.36705249882354, -2.818575139203872 ], [ 115.367219511261723, -2.818611776765996 ], [ 115.367600391261689, -2.818602236765932 ], [ 115.367790471261713, -2.818654616765977 ], [ 115.367938071261719, -2.818654616765973 ], [ 115.368104751261598, -2.81856893676599 ], [ 115.368385551261753, -2.818483256766006 ], [ 115.368680391261677, -2.818426106765986 ], [ 115.368818631261746, -2.818407116766036 ], [ 115.369056591261682, -2.818445186766055 ], [ 115.369303911261781, -2.818587926766053 ], [ 115.369508391261647, -2.818549856766042 ], [ 115.369813311261922, -2.818502246766016 ], [ 115.370241351261697, -2.818430876765948 ], [ 115.370669751261588, -2.818369046765898 ], [ 115.370964951261712, -2.818273826766029 ], [ 115.371107511261769, -2.818264376766043 ], [ 115.371259791261735, -2.818330976766062 ], [ 115.371326391261704, -2.818411886765905 ], [ 115.371526191261609, -2.818473716765955 ], [ 115.371669111261639, -2.818478486765982 ], [ 115.371783231261674, -2.818492796766015 ], [ 115.372049991261733, -2.818621226765983 ], [ 115.372260756647705, -2.818523608313351 ], [ 115.372397391261728, -2.818530866766042 ], [ 115.372616271261663, -2.818535636766019 ], [ 115.372735071261758, -2.81858315676602 ], [ 115.372844511261718, -2.818625996766009 ], [ 115.37334851126171, -2.819079416766051 ], [ 115.373644071261637, -2.819277956766038 ], [ 115.373829831261759, -2.819311346766032 ], [ 115.374062751261675, -2.819320796766038 ], [ 115.374220071261874, -2.819301806765976 ], [ 115.374305391261686, -2.819316026765999 ], [ 115.374719031261961, -2.819664236766034 ], [ 115.375071831261707, -2.81992523676605 ], [ 115.375490511261617, -2.820258326765909 ], [ 115.375780671261722, -2.820448676765935 ], [ 115.375890111261668, -2.82064856676602 ], [ 115.375914231261689, -2.820862676765971 ], [ 115.375890111261668, -2.821048346765977 ], [ 115.375871391261597, -2.821262456766035 ], [ 115.375852311261909, -2.821457576765925 ], [ 115.375861671261632, -2.821633706766041 ], [ 115.375994871261668, -2.82181928676602 ], [ 115.376128071261832, -2.821995326766013 ], [ 115.376209071261627, -2.822218976766028 ], [ 115.376166231261649, -2.822575916765991 ], [ 115.376037711261674, -2.822966156766039 ], [ 115.375942671261754, -2.823294566766048 ], [ 115.375885431261821, -2.823537206766065 ], [ 115.375771311261801, -2.823779936766035 ], [ 115.375633431261775, -2.823994046765913 ], [ 115.375538031261712, -2.824246316765997 ], [ 115.375481151261937, -2.824460426765948 ], [ 115.375485831261656, -2.824636556765957 ], [ 115.375595271261631, -2.824798376766021 ], [ 115.375752231261657, -2.8248602067659 ], [ 115.375966431261617, -2.824845896766037 ], [ 115.376152234647023, -2.824832031297869 ], [ 115.376470791261767, -2.824546106766053 ], [ 115.376613711261683, -2.824370066766008 ], [ 115.376856351261694, -2.824236776765998 ], [ 115.377060831261915, -2.824170176766033 ], [ 115.377227511261665, -2.824132106765957 ], [ 115.377332271261679, -2.82409880676603 ], [ 115.377479871261798, -2.823965516766015 ], [ 115.377527391261623, -2.823837086766061 ], [ 115.377679671261802, -2.82375617676605 ], [ 115.377969831261666, -2.82360857676606 ], [ 115.378312551261686, -2.823556286766022 ], [ 115.378559871261785, -2.82353720676606 ], [ 115.379002671261659, -2.823380156766018 ], [ 115.379502351261621, -2.823204116766032 ], [ 115.379802231261905, -2.823185036766024 ], [ 115.380092391261741, -2.823075596766051 ], [ 115.380473271261806, -2.822980466765966 ], [ 115.380749031261729, -2.822904326765991 ], [ 115.380991671261739, -2.822837636765949 ], [ 115.38118211126185, -2.822790116766048 ], [ 115.381363191261912, -2.822780576766052 ], [ 115.381615191261844, -2.822790116766063 ], [ 115.381796271261678, -2.82283286676603 ], [ 115.381991391261849, -2.82289955676602 ], [ 115.382271831261832, -2.822999456766031 ], [ 115.382590791261663, -2.823061376766038 ], [ 115.382909751261622, -2.823061376766028 ], [ 115.383180831261683, -2.823018536766043 ], [ 115.383476031261779, -2.822980466765967 ], [ 115.383709311261867, -2.823008996766026 ], [ 115.383918471261808, -2.823042296766013 ], [ 115.384089831261761, -2.823066056766055 ], [ 115.384432551261725, -2.823027986765919 ], [ 115.384570431261722, -2.822947166765977 ], [ 115.384661151261611, -2.822823416766045 ], [ 115.384779951261606, -2.822685356766061 ], [ 115.385041671261646, -2.822504546766039 ], [ 115.385288991261845, -2.822347496766004 ], [ 115.385569791261659, -2.822238056766035 ], [ 115.385727111261858, -2.822161916765997 ], [ 115.385903151261672, -2.822114306765981 ], [ 115.386169551261645, -2.822128616766017 ], [ 115.386288351261754, -2.82218567676603 ], [ 115.386398151261758, -2.822228516766024 ], [ 115.386683631261775, -2.822209526766028 ], [ 115.386840591261802, -2.822157146765975 ], [ 115.386892791261829, -2.822076236766028 ], [ 115.38690719126167, -2.82184304676601 ], [ 115.386945351261915, -2.821590866766043 ], [ 115.387025991261666, -2.821386206766027 ], [ 115.38713579126167, -2.821262456766028 ], [ 115.387273671261923, -2.821162556766029 ], [ 115.387449711261738, -2.821162556766019 ], [ 115.387763631261762, -2.821219616766038 ], [ 115.388282391261754, -2.821362446766055 ], [ 115.388586951261672, -2.821519406765969 ], [ 115.388687031261824, -2.821628936766059 ], [ 115.388753631261665, -2.821833506765931 ], [ 115.388853711261717, -2.821976336766005 ], [ 115.389048831261888, -2.822104766765919 ], [ 115.389291471261885, -2.822152376766058 ], [ 115.389415311261672, -2.822123846766037 ], [ 115.389524751261646, -2.82215237676605 ], [ 115.389576951261674, -2.822218976766017 ], [ 115.389677031261812, -2.822242826765952 ], [ 115.389791151261619, -2.822228516766022 ], [ 115.389914991261634, -2.822185676766041 ], [ 115.389952791261706, -2.822071466765982 ], [ 115.390048191261798, -2.821923956765952 ], [ 115.390147911261664, -2.821828736765956 ], [ 115.390362111261638, -2.821766906766032 ], [ 115.390538151261666, -2.821781216765959 ], [ 115.390771431261626, -2.821785986765984 ], [ 115.391023791261844, -2.821685996765898 ], [ 115.391232951261799, -2.821543256765907 ], [ 115.391285511261657, -2.821386206766033 ], [ 115.391309271261861, -2.821252916766031 ], [ 115.391299551261767, -2.82113393676606 ], [ 115.391347431261664, -2.821048346765975 ], [ 115.391432751261817, -2.820991196766055 ], [ 115.391523471261806, -2.820972206765991 ], [ 115.391646951261791, -2.821005506765981 ], [ 115.391742351261627, -2.821153016766024 ], [ 115.391908671261703, -2.821252916766021 ], [ 115.392103791261746, -2.821314836766041 ], [ 115.392375231261639, -2.821338596766007 ], [ 115.392770151261587, -2.821352906766049 ], [ 115.393346151261625, -2.821357676766028 ], [ 115.393621911261761, -2.821324376765982 ], [ 115.393898031261614, -2.821200626766035 ], [ 115.394240751261762, -2.821076876766033 ], [ 115.394511831261596, -2.820943586766031 ], [ 115.394749791261773, -2.820743786766021 ], [ 115.394930871261835, -2.820620036765899 ], [ 115.39505939126181, -2.820624806766043 ], [ 115.395178191261707, -2.820586736765972 ], [ 115.395325791261683, -2.820496286765963 ], [ 115.395406791261834, -2.820439136766038 ], [ 115.395425511261777, -2.820344006766064 ], [ 115.395534951261737, -2.820301166765899 ], [ 115.395654111261663, -2.820301166765895 ], [ 115.395754191261616, -2.820329696766015 ], [ 115.395849231261607, -2.820334466766058 ], [ 115.39596335126167, -2.820301166765892 ], [ 115.396082511261724, -2.820210716766048 ], [ 115.396101591261726, -2.820015596766052 ], [ 115.396110951261647, -2.819858546765948 ], [ 115.396139391261713, -2.81972057676598 ], [ 115.39621571126176, -2.819668196765937 ], [ 115.396387071261742, -2.819587286765969 ], [ 115.39680575126188, -2.819558756766028 ], [ 115.397181591261727, -2.81951591676604 ], [ 115.397595591261705, -2.819468396766024 ], [ 115.39786235126175, -2.819468396766021 ], [ 115.398362031261712, -2.819530226765956 ], [ 115.398723471261732, -2.819534996765991 ], [ 115.399223151261694, -2.819582606766017 ], [ 115.399432671261678, -2.819611136765904 ], [ 115.399765671261648, -2.819653976765895 ], [ 115.399956111261631, -2.819682506766031 ], [ 115.400132151261673, -2.819672966765958 ], [ 115.400346351261618, -2.819649206766049 ], [ 115.400541471261889, -2.819611136765907 ], [ 115.400865111261709, -2.819335106765902 ], [ 115.401031791261602, -2.819130446766009 ], [ 115.401155271261686, -2.81890679676606 ], [ 115.401341031261808, -2.818678376766021 ], [ 115.401531471261791, -2.81851178676597 ], [ 115.401712191261794, -2.818216766766007 ], [ 115.401778791261648, -2.817826526765951 ], [ 115.401750351261597, -2.817636176765932 ], [ 115.401745671261736, -2.817474356766017 ], [ 115.401836031261709, -2.817222176765953 ], [ 115.401859791261799, -2.817055586766007 ], [ 115.401959511261651, -2.816908076765974 ], [ 115.402302231261942, -2.816560676766036 ], [ 115.402335711261657, -2.816413166766059 ], [ 115.402492671261697, -2.816022926766046 ], [ 115.402702191261781, -2.815551776766047 ], [ 115.402830711261757, -2.815351886766003 ], [ 115.403049591261805, -2.815151996765977 ], [ 115.403463591261783, -2.814852206766041 ], [ 115.403715591261843, -2.814685616766055 ], [ 115.404025191261653, -2.814523796765972 ], [ 115.404367551261743, -2.814300146766024 ], [ 115.404605511261678, -2.814133556766031 ], [ 115.404829431261618, -2.813957516765944 ], [ 115.405024551261789, -2.813786156765961 ], [ 115.40525747126172, -2.813676716765955 ], [ 115.405486071261706, -2.813572046766017 ], [ 115.405671471261698, -2.813495906765928 ], [ 115.405890351261604, -2.81345306676595 ], [ 115.406233071261767, -2.813457836765972 ], [ 115.406580471261648, -2.813505446766003 ], [ 115.406828151261806, -2.813619656766047 ], [ 115.407085191261757, -2.81377670676597 ], [ 115.407227751261615, -2.813871836765947 ], [ 115.407322791261649, -2.81397659676601 ], [ 115.407318111261688, -2.814109796766004 ], [ 115.407365631261612, -2.814276386765934 ], [ 115.407441951261802, -2.814461966765938 ], [ 115.407536991261821, -2.814633326765894 ], [ 115.407570471261778, -2.814737996765945 ], [ 115.40760359126169, -2.814847436766009 ], [ 115.407660831261609, -2.81493788676602 ], [ 115.407746511261706, -2.814994946766049 ], [ 115.407879711261756, -2.815009256765908 ], [ 115.407931551261612, -2.81506433676601 ], [ 115.407931551261612, -2.81512139676603 ], [ 115.407892311261762, -2.815199966766047 ], [ 115.407960711261666, -2.815409036766037 ], [ 115.408079511261789, -2.815651676766049 ], [ 115.408231791261727, -2.81592770676606 ], [ 115.408341231261701, -2.816170436765972 ], [ 115.408436631261651, -2.816384546766029 ], [ 115.408607991261633, -2.816555906766049 ], [ 115.408698351261791, -2.816731946765987 ], [ 115.408845951261782, -2.816879456766022 ], [ 115.409021991261582, -2.816979446766033 ], [ 115.409198031261752, -2.81698898676604 ], [ 115.409345631261743, -2.816798636765909 ], [ 115.409488191261957, -2.816432156766048 ], [ 115.409650191261647, -2.815875326766063 ], [ 115.409792751261605, -2.815556546765897 ], [ 115.409906871261768, -2.814944366766047 ], [ 115.409949711261774, -2.814509576765946 ], [ 115.409983191261716, -2.814076496766024 ], [ 115.4100688712617, -2.813400686766053 ], [ 115.410073551261888, -2.813143736766006 ], [ 115.409982775707718, -2.812832175918635 ], [ 115.409840008047368, -2.812527604909875 ], [ 115.40991615079956, -2.81221351605711 ], [ 115.409978511261627, -2.811973016766051 ], [ 115.410182650432219, -2.811728106011921 ], [ 115.410363489468665, -2.811632927571686 ], [ 115.41052529281707, -2.811537749131458 ], [ 115.410801310293721, -2.811490159911335 ], [ 115.411039256394318, -2.811509195599372 ], [ 115.411444071261812, -2.811535256766048 ], [ 115.411905380200452, -2.811709070323871 ], [ 115.41217187983311, -2.811842320140206 ], [ 115.412514522217961, -2.811966052112508 ], [ 115.412800551261597, -2.812120616765989 ], [ 115.412966871261659, -2.81229665676597 ], [ 115.41316703126175, -2.81247269676602 ], [ 115.413523791261895, -2.812763036765959 ], [ 115.413923751261663, -2.812972466766061 ], [ 115.414218591261687, -2.813062826766062 ], [ 115.414461231261697, -2.813129426765971 ], [ 115.414775511261695, -2.813200886766038 ], [ 115.41498971126164, -2.813267486765951 ], [ 115.415146671261681, -2.813343626766033 ], [ 115.41538463126173, -2.813372156765989 ], [ 115.415622591261666, -2.813438756766008 ], [ 115.415850831261736, -2.813438756766023 ], [ 115.41604595126168, -2.813400686766056 ], [ 115.416260151261653, -2.813300786766039 ], [ 115.416526551261626, -2.813091356766012 ], [ 115.416719871261833, -2.812635956765979 ], [ 115.416798351261818, -2.812379006766054 ], [ 115.416889071261807, -2.812224206766025 ], [ 115.417056180171613, -2.812137792133416 ] ] ] } },
{ "type": "Feature", "properties": { "source_object_id": 372, "road_name": "MA. Muning - Balimau - Kandangan", "road_status": "Jalan Nasional", "province": "Kalimantan Selatan", "regency": "Hulu Sungai Selatan", "source_length_km": 19.68, "geometry_length_m": 20115.39, "condition_data_included": false }, "geometry": { "type": "MultiLineString", "coordinates": [ [ [ 115.109459545871715, -2.835557900298107 ], [ 115.109822425871712, -2.835296180298113 ], [ 115.11018530587171, -2.835046340298108 ], [ 115.110494545871717, -2.834855900298107 ], [ 115.110777865871725, -2.834677790298105 ], [ 115.111004305871717, -2.834549450298098 ], [ 115.111416505871716, -2.834290790298112 ], [ 115.111886305871721, -2.83399937029811 ], [ 115.112326585871713, -2.833731620298097 ], [ 115.112671825871729, -2.833565120298102 ], [ 115.112996905871725, -2.833468460298104 ], [ 115.113320545871716, -2.833369820298107 ], [ 115.11380798587173, -2.833136810298109 ], [ 115.114277785871707, -2.83295240029811 ], [ 115.114676305871711, -2.832791750298113 ], [ 115.115146465871732, -2.832637130298102 ], [ 115.115538865871713, -2.832494300298107 ], [ 115.115903545871731, -2.832420500298105 ], [ 115.116145825871726, -2.832327800298109 ], [ 115.116475585871697, -2.832242480298109 ], [ 115.11709730587171, -2.832101720298112 ], [ 115.117424545871714, -2.831988680298109 ], [ 115.117852945871718, -2.831810210298099 ], [ 115.118263345871696, -2.831673410298096 ], [ 115.118608585871712, -2.831596100298107 ], [ 115.118858425871721, -2.831548490298103 ], [ 115.119250825871703, -2.831560370298106 ], [ 115.119643585871714, -2.83162580029811 ], [ 115.119988465871714, -2.831744780298108 ], [ 115.120315705871704, -2.831875730298098 ], [ 115.120595425871713, -2.831881580298105 ], [ 115.120987825871737, -2.831863760298099 ], [ 115.121368705871731, -2.831762600298099 ], [ 115.121571025871717, -2.831750720298106 ], [ 115.121904025871714, -2.831762600298097 ], [ 115.122183745871723, -2.831816150298112 ], [ 115.122510625871698, -2.832030350298111 ], [ 115.122933265871737, -2.832309890298099 ], [ 115.123287505871716, -2.832590420298098 ], [ 115.123799425871709, -2.832805160298101 ], [ 115.124322865871719, -2.832930260298112 ], [ 115.124795185871704, -2.832941060298102 ], [ 115.125277945871716, -2.832849350298102 ], [ 115.125666745871698, -2.83278203029811 ], [ 115.126038265871728, -2.832765830298107 ], [ 115.126252105871714, -2.832746210298109 ], [ 115.126559545871729, -2.8326767302981 ], [ 115.126699945871707, -2.832613190298111 ], [ 115.126881745871728, -2.832531110298113 ], [ 115.127048065871719, -2.832380090298107 ], [ 115.127293585871712, -2.832149330298109 ], [ 115.127590945871717, -2.831911370298098 ], [ 115.127882545871714, -2.831709140298103 ], [ 115.128215545871711, -2.831447330298111 ], [ 115.12851290587173, -2.831334380298108 ], [ 115.129005745871723, -2.831242580298097 ], [ 115.129320385871736, -2.831189660298103 ], [ 115.129725385871737, -2.831116580298113 ], [ 115.13018834587173, -2.831031620298108 ], [ 115.130757505871699, -2.830928750298104 ], [ 115.131530785871718, -2.830796180298104 ], [ 115.132091305871711, -2.830720580298105 ], [ 115.132664425871724, -2.830630130298109 ], [ 115.133280385871714, -2.830528250298108 ], [ 115.133858905871719, -2.830432400298103 ], [ 115.13409542587172, -2.830379570298104 ], [ 115.134723985871716, -2.830243310298109 ], [ 115.135160305871722, -2.83016555029811 ], [ 115.135877785871727, -2.830035860298112 ], [ 115.13652434587172, -2.8299252502981 ], [ 115.137093865871734, -2.829830480298099 ], [ 115.137495985871738, -2.829763610298103 ], [ 115.138096825871727, -2.82964490029811 ], [ 115.13854214587171, -2.829564260298113 ], [ 115.13888954587172, -2.829489470298101 ], [ 115.139368705871732, -2.829387140298097 ], [ 115.139663185871726, -2.829332060298097 ], [ 115.140048745871724, -2.829265010298101 ], [ 115.140753265871709, -2.829145400298112 ], [ 115.14112478587171, -2.829086630298103 ], [ 115.141540225871722, -2.829010850298103 ], [ 115.141900225871723, -2.828946410298108 ], [ 115.142376865871711, -2.828860010298103 ], [ 115.142813545871718, -2.828779370298098 ], [ 115.143134665871699, -2.8287300502981 ], [ 115.143435265871702, -2.828675060298111 ], [ 115.143747745871721, -2.828613770298102 ], [ 115.143957265871705, -2.828585060298112 ], [ 115.144182625871721, -2.828531060298113 ], [ 115.144442905871713, -2.828488760298099 ], [ 115.144864465871734, -2.828411090298099 ], [ 115.145325265871733, -2.828320730298099 ], [ 115.145900905871727, -2.828215700298107 ], [ 115.146215905871728, -2.8281508102981 ], [ 115.146544585871723, -2.82810068029811 ], [ 115.146979105871736, -2.828023640298098 ], [ 115.14717998587173, -2.827986290298099 ], [ 115.147342345871721, -2.827943180298103 ], [ 115.147511185871736, -2.827915190298111 ], [ 115.147751305871736, -2.827866230298104 ], [ 115.147982785871733, -2.827826720298111 ], [ 115.148378425871698, -2.827760120298098 ], [ 115.148705305871715, -2.827705310298104 ], [ 115.14909374587171, -2.827633040298103 ], [ 115.149329905871724, -2.827581740298108 ], [ 115.149560665871718, -2.82754133029811 ], [ 115.149948745871711, -2.827469870298102 ], [ 115.150260865871715, -2.827411010298102 ], [ 115.150776745871724, -2.827310030298098 ], [ 115.151093545871717, -2.827242620298108 ], [ 115.151452105871712, -2.827162970298111 ], [ 115.151834425871698, -2.827074680298105 ], [ 115.152254185871712, -2.826979280298104 ], [ 115.152484585871719, -2.82691511029811 ], [ 115.152705265871717, -2.826852830298097 ], [ 115.152989305871699, -2.826789290298113 ], [ 115.153252825871732, -2.82670982029811 ], [ 115.153409785871716, -2.826666710298101 ], [ 115.153590505871705, -2.826611090298112 ], [ 115.153800385871719, -2.826537830298097 ], [ 115.154237785871729, -2.826401120298111 ], [ 115.154708305871736, -2.8262663902981 ], [ 115.155376465871726, -2.8260485002981 ], [ 115.155641785871737, -2.825935910298109 ], [ 115.155835105871716, -2.825827370298103 ], [ 115.1559582258717, -2.825765360298097 ], [ 115.156162345871707, -2.825641250298098 ], [ 115.156440985871711, -2.825440190298103 ], [ 115.156680025871708, -2.825244800298102 ], [ 115.156924465871711, -2.825017820298097 ], [ 115.157139385871716, -2.824794980298096 ], [ 115.157456185871723, -2.824482860298109 ], [ 115.157659225871711, -2.824280810298101 ], [ 115.157774785871723, -2.824173080298097 ], [ 115.158000145871711, -2.823966080298097 ], [ 115.158186985871708, -2.823784280298103 ], [ 115.158471025871719, -2.823511310298103 ], [ 115.158755425871718, -2.8232809102981 ], [ 115.159016065871725, -2.823020450298106 ], [ 115.159183402827054, -2.822842577696695 ], [ 115.159277828324377, -2.822768031251448 ], [ 115.159486225871717, -2.822822540298105 ], [ 115.159779985871722, -2.822833520298102 ], [ 115.160075545871734, -2.822827040298105 ], [ 115.160475145871715, -2.822836040298111 ], [ 115.16091254587171, -2.82283388029811 ], [ 115.161245545871722, -2.8228434202981 ], [ 115.161598705871711, -2.822833520298104 ], [ 115.162136185871731, -2.822826320298106 ], [ 115.162365865871706, -2.822801210298103 ], [ 115.162521385871713, -2.822698700298099 ], [ 115.162606345871723, -2.822618600298112 ], [ 115.162755385871733, -2.822462270298107 ], [ 115.163021785871734, -2.822118110298113 ], [ 115.163259745871727, -2.821814540298112 ], [ 115.163502025871722, -2.821550750298105 ], [ 115.163922505871724, -2.821282550298108 ], [ 115.164254065871717, -2.821087790298113 ], [ 115.164585265871722, -2.820901490298102 ], [ 115.165028785871726, -2.820677030298101 ], [ 115.165455745871711, -2.82044402029811 ], [ 115.165680745871697, -2.820303800298098 ], [ 115.165836625871719, -2.820190490298096 ], [ 115.165990705871735, -2.820026510298101 ], [ 115.166201665871725, -2.819770910298098 ], [ 115.166477425871719, -2.819425940298106 ], [ 115.166733745871724, -2.819116880298109 ], [ 115.166962705871711, -2.818843010298102 ], [ 115.167156745871708, -2.818640690298107 ], [ 115.167369865871734, -2.818454300298101 ], [ 115.167721585871718, -2.818262240298103 ], [ 115.168062145871716, -2.818103390298097 ], [ 115.168291465871718, -2.817985580298109 ], [ 115.168642465871713, -2.817848780298112 ], [ 115.169124505871736, -2.817646460298106 ], [ 115.169683585871709, -2.81741453029811 ], [ 115.170100105871711, -2.817224090298104 ], [ 115.17034994587172, -2.817247940298109 ], [ 115.170611665871732, -2.817319310298097 ], [ 115.170902905871714, -2.817420470298102 ], [ 115.171296025871726, -2.817554840298104 ], [ 115.171767265871722, -2.817690650298109 ], [ 115.172360545871712, -2.817870560298107 ], [ 115.172794705871738, -2.818015280298102 ], [ 115.17318746587172, -2.818104560298111 ], [ 115.173574105871737, -2.818247300298101 ], [ 115.173740425871713, -2.818402010298111 ], [ 115.173900985871711, -2.81860424029811 ], [ 115.174038145871705, -2.8188362602981 ], [ 115.174216345871727, -2.819103920298101 ], [ 115.174341265871732, -2.819323970298113 ], [ 115.174521265871732, -2.819642120298099 ], [ 115.174669585871712, -2.819866670298108 ], [ 115.17488918587172, -2.820167180298101 ], [ 115.1751725058717, -2.8205023402981 ], [ 115.17536906587172, -2.820686750298101 ], [ 115.175689825871729, -2.820909950298108 ], [ 115.175969905871725, -2.821068800298103 ], [ 115.176194185871722, -2.821106420298103 ], [ 115.176392449711628, -2.821136706541346 ], [ 115.176506665871699, -2.8211085802981 ], [ 115.176905185871732, -2.82107294029811 ], [ 115.177226305871713, -2.821067000298099 ], [ 115.177595305871719, -2.821031270298108 ], [ 115.178106865871712, -2.820995540298109 ], [ 115.178547145871732, -2.820959900298108 ], [ 115.17895142587173, -2.820912290298103 ], [ 115.179397825871732, -2.820876560298111 ], [ 115.179804192022331, -2.820855293710559 ], [ 115.17985574587172, -2.820852800298109 ], [ 115.180289905871732, -2.820817160298104 ], [ 115.1807539458717, -2.820769550298113 ], [ 115.181396545871721, -2.820716000298112 ], [ 115.182193585871715, -2.820644630298105 ], [ 115.182339438155168, -2.820629118677621 ], [ 115.182574465871738, -2.820597020298099 ], [ 115.182901345871713, -2.820573260298109 ], [ 115.183276105871727, -2.820543470298109 ], [ 115.183609465871697, -2.820525650298104 ], [ 115.183912585871724, -2.820579200298103 ], [ 115.184210305871716, -2.820632750298103 ], [ 115.184549425871722, -2.820680270298108 ], [ 115.184928505871738, -2.82079340029811 ], [ 115.185121465871731, -2.820819140298104 ], [ 115.185422065871734, -2.820848570298113 ], [ 115.185731665871714, -2.820854420298099 ], [ 115.185982585871713, -2.820849560298103 ], [ 115.186286785871715, -2.820802670298098 ], [ 115.186596025871737, -2.820755600298112 ], [ 115.186794745871737, -2.8207279702981 ], [ 115.187094985871724, -2.820677030298102 ], [ 115.187493865871701, -2.820588830298108 ], [ 115.187899225871718, -2.820494780298113 ], [ 115.188157345871716, -2.820428630298105 ], [ 115.18833842587172, -2.82037094029811 ], [ 115.188677545871727, -2.820323420298113 ], [ 115.188985705871715, -2.820274370298097 ], [ 115.189264705871722, -2.820223700298097 ], [ 115.189494025871724, -2.820176990298112 ], [ 115.189804345871735, -2.8201137202981 ], [ 115.190023225871727, -2.820091040298099 ], [ 115.190277745871711, -2.820055670298113 ], [ 115.190545585871718, -2.820025970298107 ], [ 115.190962105871733, -2.820031280298107 ], [ 115.191237865871699, -2.820043610298102 ], [ 115.191435145871722, -2.820047120298102 ], [ 115.191720265871723, -2.820028310298109 ], [ 115.19204174587172, -2.820007160298112 ], [ 115.192297345871722, -2.819999600298108 ], [ 115.192718185871712, -2.819987180298106 ], [ 115.193081425871725, -2.819962970298105 ], [ 115.1934947058717, -2.819930300298099 ], [ 115.193640012259621, -2.819934023891419 ], [ 115.193814385871718, -2.819905100298108 ], [ 115.194233785871717, -2.8198719802981 ], [ 115.194447854304855, -2.819861105533395 ], [ 115.194967560205356, -2.819764430728491 ], [ 115.195363465871722, -2.81968955029811 ], [ 115.195737865871706, -2.819619080298106 ], [ 115.196224585871718, -2.81951432029811 ], [ 115.196722825871703, -2.819404340298109 ], [ 115.19709830587172, -2.819311460298108 ], [ 115.197389905871702, -2.819224970298105 ], [ 115.197641545871718, -2.81910626029811 ], [ 115.197907225871731, -2.818971170298105 ], [ 115.198177585871704, -2.818826990298108 ], [ 115.19855918587173, -2.818609190298103 ], [ 115.198940425871712, -2.818388960298107 ], [ 115.199383945871702, -2.818114100298111 ], [ 115.199698585871715, -2.817928160298107 ], [ 115.20002114587173, -2.817759320298097 ], [ 115.200182785871718, -2.817678050298108 ], [ 115.200323545871726, -2.817596600298098 ], [ 115.200651505871718, -2.817391040298113 ], [ 115.200943105871701, -2.81722589029811 ], [ 115.201260985871698, -2.817050930298111 ], [ 115.201642585871724, -2.816840690298101 ], [ 115.202011945871718, -2.816649080298109 ], [ 115.202270425871717, -2.816492480298098 ], [ 115.202657065871705, -2.816278280298097 ], [ 115.202942545871721, -2.816117720298098 ], [ 115.203400465871709, -2.815903520298101 ], [ 115.203962210044438, -2.815631451560069 ], [ 115.204364185871711, -2.815493030298098 ], [ 115.204935145871715, -2.815290800298111 ], [ 115.205513305871733, -2.815155710298111 ], [ 115.205817505871735, -2.815077050298104 ], [ 115.206233665871721, -2.814991550298102 ], [ 115.206485482308707, -2.814953763109972 ], [ 115.206663145871701, -2.814992810298097 ], [ 115.206887785871714, -2.815023140298109 ], [ 115.207147705871719, -2.8151116102981 ], [ 115.207427785871715, -2.81518973029811 ], [ 115.207671865871717, -2.81529584029811 ], [ 115.208062825871707, -2.815472150298096 ], [ 115.208394025871726, -2.815604180298104 ], [ 115.208617585871721, -2.815681130298109 ], [ 115.2090279858717, -2.815730990298109 ], [ 115.209331465871699, -2.815802360298096 ], [ 115.209914305871735, -2.815903520298101 ], [ 115.210550873363317, -2.816010395990073 ], [ 115.210932385871715, -2.816077220298099 ], [ 115.211305705871723, -2.8160910802981 ], [ 115.211704225871728, -2.816084960298111 ], [ 115.212171145871736, -2.816071640298099 ], [ 115.212671216059874, -2.816043030177836 ], [ 115.213086265871723, -2.815945460298105 ], [ 115.213360585871726, -2.815812620298101 ], [ 115.213586305871715, -2.815693640298112 ], [ 115.213971865871727, -2.815489070298098 ], [ 115.214360305871722, -2.815228070298102 ], [ 115.214631385871712, -2.815004240298099 ], [ 115.21471706587171, -2.814907130298105 ], [ 115.214856385871713, -2.8146644002981 ], [ 115.215030985871721, -2.8143532702981 ], [ 115.215172105871716, -2.8140155002981 ], [ 115.215323305871721, -2.813653070298101 ], [ 115.215408625871703, -2.813346350298106 ], [ 115.215518425871707, -2.812960790298098 ], [ 115.215587545871713, -2.812682510298103 ], [ 115.215658105871725, -2.812453280298098 ], [ 115.215729745871712, -2.812288130298103 ], [ 115.215814312730984, -2.812115574047822 ], [ 115.216015585871716, -2.811756410298109 ], [ 115.216199905871704, -2.811485600298098 ], [ 115.216349305871731, -2.811319370298105 ], [ 115.216567975194366, -2.811115340576005 ], [ 115.216762225871719, -2.810867210298098 ], [ 115.216980745871723, -2.810627000298103 ], [ 115.217130839596877, -2.810476720176545 ], [ 115.217312665871702, -2.810317040298113 ], [ 115.217419225871723, -2.810217590298106 ], [ 115.217710748818845, -2.809985334858299 ], [ 115.218115105871718, -2.809621970298106 ], [ 115.218525865871712, -2.809251530298106 ], [ 115.21870802587172, -2.809008800298103 ], [ 115.218851305871723, -2.808771200298102 ], [ 115.219024825871728, -2.808356120298106 ], [ 115.219132465871738, -2.808081350298098 ], [ 115.219293025871707, -2.80771964029811 ], [ 115.219416145871733, -2.807557820298104 ], [ 115.219504924168717, -2.807484180467031 ], [ 115.219561225871729, -2.807433800298097 ], [ 115.21990862587171, -2.807288180298106 ], [ 115.220088265871723, -2.807216630298102 ], [ 115.220395705871709, -2.807093600298101 ], [ 115.220681545871713, -2.8070102602981 ], [ 115.220996545871714, -2.806903250298104 ], [ 115.221335665871706, -2.806724780298111 ], [ 115.221561745871725, -2.806564130298113 ], [ 115.221829585871717, -2.806344080298096 ], [ 115.22200778587171, -2.806153730298109 ], [ 115.222275625871703, -2.805891110298101 ], [ 115.222517185871723, -2.805630560298101 ], [ 115.222712305871724, -2.805427250298112 ], [ 115.222879705871719, -2.805159140298107 ], [ 115.223011825871708, -2.804903630298099 ], [ 115.223103985871717, -2.804672510298097 ], [ 115.223197585871716, -2.804465510298105 ], [ 115.223375065871721, -2.804116490298103 ], [ 115.223520145871717, -2.803906160298109 ], [ 115.223745505871733, -2.803620230298109 ], [ 115.223901025871712, -2.803409900298107 ], [ 115.224157345871717, -2.803130810298101 ], [ 115.22433554587171, -2.802897440298098 ], [ 115.224491065871717, -2.802722120298113 ], [ 115.224541105871737, -2.8026464302981 ], [ 115.224675871686173, -2.802486273076939 ], [ 115.224964465871722, -2.802108590298108 ], [ 115.225279825871723, -2.801733830298112 ], [ 115.225582945871722, -2.801489930298112 ], [ 115.225934665871733, -2.8012436002981 ], [ 115.226301505871717, -2.800939400298113 ], [ 115.226454425625619, -2.800814569042334 ], [ 115.226588785871712, -2.800741940298102 ], [ 115.226708335170997, -2.800657833614822 ], [ 115.227022945871738, -2.8003973302981 ], [ 115.227245785871716, -2.800186910298112 ], [ 115.227398425871712, -2.799971180298106 ], [ 115.227498145871721, -2.79978200029811 ], [ 115.227531985871721, -2.79967454029811 ], [ 115.227608665871713, -2.799382040298112 ], [ 115.227632065871717, -2.799170360298101 ], [ 115.227675265871724, -2.798775710298104 ], [ 115.227688945871719, -2.798420480298108 ], [ 115.227718465871718, -2.798170640298096 ], [ 115.22773034587172, -2.797974260298097 ], [ 115.227756625871734, -2.797712270298112 ], [ 115.227795755329637, -2.79753252203672 ], [ 115.227765265871696, -2.79732212029811 ], [ 115.227742585871724, -2.79690947029811 ], [ 115.22773034587172, -2.7965584702981 ], [ 115.227724585871727, -2.796255170298099 ], [ 115.227748345871717, -2.795933870298109 ], [ 115.227774985871704, -2.795556410298107 ], [ 115.227796882860446, -2.795408709321385 ], [ 115.227809545871722, -2.79534194029811 ], [ 115.227862465871723, -2.795156990298102 ], [ 115.227943465871718, -2.794969700298113 ], [ 115.22809394587172, -2.794734620298103 ], [ 115.22829158587173, -2.794423400298102 ], [ 115.228484905871738, -2.794196870298107 ], [ 115.228736545871698, -2.793999410298101 ], [ 115.2289471458717, -2.793869630298107 ], [ 115.229385985871716, -2.793668210298107 ], [ 115.229836705871719, -2.793463280298097 ], [ 115.230062065871735, -2.793290660298112 ], [ 115.230231265871737, -2.793077900298099 ], [ 115.230480385871715, -2.792751290298103 ], [ 115.230705385871715, -2.792417390298104 ], [ 115.231002385871719, -2.792013740298113 ], [ 115.231196785871703, -2.791661840298099 ], [ 115.231426052303178, -2.791290639442022 ], [ 115.231575865871719, -2.790930680298098 ], [ 115.231782505871735, -2.790563840298112 ], [ 115.232000059931579, -2.790085471910584 ], [ 115.232094985871711, -2.789908550298101 ], [ 115.23227462587171, -2.789627300298098 ], [ 115.232471545871718, -2.78932436029811 ], [ 115.23252935730207, -2.789211134078275 ], [ 115.232679625871697, -2.789052560298113 ], [ 115.232888065871734, -2.788801910298104 ], [ 115.233036025871698, -2.788633430298104 ], [ 115.233316825871725, -2.788306640298098 ], [ 115.233581065871718, -2.788015220298109 ], [ 115.233845665871712, -2.7876771802981 ], [ 115.234069225871707, -2.787529760298106 ], [ 115.234329865871715, -2.787418790298103 ], [ 115.234623985871721, -2.787345350298098 ], [ 115.235041585871727, -2.787219170298107 ], [ 115.235565745871696, -2.787119810298107 ], [ 115.235838625871722, -2.786951420298099 ], [ 115.236129505871716, -2.786864930298098 ], [ 115.236574105871711, -2.7866807902981 ], [ 115.236788737207931, -2.78658489508599 ], [ 115.236854905871724, -2.786549570298103 ], [ 115.237079905871724, -2.786438330298096 ], [ 115.237503985871712, -2.786225660298103 ], [ 115.237849225871727, -2.786076980298103 ], [ 115.238229745871735, -2.785874750298111 ], [ 115.238372665871722, -2.785868810298103 ], [ 115.238570305871733, -2.78571086029811 ], [ 115.238800705871711, -2.785540400298097 ], [ 115.239149185871725, -2.785275080298109 ], [ 115.239363745871714, -2.7850808602981 ], [ 115.239705025871714, -2.784887270298111 ], [ 115.239954865871709, -2.78483372029811 ], [ 115.240151425871716, -2.784875390298101 ], [ 115.240332923347182, -2.784888232512452 ], [ 115.240752265871734, -2.785041890298099 ], [ 115.241085265871718, -2.785184720298103 ], [ 115.241431585871723, -2.785314770298103 ], [ 115.241731465871723, -2.785519880298113 ], [ 115.24191794587172, -2.785684400298106 ], [ 115.242197665871714, -2.785910390298102 ], [ 115.242388105871711, -2.786047280298108 ], [ 115.242593305871736, -2.786202800298109 ], [ 115.243011625871716, -2.786407820298109 ], [ 115.243247785871731, -2.786499530298105 ], [ 115.24371470587171, -2.786653970298109 ], [ 115.244267665871732, -2.786832440298097 ], [ 115.244829265871715, -2.787047180298098 ], [ 115.245269905871723, -2.787195320298105 ], [ 115.24567778587172, -2.78742185029811 ], [ 115.246002411091709, -2.787627130500258 ], [ 115.246106185871724, -2.787726680298104 ], [ 115.246492465871725, -2.787998390298108 ], [ 115.247042905871737, -2.788473680298103 ], [ 115.247533585871736, -2.788813340298109 ], [ 115.247990583046615, -2.789035298863206 ], [ 115.248480745871731, -2.789315180298106 ], [ 115.248626905871717, -2.789352530298105 ], [ 115.248854425871727, -2.789338760298099 ], [ 115.24913378587172, -2.789300870298101 ], [ 115.249821745871714, -2.789197010298099 ], [ 115.250458570882884, -2.789081052762009 ], [ 115.250900665871725, -2.788950230298102 ], [ 115.251447865871711, -2.788783640298106 ], [ 115.25198894587173, -2.788736030298106 ], [ 115.252560265871722, -2.788658720298098 ], [ 115.252982545871717, -2.788646840298108 ], [ 115.253369185871719, -2.788747910298101 ], [ 115.253702905871734, -2.788813250298109 ], [ 115.254465791879724, -2.788903206085064 ], [ 115.254743629000018, -2.789009774999958 ], [ 115.255544305871723, -2.789133830298107 ], [ 115.256159185871724, -2.789265500298109 ], [ 115.256379145871733, -2.789295200298102 ], [ 115.256611345871718, -2.789283320298105 ], [ 115.256855065871719, -2.7892714402981 ], [ 115.257204985871724, -2.789220230298109 ], [ 115.257652825871716, -2.789121410298107 ], [ 115.258151785871732, -2.789049230298098 ], [ 115.258579465871733, -2.788987220298102 ], [ 115.259004265871738, -2.788984610298106 ], [ 115.259294785871717, -2.788955990298112 ], [ 115.259594665871717, -2.788893170298104 ], [ 115.259841985871716, -2.78885132029811 ], [ 115.260339505871727, -2.788767170298107 ], [ 115.260650905871728, -2.788960760298108 ], [ 115.260992185871729, -2.789157770298097 ], [ 115.26133094587172, -2.789353700298104 ], [ 115.261645585871733, -2.789546120298098 ], [ 115.262156065871707, -2.789785340298098 ], [ 115.26229178587171, -2.78980667029811 ], [ 115.262584105871724, -2.789861750298102 ], [ 115.262959225871725, -2.789945900298099 ], [ 115.263487345871738, -2.790060110298099 ], [ 115.263654732506609, -2.790084889516494 ] ] ] } },
{ "type": "Feature", "properties": { "source_object_id": 377, "road_name": "Jemb. Manggaris (Bts Kab. HSS) - SP.3 Hamalau", "road_status": "Jalan Nasional", "province": "Kalimantan Selatan", "regency": "Hulu Sungai Selatan", "source_length_km": 7.6, "geometry_length_m": 7591.07, "condition_data_included": false }, "geometry": { "type": "MultiLineString", "coordinates": [ [ [ 115.231544634495634, -2.872917228440241 ], [ 115.232829474495631, -2.871199308440234 ], [ 115.233350553998022, -2.870354652563519 ], [ 115.233962469219165, -2.869415145810672 ], [ 115.234433274495615, -2.868653208440235 ], [ 115.234823514495631, -2.867939418440239 ], [ 115.235337234495617, -2.86705426844023 ], [ 115.23580379449561, -2.866377108440238 ], [ 115.236266368524085, -2.865559438003883 ], [ 115.237134480419627, -2.864176167255312 ], [ 115.23851171449563, -2.861357808440236 ], [ 115.239242014130141, -2.85997715169585 ], [ 115.239811211135958, -2.858973839356247 ], [ 115.241393292572297, -2.855916963750646 ], [ 115.241961954495636, -2.854780968440241 ], [ 115.242285779949398, -2.854161503836452 ], [ 115.243256154495626, -2.852173128440237 ], [ 115.24343980729121, -2.8517886388327 ], [ 115.243874994495641, -2.850888198440228 ], [ 115.244569794495618, -2.849489058440237 ], [ 115.244738572026108, -2.849148866377236 ], [ 115.245197994495626, -2.848227978440232 ], [ 115.246858674495627, -2.84478250844024 ], [ 115.247762994495616, -2.84284561844023 ], [ 115.248914634495634, -2.840294838440227 ], [ 115.249117761537249, -2.83964253802093 ], [ 115.249361754495638, -2.838848358440235 ], [ 115.249492150351145, -2.838394299210011 ], [ 115.249989954495618, -2.83667827844023 ], [ 115.250700631057953, -2.834193192873594 ], [ 115.251060110582827, -2.832977257522267 ], [ 115.251450236979608, -2.831613471721232 ], [ 115.252255434495623, -2.828873388440234 ], [ 115.252357218730069, -2.828580052620163 ], [ 115.252605706880843, -2.82778489053756 ], [ 115.252712274495622, -2.827412418440236 ], [ 115.254014634695949, -2.823081009842655 ], [ 115.254834834495625, -2.820340668440233 ], [ 115.254996474495627, -2.819636328440226 ], [ 115.255124994495617, -2.819227098440227 ], [ 115.255215354495604, -2.819046468440241 ], [ 115.255529634495602, -2.817965928440231 ], [ 115.255762554495632, -2.817280668440236 ], [ 115.25600555449563, -2.816471658440229 ], [ 115.256171874495621, -2.815872078440234 ], [ 115.256371674495639, -2.81522479844023 ], [ 115.256536631642462, -2.814710428380342 ], [ 115.257338994495626, -2.812200618440242 ], [ 115.257334314495637, -2.812110168440236 ], [ 115.257288954495621, -2.811965088440233 ], [ 115.257247914495636, -2.811821988440238 ], [ 115.257247914495636, -2.81168995844024 ], [ 115.257287154495614, -2.811593568440235 ], [ 115.257343314495628, -2.811534978440233 ], [ 115.257420354495622, -2.811484308440232 ], [ 115.257497754495617, -2.81141302844023 ], [ 115.257610794495605, -2.811279198440231 ], [ 115.257647514495631, -2.811422298440239 ], [ 115.257697554495621, -2.811529308440231 ], [ 115.257745794495634, -2.811636678440226 ], [ 115.257752994495632, -2.811767538440239 ], [ 115.257745794495634, -2.811843678440233 ], [ 115.257700794495634, -2.811934128440228 ], [ 115.257629154495618, -2.812007838440223 ], [ 115.257522234495639, -2.81207452844024 ], [ 115.257415314495631, -2.812141128440238 ], [ 115.257338994495626, -2.812200618440242 ] ] ] } },
{ "type": "Feature", "properties": { "source_object_id": 384, "road_name": "Lumpangi - Bts Kab. Tanah Bumbu", "road_status": "Jalan Nasional", "province": "Kalimantan Selatan", "regency": "Hulu Sungai Selatan", "source_length_km": 60.15, "geometry_length_m": 11474.6, "condition_data_included": false }, "geometry": { "type": "MultiLineString", "coordinates": [ [ [ 115.417056180171613, -2.812137792133416 ], [ 115.417168061559764, -2.812210741376099 ], [ 115.417168061559764, -2.812210741376099 ], [ 115.417343381559746, -2.812278961376093 ], [ 115.417428341559742, -2.812346371376099 ], [ 115.417585301559754, -2.812422511376098 ], [ 115.417751981559746, -2.812489111376097 ], [ 115.417893101559756, -2.812524211376095 ], [ 115.418051141559744, -2.812595401376093 ], [ 115.41809902155974, -2.812616821376086 ], [ 115.418146901559737, -2.812674691376087 ], [ 115.418156261559744, -2.81279043137609 ], [ 115.418155901559757, -2.812944601376095 ], [ 115.418155901559757, -2.813156731376096 ], [ 115.418334821559739, -2.8136642413761 ], [ 115.418462261559725, -2.813942611376099 ], [ 115.418692301559759, -2.814289921376086 ], [ 115.418979581559753, -2.814704821376097 ], [ 115.419199901559764, -2.8152884713761 ], [ 115.419324101559738, -2.815732081376088 ], [ 115.419548480507729, -2.81598201429949 ], [ 115.419930680630614, -2.816058454324071 ], [ 115.420139501559746, -2.816166961376094 ], [ 115.420235261559739, -2.816330941376094 ], [ 115.420235261559739, -2.816485201376087 ], [ 115.420215821559751, -2.816600851376098 ], [ 115.420138781559743, -2.816822431376102 ], [ 115.42008082155975, -2.81702475137609 ], [ 115.41978094155975, -2.81792610137609 ], [ 115.419520661559758, -2.818851121376087 ], [ 115.419404741559745, -2.819371501376096 ], [ 115.419327701559737, -2.81952558137609 ], [ 115.419231581559757, -2.819641141376093 ], [ 115.418991461559756, -2.8197276313761 ], [ 115.418203781559754, -2.819967481376092 ], [ 115.417752341559748, -2.820169261376097 ], [ 115.417289741559742, -2.82048327137609 ], [ 115.416943781559738, -2.820781621376096 ], [ 115.41670330155975, -2.8209065413761 ], [ 115.416453821559728, -2.8210411813761 ], [ 115.416261581559738, -2.821233691376088 ], [ 115.41598258155976, -2.821561021376092 ], [ 115.415505941559744, -2.822461201376098 ], [ 115.414528541559747, -2.824369651376086 ], [ 115.41435538155973, -2.824754941376089 ], [ 115.414162781559753, -2.825140231376098 ], [ 115.413970181559748, -2.82551598137609 ], [ 115.413353141559739, -2.826457111376092 ], [ 115.412458901559745, -2.827448731376089 ], [ 115.412295461559737, -2.827728091376094 ], [ 115.412227781559764, -2.828046061376087 ], [ 115.412131301559739, -2.828325511376089 ], [ 115.411841861559751, -2.8288503913761 ], [ 115.411197461559752, -2.829803761376088 ], [ 115.410638741559765, -2.8310850013761 ], [ 115.410503741559765, -2.831518621376089 ], [ 115.410175061559741, -2.832152851376098 ], [ 115.409847821559751, -2.832807871376084 ], [ 115.409799221559751, -2.833154821376088 ], [ 115.409818301559753, -2.833357231376101 ], [ 115.40997130155975, -2.833714081376096 ], [ 115.41038350155975, -2.834312311376097 ], [ 115.410874901559737, -2.835013411376095 ], [ 115.410980021559737, -2.83540878137609 ], [ 115.41098938155973, -2.835591931376099 ], [ 115.411066061559751, -2.835678781376086 ], [ 115.411286741559749, -2.835794701376096 ], [ 115.411497701559739, -2.835910711376099 ], [ 115.411679861559733, -2.836026631376095 ], [ 115.411862021559742, -2.836181071376086 ], [ 115.412034461559756, -2.836345231376086 ], [ 115.412149661559752, -2.8365574513761 ], [ 115.412254781559739, -2.836866061376086 ], [ 115.412234621559747, -2.837516941376099 ], [ 115.41230158155976, -2.837806201376087 ], [ 115.41244522155975, -2.837931751376094 ], [ 115.41259894155975, -2.837931931376085 ], [ 115.412906021559749, -2.837932381376093 ], [ 115.413242261559745, -2.837913571376089 ], [ 115.413424421559753, -2.837923471376091 ], [ 115.41366454155974, -2.837971981376093 ], [ 115.413770021559756, -2.838039571376091 ], [ 115.413846701559748, -2.838174661376094 ], [ 115.413989981559752, -2.838599011376084 ], [ 115.41439174155974, -2.839935511376102 ], [ 115.414412981559749, -2.8400281213761 ], [ 115.414477421559738, -2.84031153137609 ], [ 115.414582541559739, -2.840677921376098 ], [ 115.414649501559737, -2.840822641376097 ], [ 115.414831661559745, -2.8412181013761 ], [ 115.414888541559748, -2.841516991376086 ], [ 115.414916981559756, -2.841796531376093 ], [ 115.414878461559752, -2.842027831376093 ], [ 115.414801421559744, -2.842210891376099 ], [ 115.414714661559742, -2.842345711376088 ], [ 115.41457066155975, -2.842451551376092 ], [ 115.414320821559741, -2.842480171376092 ], [ 115.414109861559737, -2.842508791376095 ], [ 115.413994301559754, -2.8425567613761 ], [ 115.413860021559756, -2.842710841376101 ], [ 115.41377326155974, -2.842903531376096 ], [ 115.413732581559742, -2.843153731376098 ], [ 115.413695501559729, -2.843382781376099 ], [ 115.413740861559745, -2.845281781376098 ], [ 115.413788741559742, -2.845503541376092 ], [ 115.413941741559739, -2.845744741376099 ], [ 115.414104821559761, -2.84596668137609 ], [ 115.414200581559726, -2.846034271376089 ], [ 115.414325501559759, -2.846101951376092 ], [ 115.414527101559756, -2.846150371376088 ], [ 115.414747781559754, -2.8461507313761 ], [ 115.41486298155975, -2.846150821376093 ], [ 115.415045141559744, -2.846218591376096 ], [ 115.415150981559734, -2.846257291376092 ], [ 115.415325941559743, -2.846418031376098 ], [ 115.416581981559744, -2.847634291376094 ], [ 115.417166621559758, -2.848232701376089 ], [ 115.417521941559741, -2.84887494137609 ], [ 115.41779914155974, -2.849733181376096 ], [ 115.417856381559744, -2.849983921376088 ], [ 115.417885181559726, -2.850109291376092 ], [ 115.417903901559754, -2.8504274413761 ], [ 115.417777181559728, -2.851348321376096 ], [ 115.417516181559748, -2.852687791376094 ], [ 115.417429781559747, -2.85282261137609 ], [ 115.417304861559742, -2.852967061376091 ], [ 115.417055021559733, -2.853120961376095 ], [ 115.416737861559739, -2.853236161376102 ], [ 115.41609454155973, -2.853341281376096 ], [ 115.415612861559751, -2.853510301376087 ], [ 115.414604141559749, -2.854039051376094 ], [ 115.414094741559765, -2.854337131376099 ], [ 115.413806381559723, -2.854558441376089 ], [ 115.413623861559742, -2.85476067137609 ], [ 115.412468621559725, -2.856558151376091 ], [ 115.412304821559744, -2.856991681376099 ], [ 115.412275661559761, -2.857242241376087 ], [ 115.412284661559738, -2.857512151376095 ], [ 115.41235162155975, -2.857647241376093 ], [ 115.412447741559731, -2.857801591376093 ], [ 115.412665300580286, -2.858042329180204 ], [ 115.412775992058485, -2.858133024494384 ], [ 115.413010540580288, -2.858274169180202 ], [ 115.41345466155974, -2.8584873913761 ], [ 115.414212821559758, -2.858700511376097 ], [ 115.41480790155974, -2.858826601376097 ], [ 115.415249261559751, -2.85900075137609 ], [ 115.415441141559725, -2.859155191376097 ], [ 115.415555981559763, -2.859300001376087 ], [ 115.415632301559739, -2.859691951376096 ], [ 115.415640941559744, -2.860318531376093 ], [ 115.415638851653739, -2.860483722401077 ], [ 115.415537694735079, -2.861076352387063 ], [ 115.415437901559741, -2.861320771376088 ], [ 115.415274461559747, -2.861590411376099 ], [ 115.415044061559726, -2.861734681376098 ], [ 115.414755701559756, -2.8618596013761 ], [ 115.414429181559754, -2.861936281376094 ], [ 115.414285181559748, -2.861974621376091 ], [ 115.414179341559745, -2.862032311376089 ], [ 115.414006541559743, -2.862186301376087 ], [ 115.413736181559742, -2.862867331376096 ], [ 115.413552581559742, -2.863734571376089 ], [ 115.412992781559737, -2.865320641376102 ], [ 115.412606861559738, -2.866737061376099 ], [ 115.412500661559761, -2.867055031376093 ], [ 115.412394821559744, -2.867170591376085 ], [ 115.412135621559742, -2.867334031376096 ], [ 115.412020061559758, -2.86743033137609 ], [ 115.411904861559734, -2.867584411376098 ], [ 115.411605701559765, -2.868159331376095 ], [ 115.411576181559738, -2.868372361376101 ], [ 115.411566821559745, -2.868438781376094 ], [ 115.411576181559738, -2.868612301376091 ], [ 115.411607501559743, -2.868683851376086 ], [ 115.411233821559748, -2.869051051376101 ], [ 115.41102934155974, -2.869185061376088 ], [ 115.410888581559732, -2.869199011376098 ], [ 115.410677261559741, -2.869184611376088 ], [ 115.410479981559746, -2.869191361376094 ], [ 115.410233381559749, -2.869275871376087 ], [ 115.41000118155975, -2.869395751376089 ], [ 115.409838821559759, -2.869579351376099 ], [ 115.409732261559739, -2.870120701376101 ], [ 115.409674661559762, -2.870898301376095 ], [ 115.409624981559745, -2.871223471376086 ], [ 115.409285141559735, -2.872518031376097 ], [ 115.409122061559742, -2.873202481376102 ], [ 115.409085341559759, -2.873398141376089 ], [ 115.408847021559751, -2.874673711376102 ], [ 115.408750181559739, -2.875191751376088 ], [ 115.408703381559761, -2.875441321376091 ], [ 115.408638581559742, -2.876360311376088 ], [ 115.408553981559763, -2.876628871376097 ], [ 115.408433741559747, -2.876897341376092 ], [ 115.408370381559763, -2.877024511376085 ], [ 115.408229261559754, -2.877201091376098 ], [ 115.407583061559748, -2.877742711376095 ], [ 115.406956301559759, -2.878180741376092 ], [ 115.406558861559745, -2.8784240113761 ], [ 115.406103461559738, -2.8787027413761 ], [ 115.405666421559729, -2.878914151376092 ], [ 115.405243781559747, -2.879055001376086 ], [ 115.404827981559762, -2.879238241376093 ], [ 115.404522701559742, -2.879437861376092 ], [ 115.403474381559747, -2.880123211376101 ], [ 115.402332461559737, -2.880962911376085 ], [ 115.402142021559754, -2.881118161376099 ], [ 115.402057421559732, -2.881238221376093 ], [ 115.401625781559744, -2.882148211376087 ], [ 115.401307901559747, -2.882932561376092 ], [ 115.40115238155974, -2.8834201813761 ], [ 115.401152021559724, -2.88367470137609 ], [ 115.401180101559746, -2.883837331376085 ], [ 115.40121502155975, -2.88396468137609 ], [ 115.401292061559758, -2.884155661376095 ], [ 115.401278021559747, -2.884297051376092 ], [ 115.401107021559724, -2.885130451376099 ], [ 115.401028541559754, -2.8857384013761 ], [ 115.400964821559739, -2.886006961376096 ], [ 115.400498261559747, -2.887191271376096 ], [ 115.400257421559743, -2.887982731376094 ], [ 115.400186861559746, -2.888152291376085 ], [ 115.400010461559745, -2.888350021376091 ], [ 115.399911821559741, -2.888448841376087 ], [ 115.399798781559753, -2.888639641376091 ], [ 115.399628501559761, -2.889252451376087 ], [ 115.399465781559726, -2.889789571376091 ], [ 115.399330781559726, -2.890552861376085 ], [ 115.399231061559746, -2.891384371376096 ], [ 115.399230341559743, -2.891773261376099 ], [ 115.39918066155974, -2.892126691376098 ], [ 115.399088501559731, -2.892487051376087 ], [ 115.398755501559748, -2.893431601376094 ], [ 115.398705821559759, -2.893559671376099 ] ] ] } },
{ "type": "Feature", "properties": { "source_object_id": 380, "road_name": "Jl. Bts Kota Kandangan - Ds. Bagambir (Bts HST)", "road_status": "Jalan Nasional", "province": "Kalimantan Selatan", "regency": "Hulu Sungai Selatan", "source_length_km": 9.51, "geometry_length_m": 9194.41, "condition_data_included": false }, "geometry": { "type": "MultiLineString", "coordinates": [ [ [ 115.282034432339756, -2.733063806766047 ], [ 115.281609272339779, -2.733153896765951 ], [ 115.281323432339718, -2.733244256766011 ], [ 115.281004832339818, -2.733320396765992 ], [ 115.280515952339684, -2.733410846766009 ] ], [ [ 115.310676392339587, -2.700436286765987 ], [ 115.310709872339672, -2.700793226766003 ], [ 115.310681072339776, -2.701074026765983 ], [ 115.31061447233958, -2.701611776765977 ], [ 115.310581352339696, -2.702049626766046 ], [ 115.310595752339609, -2.702644436765987 ], [ 115.310500352339787, -2.703225026765957 ], [ 115.310409992339586, -2.703596276765966 ], [ 115.310253032339688, -2.704053116765925 ], [ 115.310062592339833, -2.704314836766021 ], [ 115.309796192339604, -2.704600406765912 ], [ 115.309520072339637, -2.704981106765965 ], [ 115.309286792339662, -2.705185766766041 ], [ 115.308932664331422, -2.7056521934117 ], [ 115.308644192339685, -2.705999276766032 ], [ 115.308473192339761, -2.706239846765939 ], [ 115.308230552339765, -2.70649922676599 ], [ 115.307968832339725, -2.706746636766026 ], [ 115.307716472339621, -2.706951296765914 ], [ 115.307411912339845, -2.707160636766005 ], [ 115.30712175233964, -2.707327226765935 ], [ 115.306816832339791, -2.707465286765978 ], [ 115.306560152339671, -2.707593716766049 ], [ 115.30604139233958, -2.707788836765947 ], [ 115.305684272339718, -2.707931666766013 ], [ 115.30547007233973, -2.708017256765976 ], [ 115.304965712339595, -2.708102936765964 ], [ 115.304366312339766, -2.708145776765961 ], [ 115.304113592339618, -2.708128406766046 ], [ 115.303704632339659, -2.708155316765964 ], [ 115.303423832339718, -2.70820283676597 ], [ 115.303081112339783, -2.708288516765952 ], [ 115.302833792339584, -2.708350436766022 ], [ 115.30228734100028, -2.708500188773795 ], [ 115.302103352339714, -2.708552666765979 ], [ 115.301877272339652, -2.708759666765967 ], [ 115.301696552339649, -2.708964326766025 ], [ 115.301534552339717, -2.709178436765973 ], [ 115.301315672339911, -2.709511616766012 ], [ 115.301196872339688, -2.709749486766056 ], [ 115.301070080491229, -2.710185091355063 ], [ 115.301028058517133, -2.710494857990917 ], [ 115.300925432339795, -2.712010016766062 ], [ 115.300839752339584, -2.712619136765918 ], [ 115.300749392339654, -2.713399616765914 ], [ 115.300697192339726, -2.714494196765902 ], [ 115.300563632339731, -2.715012866765917 ], [ 115.30043691233972, -2.715550526765988 ], [ 115.300320992339721, -2.716140746766038 ], [ 115.300164032339694, -2.716611896766055 ], [ 115.299983312339791, -2.716868846765986 ], [ 115.299788192339648, -2.717049746766019 ], [ 115.299545192339806, -2.717230556765982 ], [ 115.299316952339623, -2.717458976765973 ], [ 115.299074312339613, -2.717775416766032 ], [ 115.298826632339683, -2.71827752676604 ], [ 115.298655272339701, -2.718739136766048 ], [ 115.29821264687692, -2.719452477770128 ], [ 115.298133866929874, -2.719557947185254 ], [ 115.297522712339628, -2.72054750676598 ], [ 115.297146872339809, -2.721032966766022 ], [ 115.296861392339792, -2.72129945676603 ], [ 115.296604352339614, -2.721508796766055 ], [ 115.296309152339759, -2.721808676766053 ], [ 115.295752592339682, -2.722341656765999 ], [ 115.295471792339768, -2.722669976765995 ], [ 115.29526695233983, -2.723026916765954 ], [ 115.294986152339689, -2.723545676765994 ], [ 115.294767272339755, -2.724054806766002 ], [ 115.294529312339705, -2.724659246766013 ], [ 115.294367672339718, -2.725120856766028 ], [ 115.294358312339796, -2.725368356765961 ], [ 115.294315472339818, -2.725682366766031 ], [ 115.29422979233982, -2.72620112676595 ], [ 115.294172552339674, -2.726610356766017 ], [ 115.294082192339701, -2.726881616766048 ], [ 115.29396807233968, -2.727133886765968 ], [ 115.293713912339626, -2.727533576766019 ], [ 115.293606272339616, -2.727714476766055 ], [ 115.29324447233968, -2.728247456765995 ], [ 115.292944592339722, -2.728732826766032 ], [ 115.292559392339641, -2.729313416766005 ], [ 115.29190347233974, -2.730085616766037 ], [ 115.291650392339761, -2.73032708676603 ], [ 115.29133611233965, -2.730707786766018 ], [ 115.291098152339714, -2.731083806765938 ], [ 115.29090303233977, -2.731464506765992 ], [ 115.290779552339586, -2.731878506765963 ], [ 115.290691976962194, -2.732460461508448 ], [ 115.290691976962194, -2.732460461508448 ], [ 115.290617552339754, -2.732844566765964 ], [ 115.290579392339623, -2.733158666765933 ], [ 115.290531872339784, -2.73338708676597 ], [ 115.290374912339757, -2.733567896766047 ], [ 115.290079712339661, -2.733777326766035 ], [ 115.289794232339645, -2.73392960676604 ], [ 115.289446832339664, -2.734058126766008 ], [ 115.289080352339738, -2.73416756676591 ], [ 115.288714232339657, -2.734224626765992 ], [ 115.288276112339645, -2.734229396765969 ], [ 115.287840872339657, -2.734176026765974 ], [ 115.28667735233968, -2.733843926766051 ], [ 115.285811192339807, -2.73361550676596 ], [ 115.285149512339785, -2.733467996766031 ], [ 115.284902192339686, -2.733482306765969 ], [ 115.284664232339779, -2.733472766765959 ], [ 115.284464432339746, -2.733401396766014 ], [ 115.284107312339643, -2.733358556766025 ], [ 115.283555432339654, -2.733291956766056 ], [ 115.281523232339751, -2.732973086765933 ], [ 115.280990410347968, -2.732940802053115 ], [ 115.280823752339757, -2.733272876766037 ], [ 115.28043819233983, -2.733444236765999 ], [ 115.280181152339878, -2.73359651676601 ], [ 115.279786232339703, -2.73388199676601 ], [ 115.279519832339702, -2.734115186766031 ], [ 115.279196192339782, -2.734467356766013 ], [ 115.278900992339686, -2.73482429676597 ], [ 115.278625232339792, -2.735152616765975 ], [ 115.278439472339642, -2.735519096765991 ], [ 115.278363512339652, -2.735752286766018 ], [ 115.278296912339783, -2.73605207676606 ], [ 115.278220592339821, -2.736718346766016 ], [ 115.278099095623645, -2.737348042195846 ], [ 115.277825672339645, -2.738455346766064 ], [ 115.277692472339709, -2.739021626765991 ], [ 115.277587712339709, -2.739445166766032 ], [ 115.277544872339732, -2.739825956766036 ], [ 115.277559272339673, -2.740097216766014 ], [ 115.277654312339678, -2.740420766766026 ], [ 115.278115832339722, -2.741462966766011 ], [ 115.27828719233969, -2.741824676766002 ], [ 115.27851579233959, -2.742191066765946 ], [ 115.278753752339767, -2.742514706765985 ], [ 115.27901547233968, -2.74286687676602 ], [ 115.279643672339603, -2.743371326766013 ], [ 115.280071712339705, -2.743604516766038 ], [ 115.280771552339729, -2.744113736765958 ], [ 115.280952272339732, -2.744361146765999 ], [ 115.280995112339724, -2.744684786766035 ], [ 115.281003752339757, -2.744985566766064 ], [ 115.281066392339767, -2.745208226766022 ], [ 115.281209312339683, -2.746264736766029 ], [ 115.281250352339725, -2.74692641676598 ], [ 115.281309032339763, -2.747454446766038 ], [ 115.281394712339775, -2.748068336766054 ], [ 115.281461312339616, -2.748663236766068 ], [ 115.281523232339751, -2.748986876766043 ], [ 115.281643029647896, -2.749279069401659 ], [ 115.281541686127341, -2.749610362986482 ], [ 115.281258409635413, -2.74993836734556 ], [ 115.280970163380459, -2.750181885733352 ], [ 115.280612072339636, -2.750450186766056 ], [ 115.280381312339614, -2.750904686765983 ], [ 115.280152712339813, -2.751394826766051 ], [ 115.279914752339678, -2.751842216766041 ], [ 115.279719632339734, -2.752194386766022 ], [ 115.279291625921758, -2.753087954657113 ], [ 115.278943832339678, -2.753669576766035 ], [ 115.278630272339683, -2.754356456766007 ], [ 115.278225272339682, -2.755087796765975 ], [ 115.277925752339797, -2.755715996765912 ], [ 115.277747272064417, -2.756210208272088 ], [ 115.277344352339824, -2.756914886765987 ], [ 115.276783472339631, -2.758062116766054 ], [ 115.276528127073504, -2.758445048578804 ], [ 115.276453518578961, -2.758537252802572 ], [ 115.276423130183858, -2.758560706642248 ], [ 115.276407064508206, -2.758574154019424 ] ] ] } },
{ "type": "Feature", "properties": { "source_object_id": 381, "road_name": "Jl. Sudirman (Kandangan)", "road_status": "Jalan Nasional", "province": "Kalimantan Selatan", "regency": "Hulu Sungai Selatan", "source_length_km": 0.5, "geometry_length_m": 527.72, "condition_data_included": false }, "geometry": { "type": "MultiLineString", "coordinates": [ [ [ 115.265851367759694, -2.786243262704913 ], [ 115.265622875573627, -2.786405106467874 ], [ 115.265330195573597, -2.786633526467865 ], [ 115.265123195573665, -2.786790576467897 ], [ 115.264789475573565, -2.786946006467907 ], [ 115.264601915573706, -2.787011886467929 ], [ 115.264452155573736, -2.787118986467902 ], [ 115.264316435573733, -2.787290256467862 ], [ 115.264216355573581, -2.787525876467878 ], [ 115.264123835573727, -2.787782826467916 ], [ 115.264074677481432, -2.788172151975608 ], [ 115.264017525206739, -2.788410700600375 ], [ 115.263930875573578, -2.78864655646792 ], [ 115.263880115573656, -2.788914486467863 ], [ 115.263816755573743, -2.789167656467929 ], [ 115.263773915573765, -2.789460336467896 ], [ 115.263723875573646, -2.789745906467921 ], [ 115.263654732506609, -2.790084889516494 ] ] ] } },
{ "type": "Feature", "properties": { "source_object_id": 0, "road_name": "Jl. Lingk. KDG SP. Hamalau-Teluk Pinang-HM. Yussie", "road_status": "Jalan Nasional", "province": null, "regency": null, "source_length_km": 0.0, "geometry_length_m": 11001.81, "condition_data_included": false }, "geometry": { "type": "MultiLineString", "coordinates": [ [ [ 115.257745794495634, -2.811843678440233 ], [ 115.258209114495642, -2.811979859518228 ], [ 115.258442754495618, -2.812054109518214 ], [ 115.258676394495637, -2.812128449518224 ], [ 115.258910394495615, -2.81220278951822 ], [ 115.25914403449562, -2.812277039518224 ], [ 115.259377674495639, -2.812351379518221 ], [ 115.259618154495612, -2.812414379518224 ], [ 115.259867994495622, -2.812492859518226 ], [ 115.260114234495632, -2.81257493951823 ], [ 115.260342834495631, -2.812657109518213 ], [ 115.260564954495621, -2.812728929518221 ], [ 115.260790314495608, -2.812786529518213 ], [ 115.261015674495624, -2.81284412951822 ], [ 115.261238514495631, -2.812928369518215 ], [ 115.261456314495632, -2.81300684951822 ], [ 115.261866714495639, -2.813010449518215 ], [ 115.262105754495622, -2.81289974951822 ], [ 115.262287914495616, -2.812746299518213 ], [ 115.262477274495609, -2.812553519518216 ], [ 115.262634234495621, -2.812364429518218 ], [ 115.262801994495618, -2.812178759518218 ], [ 115.262966154495629, -2.811989669518219 ], [ 115.263183954495631, -2.811786179518219 ], [ 115.263479998167114, -2.811546312127176 ], [ 115.263541794495623, -2.811523019518218 ], [ 115.263727554495617, -2.811494669518224 ], [ 115.263960114495603, -2.811447329518213 ], [ 115.264285194495628, -2.811356519518223 ], [ 115.264511274495618, -2.811285059518213 ], [ 115.26472547449562, -2.811243479518226 ], [ 115.264962323746587, -2.811178970986497 ], [ 115.265302554495619, -2.811243479518223 ], [ 115.265576154495619, -2.811320789518221 ], [ 115.265855874495628, -2.811433829518224 ], [ 115.265968554495601, -2.811493229518226 ], [ 115.266301914495642, -2.811618239518228 ], [ 115.26664355449563, -2.811659639518221 ], [ 115.266882234495625, -2.811684929518228 ], [ 115.267138554495631, -2.811703649518217 ], [ 115.26741467449564, -2.811688349518215 ], [ 115.267641474495619, -2.811667019518219 ], [ 115.267848474495622, -2.811618239518217 ], [ 115.267972314495609, -2.811599699518228 ], [ 115.268215314495635, -2.811534989518226 ], [ 115.26838775449562, -2.811440039518213 ], [ 115.268649474495618, -2.811295679518227 ], [ 115.269011274495625, -2.811096239518226 ], [ 115.2695181544956, -2.810816879518227 ], [ 115.269822354495602, -2.810609519518216 ], [ 115.270105314495623, -2.810416469518214 ], [ 115.270205113119275, -2.810175272988591 ], [ 115.270180554495624, -2.810053679518217 ], [ 115.270210074495637, -2.809762259518224 ], [ 115.270269474495635, -2.809553999518227 ], [ 115.270317354495631, -2.809393439518228 ], [ 115.270364874495641, -2.809173299518226 ], [ 115.270417794495614, -2.809004909518225 ], [ 115.270421394495642, -2.808770279518217 ], [ 115.270414194495615, -2.808544739518228 ], [ 115.270329954495608, -2.808176459518215 ], [ 115.270267674495614, -2.807903939518226 ], [ 115.270212234495602, -2.807703599518228 ], [ 115.270169034495623, -2.80748588951822 ], [ 115.270114314495615, -2.807234249518223 ], [ 115.270043754495632, -2.807007989518215 ], [ 115.269972114495616, -2.806823579518223 ], [ 115.269924594495635, -2.806621349518222 ], [ 115.269841434495618, -2.806365569518223 ], [ 115.269764754495625, -2.806033289518228 ], [ 115.26967871449564, -2.80575815951823 ], [ 115.269595194495636, -2.805491129518214 ], [ 115.269485754495619, -2.805140489518228 ], [ 115.269486114495621, -2.804832869518217 ], [ 115.269543513417716, -2.804558198339455 ], [ 115.269545998299236, -2.804493591420234 ], [ 115.269627234495616, -2.804283059518218 ], [ 115.269691674495633, -2.804032229518215 ], [ 115.269767274495635, -2.803736759518219 ], [ 115.26988319449562, -2.803458029518221 ], [ 115.270043754495632, -2.802998579518229 ], [ 115.270174434495601, -2.802623819518228 ], [ 115.27036955449563, -2.802286139518229 ], [ 115.270543434495622, -2.802011099518216 ], [ 115.27074539449562, -2.801796989518219 ], [ 115.271113337310496, -2.801434702283718 ], [ 115.271405994495623, -2.801273549518223 ], [ 115.271631714495626, -2.801089139518216 ], [ 115.271852034495637, -2.800922549518213 ], [ 115.272119514495628, -2.800714379518228 ], [ 115.272399234495637, -2.80048829951822 ], [ 115.27263719449563, -2.800309829518214 ], [ 115.272958314495639, -2.800042169518216 ], [ 115.273452234495622, -2.799643559518223 ], [ 115.274154234495626, -2.799161699518225 ], [ 115.274957034495628, -2.798560949518221 ], [ 115.275593514495611, -2.798102849518215 ], [ 115.276033794495632, -2.797829249518217 ], [ 115.276324314495639, -2.797618829518214 ], [ 115.276813194495631, -2.797264139518224 ], [ 115.27716419449564, -2.796948869518224 ], [ 115.277479554495628, -2.796645479518222 ], [ 115.277871954495609, -2.796264779518228 ], [ 115.278139794495615, -2.795944739518226 ], [ 115.278460914495625, -2.795509229518214 ], [ 115.278704994495627, -2.795098829518218 ], [ 115.278991554495619, -2.794580339518213 ], [ 115.279290354495615, -2.794016669518214 ], [ 115.279448394495603, -2.793540299518219 ], [ 115.27951391449561, -2.793207119518225 ], [ 115.279581594495625, -2.792752259518221 ], [ 115.279754034495639, -2.792484599518215 ], [ 115.280052114495618, -2.791879079518228 ], [ 115.28031131449562, -2.791403969518225 ], [ 115.280751234495625, -2.790684869518224 ], [ 115.280989194495618, -2.790203099518215 ], [ 115.281030594495618, -2.789965139518223 ], [ 115.280967594495635, -2.789664719518228 ], [ 115.280877954495622, -2.78950424951822 ], [ 115.280759874495629, -2.78936744951822 ], [ 115.28011907449563, -2.788566179518225 ], [ 115.279962245006757, -2.788330645328118 ], [ 115.279892994495626, -2.788244879518217 ], [ 115.279438674495623, -2.787761309518226 ], [ 115.279046274495627, -2.787434159518225 ], [ 115.278481434495632, -2.786937629518213 ], [ 115.277999034495622, -2.786607329518227 ], [ 115.27761239449562, -2.786297999518219 ], [ 115.276987794495639, -2.78583989951822 ], [ 115.276327554495623, -2.785328339518229 ], [ 115.275887274495616, -2.784989309518223 ], [ 115.27543475449562, -2.784587459518229 ], [ 115.27508015449564, -2.784322589518217 ], [ 115.274257554495634, -2.783757929518225 ], [ 115.274035565808376, -2.783542708211849 ], [ 115.273828434495627, -2.783372729518217 ], [ 115.273429554495621, -2.78304449951822 ], [ 115.273015194495613, -2.782703579518215 ], [ 115.272572754495627, -2.782339799518222 ], [ 115.272019794495606, -2.781850199518229 ], [ 115.272010074495626, -2.781862259518222 ], [ 115.271994954495625, -2.781872339518222 ], [ 115.271956794495622, -2.781884129518222 ], [ 115.271920434495641, -2.781877739518218 ], [ 115.271893794495625, -2.781862439518227 ], [ 115.271873634495634, -2.781838319518214 ], [ 115.27186247449562, -2.781807449518227 ], [ 115.271860314495626, -2.781791969518228 ], [ 115.271867154495624, -2.781763439518222 ], [ 115.271884074495617, -2.781731399518216 ], [ 115.271907114495633, -2.781714929518221 ], [ 115.271935914495629, -2.781703859518224 ], [ 115.271997834495636, -2.781194909518222 ], [ 115.272070194495626, -2.780383289518223 ], [ 115.272113034495618, -2.779731329518216 ], [ 115.272141834495642, -2.779122479518227 ], [ 115.272174594495624, -2.77861307951823 ], [ 115.272205554495642, -2.778130769518214 ], [ 115.272246594495627, -2.777497889518219 ], [ 115.272294114495637, -2.776847459518218 ], [ 115.272341634495618, -2.776295399518221 ], [ 115.272360714495633, -2.775776909518224 ], [ 115.272392034495638, -2.775241409518217 ], [ 115.272437034495638, -2.77454417951822 ], [ 115.272478794495626, -2.773728509518216 ], [ 115.27253819449561, -2.772943259518221 ], [ 115.272586074495621, -2.772360329518228 ], [ 115.27265123449564, -2.771735639518217 ], [ 115.272674994495631, -2.771384729518214 ], [ 115.272740514495638, -2.770890989518227 ], [ 115.272799914495636, -2.770331819518226 ], [ 115.272847794495632, -2.769927269518228 ], [ 115.272872274495626, -2.769684269518213 ], [ 115.272984594495611, -2.769213479518217 ], [ 115.273133274495606, -2.768737559518218 ], [ 115.27325207449563, -2.768368739518218 ], [ 115.273446834495616, -2.767788959518226 ], [ 115.273662474495637, -2.767208729518229 ], [ 115.273859034495601, -2.766655499518216 ], [ 115.274198154495636, -2.766030899518217 ], [ 115.274507394495615, -2.76528731951822 ], [ 115.274762994495617, -2.764722209518213 ], [ 115.274953434495629, -2.764270139518216 ], [ 115.275088534223158, -2.7638559261763 ], [ 115.275185634495614, -2.763217229518228 ], [ 115.275310554495618, -2.762663999518227 ], [ 115.27548875449564, -2.762080979518216 ], [ 115.275655434495619, -2.761664639518221 ], [ 115.275768474495621, -2.761283939518227 ], [ 115.275940914495635, -2.760784169518219 ], [ 115.276119474495601, -2.760272609518227 ], [ 115.276250154495628, -2.759909729518224 ], [ 115.276323234495621, -2.759427689518222 ], [ 115.276388034495625, -2.758965989518213 ], [ 115.276390773045136, -2.75858779038642 ], [ 115.276453518578961, -2.758537252802572 ], [ 115.276444914495642, -2.758973099518228 ], [ 115.276373634495641, -2.75944064951822 ], [ 115.276309554495626, -2.759918909518228 ], [ 115.276173834495623, -2.760293669518212 ], [ 115.276002474495627, -2.760796949518222 ], [ 115.275827514495631, -2.761285919518226 ], [ 115.275702594495627, -2.761674989518221 ], [ 115.275545634495614, -2.762081879518227 ], [ 115.275370674495619, -2.762667239518217 ], [ 115.275249354495642, -2.763223979518213 ], [ 115.275163413590462, -2.763866566424487 ], [ 115.275006714495603, -2.764283999518222 ], [ 115.274820954495638, -2.764740929518219 ], [ 115.274560674495618, -2.76530486951822 ], [ 115.274253594495619, -2.766057899518218 ], [ 115.273925274495639, -2.766661079518218 ], [ 115.273718274495636, -2.767214309518218 ], [ 115.273504074495634, -2.767813979518225 ], [ 115.273311114495641, -2.768385029518222 ], [ 115.273193394495635, -2.768749079518227 ], [ 115.273043634495622, -2.769241649518218 ], [ 115.272933114495615, -2.76967355951823 ], [ 115.272904314495619, -2.769926909518223 ], [ 115.272863274495606, -2.770333619518229 ], [ 115.272793794495612, -2.770901339518228 ], [ 115.272743754495622, -2.771379599518229 ], [ 115.272715314495642, -2.77174364951822 ], [ 115.272654474495624, -2.77236464951822 ], [ 115.272601194495607, -2.772946499518215 ], [ 115.272540354495618, -2.773731659518214 ], [ 115.272497154495625, -2.774556599518212 ], [ 115.272460794495629, -2.775249329518215 ], [ 115.272432354495621, -2.775792209518216 ], [ 115.272398514495634, -2.776290629518229 ], [ 115.272367554495617, -2.77685546951822 ], [ 115.272324714495639, -2.777512199518227 ], [ 115.272275034495621, -2.778132389518222 ], [ 115.272241554495622, -2.778612989518223 ], [ 115.272208434495639, -2.779131749518225 ], [ 115.27218107449562, -2.779731689518221 ], [ 115.272139314495632, -2.780381849518216 ], [ 115.272060834495619, -2.78120660951822 ], [ 115.271996394495602, -2.781714839518213 ], [ 115.27200971449561, -2.781723569518221 ], [ 115.272029874495615, -2.781742919518226 ], [ 115.272036714495613, -2.781763349518219 ], [ 115.272041034495615, -2.781794039518214 ], [ 115.272041034495615, -2.781809609518222 ], [ 115.272036354495626, -2.78182283951823 ], [ 115.272029874495615, -2.781838139518218 ], [ 115.272021234495639, -2.781848579518226 ] ], [ [ 115.271935914495629, -2.781703859518224 ], [ 115.271944914495634, -2.781703769518217 ], [ 115.271956434495635, -2.781704039518214 ], [ 115.271967234495634, -2.781703859518214 ], [ 115.271983074495623, -2.781708269518216 ], [ 115.271996394495602, -2.781714839518213 ] ] ] } },
{ "type": "Feature", "properties": { "source_object_id": 380, "road_name": "Jl. A. Yani (Kandangan)", "road_status": "Jalan Nasional", "province": "Kalimantan Selatan", "regency": "Hulu Sungai Selatan", "source_length_km": 9.51, "geometry_length_m": 3806.83, "condition_data_included": false }, "geometry": { "type": "MultiLineString", "coordinates": [ [ [ 115.276407064508206, -2.758574154019424 ], [ 115.276390773045136, -2.75858779038642 ], [ 115.275974552339676, -2.758885436766042 ], [ 115.275650912339643, -2.759170916766049 ], [ 115.275184352339579, -2.759580236765902 ], [ 115.274608712339628, -2.760146516765949 ], [ 115.273904192339614, -2.760641426766043 ], [ 115.273695032339688, -2.76077471676604 ], [ 115.273390472339642, -2.760884156765948 ], [ 115.272766952339794, -2.761117346765974 ], [ 115.272267272339718, -2.761340996765913 ], [ 115.271791352339719, -2.761597946766032 ], [ 115.271201312339599, -2.761931126765897 ], [ 115.271020232339666, -2.762069096766046 ], [ 115.270815752339672, -2.762192846766033 ], [ 115.270601552339727, -2.762378426766023 ], [ 115.270149392339931, -2.762754446765899 ], [ 115.269673472339605, -2.763216056765904 ], [ 115.269340472339664, -2.763515846765994 ], [ 115.269260159273486, -2.763628200794266 ], [ 115.269097274274216, -2.763758892583325 ], [ 115.268688512339864, -2.764124966766029 ], [ 115.268426792339724, -2.764419986766036 ], [ 115.268207912339676, -2.76470555676605 ], [ 115.267998392339791, -2.765091026766023 ], [ 115.267784192339619, -2.765619236766057 ], [ 115.267570352339703, -2.76625697676605 ], [ 115.267341752339803, -2.767008836765916 ], [ 115.267056272339801, -2.767779866766051 ], [ 115.266680432339626, -2.768579336765986 ], [ 115.266308912339809, -2.769302666765912 ], [ 115.265904632339584, -2.770116446766007 ], [ 115.265408592935842, -2.771210816716335 ], [ 115.264714315795359, -2.772802486956542 ], [ 115.264515446866014, -2.773151188261529 ], [ 115.2640722323397, -2.774190116765968 ], [ 115.263924992339753, -2.774551736765904 ], [ 115.263761192339629, -2.774997686766037 ], [ 115.26357255233971, -2.776117466766046 ], [ 115.263505952339642, -2.776802726766064 ], [ 115.26344187233974, -2.777300066765987 ], [ 115.263172952339701, -2.777854466766037 ], [ 115.263024349128855, -2.778280615217182 ], [ 115.262957003351744, -2.77843248750167 ], [ 115.262811152339609, -2.778753926765959 ], [ 115.262706392339638, -2.779029956765969 ], [ 115.262425952339655, -2.779453496766009 ], [ 115.262321192339769, -2.77971044676605 ], [ 115.262283032339596, -2.780067386766025 ], [ 115.262294946118502, -2.780423464554567 ], [ 115.262287712339784, -2.780638436765986 ], [ 115.262368712339608, -2.781199946765986 ], [ 115.262611357255707, -2.782339280384085 ], [ 115.262677952339914, -2.782587206766044 ], [ 115.262849312339881, -2.782875116766049 ], [ 115.263010952339741, -2.783151146766062 ], [ 115.263149192339839, -2.783355806765952 ], [ 115.263568538179101, -2.783947387496489 ], [ 115.264958152364642, -2.785273803979418 ], [ 115.264958152364642, -2.785273803979418 ], [ 115.265851367759694, -2.786243262704913 ] ] ] } }
]
}
