{
"type": "FeatureCollection",
"name": "rtrw_energi_line",
"crs": { "type": "name", "properties": { "name": "urn:ogc:def:crs:OGC:1.3:CRS84" } },
"features": [
{ "type": "Feature", "properties": { "source_feature_id": 1, "nama_objek": "Saluran Udara Tegangan Tinggi (SUTT)", "orde_01": 43020000, "orde_02": 43021000, "orde_03": 23021100, "orde_04": 23021103, "jenis_sistem": 43000000, "status_jaringan": 2, "provinsi": "Provinsi Kalimantan Selatan", "kabupaten": "Kabupaten Hulu Sungai Selatan", "keterangan": "Kandangan - Incomer", "sumber_data": "PT. PLN (Persero) Unit Induk Wilayah Kalimantan Selatan dan Kalimantan Tengah, 2022", "source_shape_length": 0.030806034747174735, "source_layer": "_6306_50KB_LN_SR_ENERGI_KABUPATEN_HULUSUNGAISELATAN_2024", "source_dataset": "_6306_50KB_RTRW_KABUPATEN_HULUSUNGAISELATAN_2025.gdb.zip" }, "geometry": { "type": "MultiLineString", "coordinates": [ [ [ 115.273925, -2.772526 ], [ 115.274034, -2.772147 ], [ 115.27693, -2.770758 ], [ 115.27935, -2.770253 ], [ 115.281902, -2.772124 ], [ 115.285053, -2.772109 ], [ 115.287843, -2.770389 ], [ 115.29069, -2.76869 ], [ 115.293317, -2.767122 ], [ 115.296096, -2.765445 ], [ 115.298678, -2.764717 ], [ 115.301249, -2.763939 ], [ 115.301391033190043, -2.76390844728752 ] ] ] } },
{ "type": "Feature", "properties": { "source_feature_id": 2, "nama_objek": "Saluran Udara Tegangan Tinggi (SUTT)", "orde_01": 43020000, "orde_02": 43021000, "orde_03": 23021100, "orde_04": 23021103, "jenis_sistem": 43000000, "status_jaringan": 2, "provinsi": "Provinsi Kalimantan Selatan", "kabupaten": "Kabupaten Hulu Sungai Selatan", "keterangan": "Kayutangi - Barikin", "sumber_data": "Data Geoportal ESDM Provinsi Kalimantan Selatan, 2023", "source_shape_length": 0.27276368756187974, "source_layer": "_6306_50KB_LN_SR_ENERGI_KABUPATEN_HULUSUNGAISELATAN_2024", "source_dataset": "_6306_50KB_RTRW_KABUPATEN_HULUSUNGAISELATAN_2025.gdb.zip" }, "geometry": { "type": "MultiLineString", "coordinates": [ [ [ 115.062480568367505, -2.839654558082486 ], [ 115.063836, -2.838841 ], [ 115.066545, -2.837264 ], [ 115.069354, -2.835632 ], [ 115.072324, -2.833801 ], [ 115.074755, -2.832368 ], [ 115.077545, -2.830709 ], [ 115.080174, -2.829085 ], [ 115.082991, -2.827417 ], [ 115.085628, -2.825857 ], [ 115.088374, -2.824189 ], [ 115.091074, -2.822602 ], [ 115.093811, -2.820961 ], [ 115.096511, -2.819374 ], [ 115.099256, -2.817742 ], [ 115.102101, -2.816038 ], [ 115.104693, -2.814487 ], [ 115.107403, -2.812873 ], [ 115.11013, -2.811249 ], [ 115.112821, -2.809626 ], [ 115.11554, -2.807976 ], [ 115.118591, -2.806172 ], [ 115.121607, -2.804342 ], [ 115.123902, -2.802944 ], [ 115.126845, -2.801529 ], [ 115.129563, -2.800177 ], [ 115.132335, -2.798762 ], [ 115.13526, -2.79732 ], [ 115.138085, -2.795959 ], [ 115.140893, -2.794516 ], [ 115.143809, -2.793056 ], [ 115.146662, -2.791605 ], [ 115.149596, -2.790145 ], [ 115.152359, -2.78872 ], [ 115.155212, -2.787278 ], [ 115.158083, -2.785809 ], [ 115.160855, -2.784393 ], [ 115.163726, -2.78296 ], [ 115.166534, -2.781536 ], [ 115.169395, -2.78013 ], [ 115.172248, -2.778651 ], [ 115.175074, -2.777245 ], [ 115.178071, -2.775749 ], [ 115.180744, -2.774378 ], [ 115.183588, -2.772963 ], [ 115.186396, -2.771575 ], [ 115.189231, -2.770159 ], [ 115.192038, -2.768735 ], [ 115.194497, -2.766713 ], [ 115.196919, -2.764727 ], [ 115.199359, -2.762724 ], [ 115.201781, -2.76072 ], [ 115.204221, -2.758716 ], [ 115.20676, -2.756622 ], [ 115.209281, -2.754555 ], [ 115.211721, -2.752542 ], [ 115.21417, -2.75053 ], [ 115.216574, -2.748535 ], [ 115.219005, -2.746558 ], [ 115.221427, -2.744563 ], [ 115.223849, -2.742568 ], [ 115.226289, -2.740555 ], [ 115.228756, -2.738524 ], [ 115.231079, -2.73662 ], [ 115.233663, -2.73449 ], [ 115.236093, -2.732486 ], [ 115.238524, -2.730491 ], [ 115.240946, -2.728496 ], [ 115.243404, -2.726483 ], [ 115.245826, -2.724479 ], [ 115.24832, -2.722493 ], [ 115.250805, -2.720526 ], [ 115.25329, -2.71854 ], [ 115.255792, -2.716545 ], [ 115.258331, -2.714532 ], [ 115.26087, -2.71251 ], [ 115.263265, -2.710605 ], [ 115.265732, -2.708647 ], [ 115.268189, -2.706688 ], [ 115.270656, -2.70472 ], [ 115.273078, -2.702797 ], [ 115.275779, -2.700658 ], [ 115.278362, -2.698754 ], [ 115.280928, -2.696867 ], [ 115.283502, -2.694972 ], [ 115.286068, -2.693095 ], [ 115.288651, -2.691181 ], [ 115.289499784512486, -2.690558536125025 ] ] ] } },
{ "type": "Feature", "properties": { "source_feature_id": 3, "nama_objek": "Saluran Udara Tegangan Tinggi (SUTT)", "orde_01": 43020000, "orde_02": 43021000, "orde_03": 23021100, "orde_04": 23021103, "jenis_sistem": 43000000, "status_jaringan": 2, "provinsi": "Provinsi Kalimantan Selatan", "kabupaten": "Kabupaten Hulu Sungai Selatan", "keterangan": "Rantau - Barikin", "sumber_data": "Data Geoportal ESDM Provinsi Kalimantan Selatan, 2023", "source_shape_length": 0.21207118684132029, "source_layer": "_6306_50KB_LN_SR_ENERGI_KABUPATEN_HULUSUNGAISELATAN_2024", "source_dataset": "_6306_50KB_RTRW_KABUPATEN_HULUSUNGAISELATAN_2025.gdb.zip" }, "geometry": { "type": "MultiLineString", "coordinates": [ [ [ 115.236513791659945, -2.880910305190014 ], [ 115.236641, -2.880797 ], [ 115.238917, -2.878767 ], [ 115.24085, -2.87705 ], [ 115.242782, -2.87529 ], [ 115.244548, -2.873778 ], [ 115.246493, -2.87214 ], [ 115.248519, -2.870266 ], [ 115.250208, -2.868644 ], [ 115.25213, -2.866767 ], [ 115.254304, -2.864446 ], [ 115.256436, -2.861898 ], [ 115.258186, -2.859713 ], [ 115.260343, -2.857329 ], [ 115.261896, -2.855459 ], [ 115.263787, -2.853043 ], [ 115.265132, -2.851297 ], [ 115.26675, -2.849217 ], [ 115.26845, -2.847033 ], [ 115.269795, -2.845429 ], [ 115.271695, -2.843159 ], [ 115.273679, -2.84076 ], [ 115.275914, -2.837923 ], [ 115.277042, -2.83661 ], [ 115.279008, -2.834327 ], [ 115.281001, -2.831965 ], [ 115.282627, -2.8298 ], [ 115.284541, -2.827604 ], [ 115.286516, -2.825566 ], [ 115.288449, -2.822764 ], [ 115.290264, -2.820498 ], [ 115.292324, -2.818084 ], [ 115.294348, -2.815635 ], [ 115.296237, -2.81333 ], [ 115.296532, -2.810445 ], [ 115.296926, -2.807479 ], [ 115.297141, -2.804724 ], [ 115.297537, -2.801623 ], [ 115.297841, -2.798435 ], [ 115.298216, -2.795201 ], [ 115.298475, -2.791848 ], [ 115.298877, -2.788725 ], [ 115.299243, -2.785575 ], [ 115.299407, -2.782915 ], [ 115.299741, -2.780659 ], [ 115.299983, -2.777954 ], [ 115.300262, -2.774987 ], [ 115.300583, -2.772031 ], [ 115.300874, -2.769178 ], [ 115.301101, -2.766485 ], [ 115.301391033190043, -2.76390844728752 ], [ 115.301419, -2.76366 ], [ 115.301798, -2.760606 ], [ 115.302047, -2.757421 ], [ 115.30239, -2.754122 ], [ 115.30265, -2.751155 ], [ 115.302998, -2.748071 ], [ 115.303485, -2.745075 ], [ 115.303694, -2.742028 ], [ 115.303862, -2.73902 ], [ 115.304313, -2.735874 ], [ 115.304577, -2.732742 ], [ 115.305796, -2.729938 ], [ 115.307213, -2.72702 ], [ 115.308467, -2.724143 ], [ 115.309713, -2.721252 ], [ 115.310781, -2.71881 ], [ 115.312071, -2.715896 ], [ 115.313311, -2.713055 ], [ 115.314646, -2.710023 ], [ 115.315874, -2.707309 ], [ 115.317202, -2.704677 ], [ 115.318492, -2.701948 ], [ 115.319882, -2.699136 ], [ 115.321231, -2.696487 ], [ 115.321562645747463, -2.695857136287486 ] ] ] } }
]
}
