{
"type": "FeatureCollection",
"name": "rtrw_pusat_permukiman",
"crs": { "type": "name", "properties": { "name": "urn:ogc:def:crs:OGC:1.3:CRS84" } },
"features": [
{ "type": "Feature", "properties": { "source_feature_id": 1, "nama_objek": "Pusat Pelayanan Kawasan", "orde_01": 11021000, "orde_02": 11021000, "orde_03": 11021000, "orde_04": 11021000, "jenis_sistem": 11000000, "status_jaringan": 1, "provinsi": "Provinsi Kalimantan Selatan", "kabupaten": "Kabupaten Hulu Sungai Selatan", "keterangan": "Pusat Pelayanan Kawasan Kecamatan Padang Batung", "sumber_data": "Hasil Analisis Perencanaan, 2024", "source_layer": "_6306_50KB_PT_SR_PUSATPERMUKIMAN_KABUPATEN_HULUSUNGAISELATAN_2024", "source_dataset": "_6306_50KB_RTRW_KABUPATEN_HULUSUNGAISELATAN_2025.gdb.zip" }, "geometry": { "type": "Point", "coordinates": [ 115.301722110419973, -2.820951572719991 ] } },
{ "type": "Feature", "properties": { "source_feature_id": 2, "nama_objek": "Pusat Pelayanan Kawasan", "orde_01": 11021000, "orde_02": 11021000, "orde_03": 11021000, "orde_04": 11021000, "jenis_sistem": 11000000, "status_jaringan": 1, "provinsi": "Provinsi Kalimantan Selatan", "kabupaten": "Kabupaten Hulu Sungai Selatan", "keterangan": "Pusat Pelayanan Kawasan Kecamatan Loksado", "sumber_data": "Hasil Analisis Perencanaan, 2024", "source_layer": "_6306_50KB_PT_SR_PUSATPERMUKIMAN_KABUPATEN_HULUSUNGAISELATAN_2024", "source_dataset": "_6306_50KB_RTRW_KABUPATEN_HULUSUNGAISELATAN_2025.gdb.zip" }, "geometry": { "type": "Point", "coordinates": [ 115.493312615404989, -2.79464638861748 ] } },
{ "type": "Feature", "properties": { "source_feature_id": 3, "nama_objek": "Pusat Pelayanan Lingkungan", "orde_01": 11024000, "orde_02": 11024000, "orde_03": 11024000, "orde_04": 11024000, "jenis_sistem": 11000000, "status_jaringan": 1, "provinsi": "Provinsi Kalimantan Selatan", "kabupaten": "Kabupaten Hulu Sungai Selatan", "keterangan": "Pusat Pelayanan Lingkungan Kecamatan Telaga Langsat", "sumber_data": "Hasil Analisis Perencanaan, 2024", "source_layer": "_6306_50KB_PT_SR_PUSATPERMUKIMAN_KABUPATEN_HULUSUNGAISELATAN_2024", "source_dataset": "_6306_50KB_RTRW_KABUPATEN_HULUSUNGAISELATAN_2025.gdb.zip" }, "geometry": { "type": "Point", "coordinates": [ 115.336478409222536, -2.735477090544975 ] } },
{ "type": "Feature", "properties": { "source_feature_id": 4, "nama_objek": "Pusat Pelayanan Lingkungan", "orde_01": 11024000, "orde_02": 11024000, "orde_03": 11024000, "orde_04": 11024000, "jenis_sistem": 11000000, "status_jaringan": 1, "provinsi": "Provinsi Kalimantan Selatan", "kabupaten": "Kabupaten Hulu Sungai Selatan", "keterangan": "Pusat Pelayanan Lingkungan Kecamatan Angkinang", "sumber_data": "Hasil Analisis Perencanaan, 2024", "source_layer": "_6306_50KB_PT_SR_PUSATPERMUKIMAN_KABUPATEN_HULUSUNGAISELATAN_2024", "source_dataset": "_6306_50KB_RTRW_KABUPATEN_HULUSUNGAISELATAN_2025.gdb.zip" }, "geometry": { "type": "Point", "coordinates": [ 115.291065208715054, -2.730295560494994 ] } },
{ "type": "Feature", "properties": { "source_feature_id": 5, "nama_objek": "Pusat Kegiatan Lokal (PKL)", "orde_01": 11014000, "orde_02": 11014000, "orde_03": 11014000, "orde_04": 11014000, "jenis_sistem": 11000000, "status_jaringan": 1, "provinsi": "Provinsi Kalimantan Selatan", "kabupaten": "Kabupaten Hulu Sungai Selatan", "keterangan": "Pusat Kegiatan Lokal Kecamatan Kandangan", "sumber_data": "Hasil Analisis Perencanaan, 2024", "source_layer": "_6306_50KB_PT_SR_PUSATPERMUKIMAN_KABUPATEN_HULUSUNGAISELATAN_2024", "source_dataset": "_6306_50KB_RTRW_KABUPATEN_HULUSUNGAISELATAN_2025.gdb.zip" }, "geometry": { "type": "Point", "coordinates": [ 115.265923454732501, -2.785412612610003 ] } },
{ "type": "Feature", "properties": { "source_feature_id": 6, "nama_objek": "Pusat Pelayanan Kawasan", "orde_01": 11021000, "orde_02": 11021000, "orde_03": 11021000, "orde_04": 11021000, "jenis_sistem": 11000000, "status_jaringan": 1, "provinsi": "Provinsi Kalimantan Selatan", "kabupaten": "Kabupaten Hulu Sungai Selatan", "keterangan": "Pusat Pelayanan Kawasan Kecamatan Sungai Raya", "sumber_data": "Hasil Analisis Perencanaan, 2024", "source_layer": "_6306_50KB_PT_SR_PUSATPERMUKIMAN_KABUPATEN_HULUSUNGAISELATAN_2024", "source_dataset": "_6306_50KB_RTRW_KABUPATEN_HULUSUNGAISELATAN_2025.gdb.zip" }, "geometry": { "type": "Point", "coordinates": [ 115.260320644919943, -2.800703017609976 ] } },
{ "type": "Feature", "properties": { "source_feature_id": 7, "nama_objek": "Pusat Pelayanan Lingkungan", "orde_01": 11024000, "orde_02": 11024000, "orde_03": 11024000, "orde_04": 11024000, "jenis_sistem": 11000000, "status_jaringan": 1, "provinsi": "Provinsi Kalimantan Selatan", "kabupaten": "Kabupaten Hulu Sungai Selatan", "keterangan": "Pusat Pelayanan Lingkungan Kecamatan Simpur", "sumber_data": "Hasil Analisis Perencanaan, 2024", "source_layer": "_6306_50KB_PT_SR_PUSATPERMUKIMAN_KABUPATEN_HULUSUNGAISELATAN_2024", "source_dataset": "_6306_50KB_RTRW_KABUPATEN_HULUSUNGAISELATAN_2025.gdb.zip" }, "geometry": { "type": "Point", "coordinates": [ 115.212398037692537, -2.817352500139975 ] } },
{ "type": "Feature", "properties": { "source_feature_id": 8, "nama_objek": "Pusat Pelayanan Lingkungan", "orde_01": 11024000, "orde_02": 11024000, "orde_03": 11024000, "orde_04": 11024000, "jenis_sistem": 11000000, "status_jaringan": 1, "provinsi": "Provinsi Kalimantan Selatan", "kabupaten": "Kabupaten Hulu Sungai Selatan", "keterangan": "Pusat Pelayanan Lingkungan Kecamatan Kalumpang", "sumber_data": "Hasil Analisis Perencanaan, 2024", "source_layer": "_6306_50KB_PT_SR_PUSATPERMUKIMAN_KABUPATEN_HULUSUNGAISELATAN_2024", "source_dataset": "_6306_50KB_RTRW_KABUPATEN_HULUSUNGAISELATAN_2025.gdb.zip" }, "geometry": { "type": "Point", "coordinates": [ 115.161820425469955, -2.822556307434979 ] } },
{ "type": "Feature", "properties": { "source_feature_id": 9, "nama_objek": "Pusat Pelayanan Kawasan", "orde_01": 11021000, "orde_02": 11021000, "orde_03": 11021000, "orde_04": 11021000, "jenis_sistem": 11000000, "status_jaringan": 1, "provinsi": "Provinsi Kalimantan Selatan", "kabupaten": "Kabupaten Hulu Sungai Selatan", "keterangan": "Pusat Pelayanan Kawasan Kecamatan Daha Selatan", "sumber_data": "Hasil Analisis Perencanaan, 2024", "source_layer": "_6306_50KB_PT_SR_PUSATPERMUKIMAN_KABUPATEN_HULUSUNGAISELATAN_2024", "source_dataset": "_6306_50KB_RTRW_KABUPATEN_HULUSUNGAISELATAN_2025.gdb.zip" }, "geometry": { "type": "Point", "coordinates": [ 115.107068516212507, -2.637415555724999 ] } },
{ "type": "Feature", "properties": { "source_feature_id": 10, "nama_objek": "Pusat Pelayanan Lingkungan", "orde_01": 11024000, "orde_02": 11024000, "orde_03": 11024000, "orde_04": 11024000, "jenis_sistem": 11000000, "status_jaringan": 1, "provinsi": "Provinsi Kalimantan Selatan", "kabupaten": "Kabupaten Hulu Sungai Selatan", "keterangan": "Pusat Pelayanan Lingkungan Kecamatan Daha Barat", "sumber_data": "Hasil Analisis Perencanaan, 2024", "source_layer": "_6306_50KB_PT_SR_PUSATPERMUKIMAN_KABUPATEN_HULUSUNGAISELATAN_2024", "source_dataset": "_6306_50KB_RTRW_KABUPATEN_HULUSUNGAISELATAN_2025.gdb.zip" }, "geometry": { "type": "Point", "coordinates": [ 115.022558175947552, -2.681716726657498 ] } },
{ "type": "Feature", "properties": { "source_feature_id": 11, "nama_objek": "Pusat Pelayanan Kawasan", "orde_01": 11021000, "orde_02": 11021000, "orde_03": 11021000, "orde_04": 11021000, "jenis_sistem": 11000000, "status_jaringan": 1, "provinsi": "Provinsi Kalimantan Selatan", "kabupaten": "Kabupaten Hulu Sungai Selatan", "keterangan": "Pusat Pelayanan Kawasan Kecamatan Daha Utara", "sumber_data": "Hasil Analisis Perencanaan, 2024", "source_layer": "_6306_50KB_PT_SR_PUSATPERMUKIMAN_KABUPATEN_HULUSUNGAISELATAN_2024", "source_dataset": "_6306_50KB_RTRW_KABUPATEN_HULUSUNGAISELATAN_2025.gdb.zip" }, "geometry": { "type": "Point", "coordinates": [ 115.104385701534966, -2.624154514874988 ] } }
]
}
