{
"type": "FeatureCollection",
"name": "rtrw_energi_point",
"crs": { "type": "name", "properties": { "name": "urn:ogc:def:crs:OGC:1.3:CRS84" } },
"features": [
{ "type": "Feature", "properties": { "source_feature_id": 1, "nama_objek": "Pembangkit Listrik Tenaga Uap (PLTU)", "orde_01": 43020000, "orde_02": 13022000, "orde_03": 13022101, "orde_04": 13022101, "jenis_sistem": 43000000, "status_jaringan": 2, "provinsi": "Provinsi Kalimantan Selatan", "kabupaten": "Kabupaten Tanah Laut", "keterangan": "gardu induk Kandangan", "sumber_data": "Kepmen ESDM No. 188.K/HK.02/MEM.L/2021 RUPTL Tahun 2021-2030 Kementrerian ESDM, 2021", "source_layer": "_6306_50KB_PT_SR_ENERGI_KABUPATEN_HULUSUNGAISELATAN_2024", "source_dataset": "_6306_50KB_RTRW_KABUPATEN_HULUSUNGAISELATAN_2025.gdb.zip" }, "geometry": { "type": "Point", "coordinates": [ 115.273925, -2.772526 ] } }
]
}
