{
"type": "FeatureCollection",
"name": "rtrw_sda_point",
"crs": { "type": "name", "properties": { "name": "urn:ogc:def:crs:OGC:1.3:CRS84" } },
"features": [
{ "type": "Feature", "properties": { "source_feature_id": 1, "nama_objek": "Bangunan Sumber Daya Air", "orde_01": 45010000, "orde_02": 15013000, "orde_03": 15013000, "orde_04": 15013000, "jenis_sistem": 45000000, "status_jaringan": 2, "provinsi": "Provinsi Kalimantan Selatan", "kabupaten": "Kabupaten Hulu Sungai Selatan", "keterangan": "Bendung Telaga Langsat", "sumber_data": "Bidang Sumber Daya Air Dinas PUPR Provinsi Kalimantan Selatan, 2022", "source_layer": "_6306_50KB_PT_SR_SDA_KABUPATEN_HULUSUNGAISELATAN_2024", "source_dataset": "_6306_50KB_RTRW_KABUPATEN_HULUSUNGAISELATAN_2025.gdb.zip" }, "geometry": { "type": "Point", "coordinates": [ 115.348710862442545, -2.741873836477509 ] } },
{ "type": "Feature", "properties": { "source_feature_id": 2, "nama_objek": "Bangunan Sumber Daya Air", "orde_01": 45010000, "orde_02": 15013000, "orde_03": 15013000, "orde_04": 15013000, "jenis_sistem": 45000000, "status_jaringan": 2, "provinsi": "Provinsi Kalimantan Selatan", "kabupaten": "Kabupaten Hulu Sungai Selatan", "keterangan": "Bendung Amandit", "sumber_data": "Bidang Sumber Daya Air Dinas PUPR Provinsi Kalimantan Selatan, 2022", "source_layer": "_6306_50KB_PT_SR_SDA_KABUPATEN_HULUSUNGAISELATAN_2024", "source_dataset": "_6306_50KB_RTRW_KABUPATEN_HULUSUNGAISELATAN_2025.gdb.zip" }, "geometry": { "type": "Point", "coordinates": [ 115.293055364, -2.858832161 ] } },
{ "type": "Feature", "properties": { "source_feature_id": 3, "nama_objek": "Bangunan Pengendalian Banjir", "orde_01": 45010000, "orde_02": 45012000, "orde_03": 15012200, "orde_04": 15012200, "jenis_sistem": 45000000, "status_jaringan": 2, "provinsi": "Provinsi Kalimantan Selatan", "kabupaten": "Kabupaten Hulu Sungai Selatan", "keterangan": "Tidak Ada", "sumber_data": "Dinas PUPR Kabupaten Hulu Sungai Selatan, 2022", "source_layer": "_6306_50KB_PT_SR_SDA_KABUPATEN_HULUSUNGAISELATAN_2024", "source_dataset": "_6306_50KB_RTRW_KABUPATEN_HULUSUNGAISELATAN_2025.gdb.zip" }, "geometry": { "type": "Point", "coordinates": [ 115.477579054357534, -2.803412858685022 ] } },
{ "type": "Feature", "properties": { "source_feature_id": 4, "nama_objek": "Bangunan Pengendalian Banjir", "orde_01": 45010000, "orde_02": 45012000, "orde_03": 15012200, "orde_04": 15012200, "jenis_sistem": 45000000, "status_jaringan": 2, "provinsi": "Provinsi Kalimantan Selatan", "kabupaten": "Kabupaten Hulu Sungai Selatan", "keterangan": "Tidak Ada", "sumber_data": "Dinas PUPR Kabupaten Hulu Sungai Selatan, 2022", "source_layer": "_6306_50KB_PT_SR_SDA_KABUPATEN_HULUSUNGAISELATAN_2024", "source_dataset": "_6306_50KB_RTRW_KABUPATEN_HULUSUNGAISELATAN_2025.gdb.zip" }, "geometry": { "type": "Point", "coordinates": [ 115.288443757852519, -2.752051107582474 ] } },
{ "type": "Feature", "properties": { "source_feature_id": 5, "nama_objek": "Bangunan Pengendalian Banjir", "orde_01": 45010000, "orde_02": 45012000, "orde_03": 15012200, "orde_04": 15012200, "jenis_sistem": 45000000, "status_jaringan": 2, "provinsi": "Provinsi Kalimantan Selatan", "kabupaten": "Kabupaten Hulu Sungai Selatan", "keterangan": "Tidak Ada", "sumber_data": "Dinas PUPR Kabupaten Hulu Sungai Selatan, 2022", "source_layer": "_6306_50KB_PT_SR_SDA_KABUPATEN_HULUSUNGAISELATAN_2024", "source_dataset": "_6306_50KB_RTRW_KABUPATEN_HULUSUNGAISELATAN_2025.gdb.zip" }, "geometry": { "type": "Point", "coordinates": [ 115.298853839449976, -2.731149267717512 ] } },
{ "type": "Feature", "properties": { "source_feature_id": 6, "nama_objek": "Bangunan Pengendalian Banjir", "orde_01": 45010000, "orde_02": 45012000, "orde_03": 15012200, "orde_04": 15012200, "jenis_sistem": 45000000, "status_jaringan": 2, "provinsi": "Provinsi Kalimantan Selatan", "kabupaten": "Kabupaten Hulu Sungai Selatan", "keterangan": "Tidak Ada", "sumber_data": "Dinas PUPR Kabupaten Hulu Sungai Selatan, 2022", "source_layer": "_6306_50KB_PT_SR_SDA_KABUPATEN_HULUSUNGAISELATAN_2024", "source_dataset": "_6306_50KB_RTRW_KABUPATEN_HULUSUNGAISELATAN_2025.gdb.zip" }, "geometry": { "type": "Point", "coordinates": [ 115.092298756012497, -2.634327974632527 ] } }
]
}
