{
"type": "FeatureCollection",
"name": "rtrw_transportasi_point",
"crs": { "type": "name", "properties": { "name": "urn:ogc:def:crs:OGC:1.3:CRS84" } },
"features": [
{ "type": "Feature", "properties": { "source_feature_id": 1, "nama_objek": "Terminal Penumpang Tipe B", "orde_01": 42010000, "orde_02": 12016000, "orde_03": 12016200, "orde_04": 12016200, "jenis_sistem": 42000000, "status_jaringan": 2, "provinsi": "Provinsi Kalimantan Selatan", "kabupaten": "Kabupaten Hulu Sungai Selatan", "keterangan": "Terminal Kandangan", "sumber_data": "Analisis RTRWP Kalimantan Selatan, 2023", "source_layer": "_6306_50KB_PT_SR_TRANSPORTASI_KABUPATEN_HULUSUNGAISELATAN_2024", "source_dataset": "_6306_50KB_RTRW_KABUPATEN_HULUSUNGAISELATAN_2025.gdb.zip" }, "geometry": { "type": "Point", "coordinates": [ 115.272582932107525, -2.779091189899987 ] } },
{ "type": "Feature", "properties": { "source_feature_id": 2, "nama_objek": "Pelabuhan Sungai dan Danau Pengumpan", "orde_01": 42030000, "orde_02": 12031000, "orde_03": 12031600, "orde_04": 12031600, "jenis_sistem": 42000000, "status_jaringan": 2, "provinsi": "Provinsi Kalimantan Selatan", "kabupaten": "Kabupaten Hulu Sungai Selatan", "keterangan": "Dermaga Danau Bangkau", "sumber_data": "Kepmen Hub No. 432 Tahun 2017 Kementerian Perhubungan, 2017", "source_layer": "_6306_50KB_PT_SR_TRANSPORTASI_KABUPATEN_HULUSUNGAISELATAN_2024", "source_dataset": "_6306_50KB_RTRW_KABUPATEN_HULUSUNGAISELATAN_2025.gdb.zip" }, "geometry": { "type": "Point", "coordinates": [ 115.200085862942501, -2.680678745742512 ] } },
{ "type": "Feature", "properties": { "source_feature_id": 3, "nama_objek": "Stasiun Penumpang", "orde_01": 42020000, "orde_02": 12020000, "orde_03": 12023000, "orde_04": 12023000, "jenis_sistem": 42000000, "status_jaringan": 1, "provinsi": "Provinsi Kalimantan Selatan", "kabupaten": "Kabupaten Hulu Sungai Selatan", "keterangan": "Pandanu", "sumber_data": "Direktorat Jendral Perkeretaapian Kementerian Perhubungan, 2023", "source_layer": "_6306_50KB_PT_SR_TRANSPORTASI_KABUPATEN_HULUSUNGAISELATAN_2024", "source_dataset": "_6306_50KB_RTRW_KABUPATEN_HULUSUNGAISELATAN_2025.gdb.zip" }, "geometry": { "type": "Point", "coordinates": [ 115.298699750999958, -2.70159227 ] } },
{ "type": "Feature", "properties": { "source_feature_id": 4, "nama_objek": "Stasiun Penumpang", "orde_01": 42020000, "orde_02": 12020000, "orde_03": 12023000, "orde_04": 12023000, "jenis_sistem": 42000000, "status_jaringan": 1, "provinsi": "Provinsi Kalimantan Selatan", "kabupaten": "Kabupaten Hulu Sungai Selatan", "keterangan": "Kandangan", "sumber_data": "Direktorat Jendral Perkeretaapian Kementerian Perhubungan, 2023", "source_layer": "_6306_50KB_PT_SR_TRANSPORTASI_KABUPATEN_HULUSUNGAISELATAN_2024", "source_dataset": "_6306_50KB_RTRW_KABUPATEN_HULUSUNGAISELATAN_2025.gdb.zip" }, "geometry": { "type": "Point", "coordinates": [ 115.25315767799998, -2.78327507 ] } },
{ "type": "Feature", "properties": { "source_feature_id": 5, "nama_objek": "Pelabuhan Sungai dan Danau Pengumpan", "orde_01": 42030000, "orde_02": 12031000, "orde_03": 12031600, "orde_04": 12031600, "jenis_sistem": 42000000, "status_jaringan": 2, "provinsi": "Provinsi Kalimantan Selatan", "kabupaten": "Kabupaten Hulu Sungai Selatan", "keterangan": "Negara", "sumber_data": "Kepmen Hub No. 432 Tahun 2017 Kementerian Perhubungan, 2017", "source_layer": "_6306_50KB_PT_SR_TRANSPORTASI_KABUPATEN_HULUSUNGAISELATAN_2024", "source_dataset": "_6306_50KB_RTRW_KABUPATEN_HULUSUNGAISELATAN_2025.gdb.zip" }, "geometry": { "type": "Point", "coordinates": [ 115.106279146242514, -2.630458290335014 ] } }
]
}
