{
"type": "FeatureCollection",
"name": "markets",
"crs": { "type": "name", "properties": { "name": "urn:ogc:def:crs:OGC:1.3:CRS84" } },
"features": [
{ "type": "Feature", "properties": { "facility_id": "market-001", "facility_type": "market", "facility_subtype": null, "facility_name": "Pasar Rakyat Terpadu", "npsn": null, "ownership_status": null, "address": null, "village": null, "district": null, "student_total": null, "teacher_total": null, "staff_total": null }, "geometry": { "type": "Point", "coordinates": [ 115.273089, -2.778496 ] } },
{ "type": "Feature", "properties": { "facility_id": "market-002", "facility_type": "market", "facility_subtype": null, "facility_name": "Pasar Rakyat Wasah Hilir", "npsn": null, "ownership_status": null, "address": null, "village": null, "district": null, "student_total": null, "teacher_total": null, "staff_total": null }, "geometry": { "type": "Point", "coordinates": [ 115.216939, -2.810459 ] } },
{ "type": "Feature", "properties": { "facility_id": "market-003", "facility_type": "market", "facility_subtype": "PASAR KABUPATEN", "facility_name": "Pasar Angkinang", "npsn": null, "ownership_status": null, "address": null, "village": null, "district": null, "student_total": null, "teacher_total": null, "staff_total": null }, "geometry": { "type": "Point", "coordinates": [ 115.290951, -2.732679 ] } },
{ "type": "Feature", "properties": { "facility_id": "market-004", "facility_type": "market", "facility_subtype": "PASAR KABUPATEN", "facility_name": "Pasar Taniran", "npsn": null, "ownership_status": null, "address": null, "village": null, "district": null, "student_total": null, "teacher_total": null, "staff_total": null }, "geometry": { "type": "Point", "coordinates": [ 115.278335, -2.736836 ] } },
{ "type": "Feature", "properties": { "facility_id": "market-005", "facility_type": "market", "facility_subtype": "PASAR KABUPATEN", "facility_name": "Pasar Bajayau", "npsn": null, "ownership_status": null, "address": null, "village": null, "district": null, "student_total": null, "teacher_total": null, "staff_total": null }, "geometry": { "type": "Point", "coordinates": [ 115.022887, -2.680307 ] } },
{ "type": "Feature", "properties": { "facility_id": "market-006", "facility_type": "market", "facility_subtype": "PASAR KABUPATEN", "facility_name": "Pasar Senin Nagara", "npsn": null, "ownership_status": null, "address": null, "village": null, "district": null, "student_total": null, "teacher_total": null, "staff_total": null }, "geometry": { "type": "Point", "coordinates": [ 115.109808, -2.631818 ] } },
{ "type": "Feature", "properties": { "facility_id": "market-007", "facility_type": "market", "facility_subtype": "PASAR KABUPATEN", "facility_name": "Pasar Hamayung", "npsn": null, "ownership_status": null, "address": null, "village": null, "district": null, "student_total": null, "teacher_total": null, "staff_total": null }, "geometry": { "type": "Point", "coordinates": [ 115.116046, -2.581026 ] } },
{ "type": "Feature", "properties": { "facility_id": "market-008", "facility_type": "market", "facility_subtype": "PASAR KABUPATEN", "facility_name": "Pasar Sirih", "npsn": null, "ownership_status": null, "address": null, "village": null, "district": null, "student_total": null, "teacher_total": null, "staff_total": null }, "geometry": { "type": "Point", "coordinates": [ 115.178835, -2.821031 ] } },
{ "type": "Feature", "properties": { "facility_id": "market-009", "facility_type": "market", "facility_subtype": "PASAR KABUPATEN", "facility_name": "Pasar Kandangan", "npsn": null, "ownership_status": null, "address": null, "village": null, "district": null, "student_total": null, "teacher_total": null, "staff_total": null }, "geometry": { "type": "Point", "coordinates": [ 115.267575, -2.788734 ] } },
{ "type": "Feature", "properties": { "facility_id": "market-010", "facility_type": "market", "facility_subtype": "PASAR KABUPATEN", "facility_name": "Pasar Muara Ambarai", "npsn": null, "ownership_status": null, "address": null, "village": null, "district": null, "student_total": null, "teacher_total": null, "staff_total": null }, "geometry": { "type": "Point", "coordinates": [ 115.288985, -2.790378 ] } },
{ "type": "Feature", "properties": { "facility_id": "market-011", "facility_type": "market", "facility_subtype": "PASAR KABUPATEN", "facility_name": "Pasar Arba Batang Kulur", "npsn": null, "ownership_status": null, "address": null, "village": null, "district": null, "student_total": null, "teacher_total": null, "staff_total": null }, "geometry": { "type": "Point", "coordinates": [ 115.227239, -2.848599 ] } }
]
}
