{
"type": "FeatureCollection",
"name": "puskesmas",
"crs": { "type": "name", "properties": { "name": "urn:ogc:def:crs:OGC:1.3:CRS84" } },
"features": [
{ "type": "Feature", "properties": { "facility_id": "puskesmas-17090101", "facility_type": "puskesmas", "facility_subtype": "Puskesmas", "facility_name": "Puskesmas Kandangan", "facility_code": "17090101", "address": "JL.KAMBOJA NO.1 KEL.KANDANGAN UTARA", "village_id": "63.06.05.1002", "village_name": "Kandangan Utara", "admin_type": "Kelurahan", "district_id": "63.06.05", "district_name": "Kandangan" }, "geometry": { "type": "Point", "coordinates": [ 115.2648794, -2.7762586 ] } },
{ "type": "Feature", "properties": { "facility_id": "puskesmas-17090102", "facility_type": "puskesmas", "facility_subtype": "Puskesmas", "facility_name": "Puskesmas Jambu Hilir", "facility_code": "17090102", "address": "JL. KAPTEN PIERE TENDEAN NO.61 KEL.JAMBU HILIR", "village_id": "63.06.05.1004", "village_name": "Jambu Hilir", "admin_type": "Kelurahan", "district_id": "63.06.05", "district_name": "Kandangan" }, "geometry": { "type": "Point", "coordinates": [ 115.2709053, -2.7900339 ] } },
{ "type": "Feature", "properties": { "facility_id": "puskesmas-17090103", "facility_type": "puskesmas", "facility_subtype": "Puskesmas", "facility_name": "Puskesmas Gambah", "facility_code": "17090103", "address": "JL. JEND.ACHMAD YANI KM.4 GAMBAH LUAR", "village_id": "63.06.05.2005", "village_name": "Gambah Luar", "admin_type": "Desa", "district_id": "63.06.05", "district_name": "Kandangan" }, "geometry": { "type": "Point", "coordinates": [ 115.278323, -2.7566584 ] } },
{ "type": "Feature", "properties": { "facility_id": "puskesmas-17091003", "facility_type": "puskesmas", "facility_subtype": "Puskesmas", "facility_name": "Puskesmas Bayanan", "facility_code": "17091003", "address": "JL. NEGARA-KANDANGAN KM.1 DESA BANJARBARU KEC.DAHA SELATAN", "village_id": "63.06.07.2004", "village_name": "Banjarbaru", "admin_type": "Desa", "district_id": "63.06.07", "district_name": "Daha Selatan" }, "geometry": { "type": "Point", "coordinates": [ 115.1165211, -2.6378873 ] } },
{ "type": "Feature", "properties": { "facility_id": "puskesmas-2860902", "facility_type": "puskesmas", "facility_subtype": "Puskesmas", "facility_name": "Puskesmas Baruh Jaya", "facility_code": "2860902", "address": "JL.KAMINTING BATU RT.12 DESA TAMBANGAN KEC.DAHA SELATAN", "village_id": "63.06.07.2014", "village_name": "Tambangan", "admin_type": "Desa", "district_id": "63.06.07", "district_name": "Daha Selatan" }, "geometry": { "type": "Point", "coordinates": [ 115.086301, -2.6349034 ] } },
{ "type": "Feature", "properties": { "facility_id": "puskesmas-2860001", "facility_type": "puskesmas", "facility_subtype": "Puskesmas", "facility_name": "Puskesmas Sungai Pinang", "facility_code": "2860001", "address": "JLN. INPRES RT 04 DESA SUNGAI PINANG KECAMATAN DAHA SELATAN", "village_id": "63.06.07.2010", "village_name": "Habirau", "admin_type": "Desa", "district_id": "63.06.07", "district_name": "Daha Selatan" }, "geometry": { "type": "Point", "coordinates": [ 115.099199, -2.6352138 ] } },
{ "type": "Feature", "properties": { "facility_id": "puskesmas-17090202", "facility_type": "puskesmas", "facility_subtype": "Puskesmas", "facility_name": "Puskesmas Bajayau", "facility_code": "17090202", "address": "JL. BAJAYAU RT 02, DESA BAJAYAU KECAMATAN DAHA BARAT", "village_id": "63.06.11.2005", "village_name": "Bajayau", "admin_type": "Desa", "district_id": "63.06.11", "district_name": "Daha Barat" }, "geometry": { "type": "Point", "coordinates": [ 115.0135316, -2.6958101 ] } },
{ "type": "Feature", "properties": { "facility_id": "puskesmas-17090301", "facility_type": "puskesmas", "facility_subtype": "Puskesmas", "facility_name": "Puskesmas Negara", "facility_code": "17090301", "address": "JL. TAMBAK BITIN RT. 04 NO. 18 DESA TAMBAK BITIN KEC. DAHA UTARA", "village_id": "63.06.08.2003", "village_name": "Tambak Bitin", "admin_type": "Desa", "district_id": "63.06.08", "district_name": "Daha Utara" }, "geometry": { "type": "Point", "coordinates": [ 115.1068994, -2.628319 ] } },
{ "type": "Feature", "properties": { "facility_id": "puskesmas-17090302", "facility_type": "puskesmas", "facility_subtype": "Puskesmas", "facility_name": "Puskesmas Pasungkan", "facility_code": "17090302", "address": "DESA PASUNGKAN RT 04 RW II KEC. DAHA UTARA", "village_id": "63.06.08.2014", "village_name": "Pasungkan", "admin_type": "Desa", "district_id": "63.06.08", "district_name": "Daha Utara" }, "geometry": { "type": "Point", "coordinates": [ 115.104849, -2.599122 ] } },
{ "type": "Feature", "properties": { "facility_id": "puskesmas-17090401", "facility_type": "puskesmas", "facility_subtype": "Puskesmas", "facility_name": "Puskesmas Simpur", "facility_code": "17090401", "address": "JL. PAMUJAAN ,KECAMATAN SIMPUR", "village_id": "63.06.06.2002", "village_name": "Simpur", "admin_type": "Desa", "district_id": "63.06.06", "district_name": "Simpur" }, "geometry": { "type": "Point", "coordinates": [ 115.2100163, -2.8179838 ] } },
{ "type": "Feature", "properties": { "facility_id": "puskesmas-17090402", "facility_type": "puskesmas", "facility_subtype": "Puskesmas", "facility_name": "Puskesmas Wasah", "facility_code": "17090402", "address": "JL.BUKHARI KM 4,5 WASAH HULU", "village_id": "63.06.06.2008", "village_name": "Wasah Hulu", "admin_type": "Desa", "district_id": "63.06.06", "district_name": "Simpur" }, "geometry": { "type": "Point", "coordinates": [ 115.2310673, -2.792106 ] } },
{ "type": "Feature", "properties": { "facility_id": "puskesmas-17090501", "facility_type": "puskesmas", "facility_subtype": "Puskesmas", "facility_name": "Puskesmas Sungai Raya", "facility_code": "17090501", "address": "JL.JEND SUDIRMAN KM 6,5 KEC.SUNGAI RAYA", "village_id": "63.06.01.2005", "village_name": "Sungai Raya Selatan", "admin_type": "Desa", "district_id": "63.06.01", "district_name": "Sungai Raya" }, "geometry": { "type": "Point", "coordinates": [ 115.2490034, -2.8390986 ] } },
{ "type": "Feature", "properties": { "facility_id": "puskesmas-17090502", "facility_type": "puskesmas", "facility_subtype": "Puskesmas", "facility_name": "Puskesmas Batang Kulur", "facility_code": "17090502", "address": "DESA BATANG KULUR TENGAH KEC. SUNGAI RAYA", "village_id": "63.06.01.2010", "village_name": "Batang Kulur Tengah", "admin_type": "Desa", "district_id": "63.06.01", "district_name": "Sungai Raya" }, "geometry": { "type": "Point", "coordinates": [ 115.227431, -2.8488329 ] } },
{ "type": "Feature", "properties": { "facility_id": "puskesmas-17090601", "facility_type": "puskesmas", "facility_subtype": "Puskesmas", "facility_name": "Puskesmas Padang Batung", "facility_code": "17090601", "address": "JL. BRIGJEN H.HASAN BASRY PADANG BATUNG RT.001 RW.001", "village_id": "63.06.02.2008", "village_name": "Padang Batung", "admin_type": "Desa", "district_id": "63.06.02", "district_name": "Padang Batung" }, "geometry": { "type": "Point", "coordinates": [ 115.300937, -2.8196696 ] } },
{ "type": "Feature", "properties": { "facility_id": "puskesmas-17090602", "facility_type": "puskesmas", "facility_subtype": "Puskesmas", "facility_name": "Puskesmas Kaliring", "facility_code": "17090602", "address": "JL. BRIGJEND.H.HASAN BASRI KM 3,5 KECAMATAN PADANG BATUNG", "village_id": "63.06.02.2005", "village_name": "Kaliring", "admin_type": "Desa", "district_id": "63.06.02", "district_name": "Padang Batung" }, "geometry": { "type": "Point", "coordinates": [ 115.2910665, -2.7964298 ] } },
{ "type": "Feature", "properties": { "facility_id": "puskesmas-17090701", "facility_type": "puskesmas", "facility_subtype": "Puskesmas", "facility_name": "Puskesmas Angkinang", "facility_code": "17090701", "address": "JL. A.YANI, KM 8,5 KEC. ANGKINANG", "village_id": "63.06.04.2005", "village_name": "Angkinang", "admin_type": "Desa", "district_id": "63.06.04", "district_name": "Angkinang" }, "geometry": { "type": "Point", "coordinates": [ 115.2936848, -2.7294574 ] } },
{ "type": "Feature", "properties": { "facility_id": "puskesmas-17090702", "facility_type": "puskesmas", "facility_subtype": "Puskesmas", "facility_name": "Puskesmas Bamban", "facility_code": "17090702", "address": "JL. A. YANI KM. 12 BAMBAN UTARA KEC. ANGKINANG", "village_id": "63.06.04.2001", "village_name": "Bamban Utara", "admin_type": "Desa", "district_id": "63.06.04", "district_name": "Angkinang" }, "geometry": { "type": "Point", "coordinates": [ 115.3091902, -2.7051519 ] } },
{ "type": "Feature", "properties": { "facility_id": "puskesmas-17090801", "facility_type": "puskesmas", "facility_subtype": "Puskesmas", "facility_name": "Puskesmas Telaga Langsat", "facility_code": "17090801", "address": "JL.SETIA BUDI NO.25 MANDALA.KEC.TELAGA LANGSAT", "village_id": "63.06.03.2003", "village_name": "Mandala", "admin_type": "Desa", "district_id": "63.06.03", "district_name": "Telaga Langsat" }, "geometry": { "type": "Point", "coordinates": [ 115.3359497, -2.7354117 ] } },
{ "type": "Feature", "properties": { "facility_id": "puskesmas-17090901", "facility_type": "puskesmas", "facility_subtype": "Puskesmas", "facility_name": "Puskesmas Kalumpang", "facility_code": "17090901", "address": "JL. BUKHARI KM 14,5 KALUMPANG KECAMATAN KALUMPANG", "village_id": "63.06.09.2006", "village_name": "Kalumpang", "admin_type": "Desa", "district_id": "63.06.09", "district_name": "Kalumpang" }, "geometry": { "type": "Point", "coordinates": [ 115.1610171, -2.8227146 ] } },
{ "type": "Feature", "properties": { "facility_id": "puskesmas-17091001", "facility_type": "puskesmas", "facility_subtype": "Puskesmas", "facility_name": "Puskesmas Loksado", "facility_code": "17091001", "address": "JL. PANTAI KIPAS GG. SEHAT DESA LOKSADO", "village_id": "63.06.10.2009", "village_name": "Loksado", "admin_type": "Desa", "district_id": "63.06.10", "district_name": "Loksado" }, "geometry": { "type": "Point", "coordinates": [ 115.4966855, -2.7937788 ] } },
{ "type": "Feature", "properties": { "facility_id": "puskesmas-17091002", "facility_type": "puskesmas", "facility_subtype": "Puskesmas", "facility_name": "Puskesmas Malinau", "facility_code": "17091002", "address": "JL.TRANS KANDANGAN -BATULICIN KEC.LOKSADO", "village_id": "63.06.10.2004", "village_name": "Malinau", "admin_type": "Desa", "district_id": "63.06.10", "district_name": "Loksado" }, "geometry": { "type": "Point", "coordinates": [ 115.412592, -2.8669679 ] } }
]
}
